{"type":"FeatureCollection","features":[{"type":"Feature","properties":{"block_id":"11057157","blk_no":"1","postal_code":"591501","region_id":"CR","region":"CENTRAL REGION","planning_area_id":"BT","planning_area":"BUKIT TIMAH","subzone_id":"BTSZ01","subzone":"ANAK BUKIT","lon":103.7748,"lat":1.3395,"property_match":"MATCHED","property_match_confidence":"HIGH","street":"TOH YI DR","residential":"Y","year_completed":1987,"building_age_2026":39,"max_floor_lvl":13,"total_dwelling_units":132,"small_flat_share_pct":0.0,"rental_share_pct":0.0,"footprint_area_m2":1549.2,"estimated_residents_2026":401.9,"estimated_elderly_65plus_2026":121.1,"estimated_elderly_share_pct":30.14,"elderly_exposure_score":93.5,"elderly_exposure_class":"VERY HIGH","estimate_confidence":"HIGH","display_name":"Block 1"},"geometry":{"type":"Polygon","coordinates":[[[103.77424,1.339696],[103.774228,1.339589],[103.774246,1.339587],[103.774242,1.339548],[103.774223,1.33955],[103.774212,1.339452],[103.77431,1.33944],[103.77432,1.33953],[103.77431,1.339531],[103.774314,1.339564],[103.775042,1.33948],[103.775039,1.33945],[103.775029,1.339451],[103.775018,1.339359],[103.775118,1.339348],[103.775129,1.339446],[103.775112,1.339448],[103.775116,1.339487],[103.775133,1.339485],[103.775145,1.339592],[103.775071,1.3396],[103.775076,1.339641],[103.775052,1.339644],[103.775045,1.339584],[103.774336,1.339665],[103.774343,1.339723],[103.774319,1.339726],[103.774315,1.339687],[103.77424,1.339696]]]}},{"type":"Feature","properties":{"block_id":"11057165","blk_no":"10","postal_code":"590010","region_id":"CR","region":"CENTRAL REGION","planning_area_id":"BT","planning_area":"BUKIT TIMAH","subzone_id":"BTSZ01","subzone":"ANAK BUKIT","lon":103.7733,"lat":1.3378,"property_match":"MATCHED","property_match_confidence":"HIGH","street":"TOH YI DR","residential":"Y","year_completed":1988,"building_age_2026":38,"max_floor_lvl":7,"total_dwelling_units":36,"small_flat_share_pct":0.0,"rental_share_pct":0.0,"footprint_area_m2":1274.1,"estimated_residents_2026":120.5,"estimated_elderly_65plus_2026":34.0,"estimated_elderly_share_pct":28.19,"elderly_exposure_score":21.8,"elderly_exposure_class":"LOW","estimate_confidence":"HIGH","display_name":"Block 10"},"geometry":{"type":"Polygon","coordinates":[[[103.772916,1.337398],[103.772978,1.337317],[103.773312,1.337584],[103.773305,1.337614],[103.773329,1.337657],[103.773358,1.337667],[103.773406,1.338094],[103.773305,1.338105],[103.773303,1.33808],[103.773282,1.338083],[103.773245,1.337709],[103.773219,1.337661],[103.772922,1.337429],[103.772935,1.337413],[103.772916,1.337398]]]}},{"type":"Feature","properties":{"block_id":"11057162","blk_no":"11","postal_code":"590011","region_id":"CR","region":"CENTRAL REGION","planning_area_id":"BT","planning_area":"BUKIT TIMAH","subzone_id":"BTSZ01","subzone":"ANAK BUKIT","lon":103.7728,"lat":1.3378,"property_match":"MATCHED","property_match_confidence":"HIGH","street":"TOH YI DR","residential":"Y","year_completed":1988,"building_age_2026":38,"max_floor_lvl":11,"total_dwelling_units":115,"small_flat_share_pct":0.0,"rental_share_pct":0.0,"footprint_area_m2":1816.8,"estimated_residents_2026":346.6,"estimated_elderly_65plus_2026":105.2,"estimated_elderly_share_pct":30.35,"elderly_exposure_score":89.7,"elderly_exposure_class":"VERY HIGH","estimate_confidence":"HIGH","display_name":"Block 11"},"geometry":{"type":"Polygon","coordinates":[[[103.772308,1.338209],[103.772298,1.33812],[103.772315,1.338118],[103.772311,1.338082],[103.772294,1.338084],[103.772281,1.337965],[103.772354,1.337957],[103.77235,1.337926],[103.772375,1.337924],[103.77238,1.337974],[103.772706,1.337936],[103.772762,1.337865],[103.772714,1.337442],[103.772673,1.337447],[103.772671,1.337423],[103.772712,1.337418],[103.772707,1.33738],[103.772843,1.337208],[103.772928,1.337276],[103.77286,1.337361],[103.772868,1.337367],[103.772854,1.337386],[103.772843,1.337377],[103.772822,1.337404],[103.772805,1.33739],[103.772785,1.337407],[103.772788,1.337432],[103.772822,1.337424],[103.772838,1.33744],[103.77284,1.337463],[103.772827,1.337464],[103.772839,1.337581],[103.772853,1.33758],[103.772856,1.337603],[103.772843,1.337613],[103.772859,1.337627],[103.772861,1.337651],[103.772847,1.337652],[103.772875,1.337902],[103.772831,1.337907],[103.772808,1.337926],[103.772763,1.337993],[103.772768,1.338038],[103.772382,1.338076],[103.772386,1.338109],[103.772396,1.338108],[103.772406,1.338198],[103.772308,1.338209]]]}},{"type":"Feature","properties":{"block_id":"11057163","blk_no":"12","postal_code":"590012","region_id":"CR","region":"CENTRAL REGION","planning_area_id":"BT","planning_area":"BUKIT TIMAH","subzone_id":"BTSZ01","subzone":"ANAK BUKIT","lon":103.7727,"lat":1.3384,"property_match":"MATCHED","property_match_confidence":"HIGH","street":"TOH YI DR","residential":"Y","year_completed":1988,"building_age_2026":38,"max_floor_lvl":12,"total_dwelling_units":88,"small_flat_share_pct":0.0,"rental_share_pct":0.0,"footprint_area_m2":1117.1,"estimated_residents_2026":267.9,"estimated_elderly_65plus_2026":80.7,"estimated_elderly_share_pct":30.14,"elderly_exposure_score":76.1,"elderly_exposure_class":"HIGH","estimate_confidence":"HIGH","display_name":"Block 12"},"geometry":{"type":"Polygon","coordinates":[[[103.772344,1.338516],[103.772331,1.338406],[103.772348,1.338404],[103.772344,1.338367],[103.772327,1.338369],[103.772316,1.338271],[103.772413,1.33826],[103.772423,1.338349],[103.772413,1.33835],[103.772417,1.338383],[103.772802,1.338334],[103.772804,1.338354],[103.772856,1.338348],[103.772853,1.338328],[103.773043,1.338306],[103.773055,1.338416],[103.772439,1.338485],[103.772446,1.338548],[103.772422,1.338551],[103.772417,1.338507],[103.772344,1.338516]]]}},{"type":"Feature","properties":{"block_id":"11057153","blk_no":"13","postal_code":"590013","region_id":"CR","region":"CENTRAL REGION","planning_area_id":"BT","planning_area":"BUKIT TIMAH","subzone_id":"BTSZ01","subzone":"ANAK BUKIT","lon":103.7723,"lat":1.3388,"property_match":"MATCHED","property_match_confidence":"HIGH","street":"TOH YI DR","residential":"Y","year_completed":1988,"building_age_2026":38,"max_floor_lvl":13,"total_dwelling_units":138,"small_flat_share_pct":0.0,"rental_share_pct":0.0,"footprint_area_m2":1680.8,"estimated_residents_2026":416.9,"estimated_elderly_65plus_2026":126.3,"estimated_elderly_share_pct":30.3,"elderly_exposure_score":94.5,"elderly_exposure_class":"VERY HIGH","estimate_confidence":"HIGH","display_name":"Block 13"},"geometry":{"type":"Polygon","coordinates":[[[103.771962,1.338977],[103.771947,1.33888],[103.771963,1.338877],[103.771957,1.338838],[103.77194,1.33884],[103.771923,1.338733],[103.771995,1.338722],[103.772003,1.338738],[103.771998,1.33869],[103.772022,1.338687],[103.772028,1.338737],[103.772833,1.338645],[103.772826,1.338585],[103.77285,1.338582],[103.772855,1.338623],[103.772927,1.338615],[103.772939,1.338722],[103.772922,1.338724],[103.772926,1.338763],[103.772943,1.338761],[103.772954,1.33886],[103.772856,1.33887],[103.772846,1.338781],[103.772856,1.33878],[103.772852,1.338747],[103.77247,1.338799],[103.772037,1.338839],[103.772029,1.338841],[103.772034,1.338874],[103.772043,1.338872],[103.772057,1.338962],[103.771962,1.338977]]]}},{"type":"Feature","properties":{"block_id":"11057154","blk_no":"14","postal_code":"590014","region_id":"CR","region":"CENTRAL REGION","planning_area_id":"BT","planning_area":"BUKIT TIMAH","subzone_id":"BTSZ01","subzone":"ANAK BUKIT","lon":103.7726,"lat":1.3391,"property_match":"MATCHED","property_match_confidence":"HIGH","street":"TOH YI DR","residential":"Y","year_completed":1987,"building_age_2026":39,"max_floor_lvl":13,"total_dwelling_units":96,"small_flat_share_pct":0.0,"rental_share_pct":0.0,"footprint_area_m2":1122.3,"estimated_residents_2026":291.3,"estimated_elderly_65plus_2026":88.0,"estimated_elderly_share_pct":30.2,"elderly_exposure_score":81.4,"elderly_exposure_class":"VERY HIGH","estimate_confidence":"HIGH","display_name":"Block 14"},"geometry":{"type":"Polygon","coordinates":[[[103.77216,1.339188],[103.772147,1.339079],[103.772338,1.339057],[103.772345,1.339068],[103.772364,1.339066],[103.772363,1.339054],[103.772739,1.339011],[103.772741,1.339031],[103.772792,1.339026],[103.77279,1.339005],[103.77298,1.338984],[103.772993,1.339093],[103.772374,1.339162],[103.772378,1.339191],[103.772354,1.339193],[103.77235,1.339165],[103.77216,1.339188]]]}},{"type":"Feature","properties":{"block_id":"11057155","blk_no":"15","postal_code":"590015","region_id":"CR","region":"CENTRAL REGION","planning_area_id":"BT","planning_area":"BUKIT TIMAH","subzone_id":"BTSZ01","subzone":"ANAK BUKIT","lon":103.7721,"lat":1.3394,"property_match":"MATCHED","property_match_confidence":"HIGH","street":"TOH YI DR","residential":"Y","year_completed":1987,"building_age_2026":39,"max_floor_lvl":4,"total_dwelling_units":16,"small_flat_share_pct":0.0,"rental_share_pct":0.0,"footprint_area_m2":827.3,"estimated_residents_2026":53.6,"estimated_elderly_65plus_2026":15.1,"estimated_elderly_share_pct":28.19,"elderly_exposure_score":7.1,"elderly_exposure_class":"VERY LOW","estimate_confidence":"HIGH","display_name":"Block 15"},"geometry":{"type":"Polygon","coordinates":[[[103.772039,1.339607],[103.771949,1.339031],[103.772048,1.339015],[103.772051,1.339039],[103.772067,1.339037],[103.772084,1.339146],[103.772115,1.339142],[103.772119,1.339165],[103.772087,1.339169],[103.77215,1.339565],[103.772134,1.339568],[103.772138,1.339591],[103.772039,1.339607]]]}},{"type":"Feature","properties":{"block_id":"11057156","blk_no":"16","postal_code":"590016","region_id":"CR","region":"CENTRAL REGION","planning_area_id":"BT","planning_area":"BUKIT TIMAH","subzone_id":"BTSZ01","subzone":"ANAK BUKIT","lon":103.7726,"lat":1.3394,"property_match":"MATCHED","property_match_confidence":"HIGH","street":"TOH YI DR","residential":"Y","year_completed":1987,"building_age_2026":39,"max_floor_lvl":13,"total_dwelling_units":96,"small_flat_share_pct":0.0,"rental_share_pct":0.0,"footprint_area_m2":1116.9,"estimated_residents_2026":291.3,"estimated_elderly_65plus_2026":88.0,"estimated_elderly_share_pct":30.2,"elderly_exposure_score":81.4,"elderly_exposure_class":"VERY HIGH","estimate_confidence":"HIGH","display_name":"Block 16"},"geometry":{"type":"Polygon","coordinates":[[[103.772196,1.339509],[103.772184,1.339399],[103.772375,1.339378],[103.772372,1.339351],[103.772396,1.339348],[103.772399,1.339377],[103.773017,1.339305],[103.773029,1.339414],[103.772839,1.339436],[103.772836,1.339416],[103.772785,1.339421],[103.772787,1.339442],[103.772411,1.339484],[103.77241,1.339472],[103.772386,1.339475],[103.772387,1.339487],[103.772196,1.339509]]]}},{"type":"Feature","properties":{"block_id":"11057152","blk_no":"17","postal_code":"590017","region_id":"CR","region":"CENTRAL REGION","planning_area_id":"BT","planning_area":"BUKIT TIMAH","subzone_id":"BTSZ01","subzone":"ANAK BUKIT","lon":103.7727,"lat":1.3397,"property_match":"MATCHED","property_match_confidence":"HIGH","street":"TOH YI DR","residential":"Y","year_completed":1988,"building_age_2026":38,"max_floor_lvl":14,"total_dwelling_units":138,"small_flat_share_pct":0.0,"rental_share_pct":0.0,"footprint_area_m2":1541.2,"estimated_residents_2026":420.3,"estimated_elderly_65plus_2026":126.6,"estimated_elderly_share_pct":30.13,"elderly_exposure_score":94.6,"elderly_exposure_class":"VERY HIGH","estimate_confidence":"HIGH","display_name":"Block 17"},"geometry":{"type":"Polygon","coordinates":[[[103.772124,1.339895],[103.772108,1.339789],[103.772125,1.339786],[103.772118,1.339747],[103.772102,1.33975],[103.772086,1.339653],[103.772182,1.339637],[103.772196,1.339726],[103.772186,1.339728],[103.77219,1.339758],[103.772925,1.339671],[103.772922,1.339644],[103.772912,1.339645],[103.772902,1.339556],[103.773,1.339545],[103.773011,1.339644],[103.772994,1.339646],[103.772998,1.339685],[103.773015,1.339682],[103.773027,1.339788],[103.772955,1.339796],[103.77296,1.339837],[103.772936,1.33984],[103.772929,1.33978],[103.77222,1.339861],[103.772226,1.339912],[103.772202,1.339915],[103.772196,1.339864],[103.772197,1.339883],[103.772124,1.339895]]]}},{"type":"Feature","properties":{"block_id":"11057150","blk_no":"18","postal_code":"590018","region_id":"CR","region":"CENTRAL REGION","planning_area_id":"BT","planning_area":"BUKIT TIMAH","subzone_id":"BTSZ01","subzone":"ANAK BUKIT","lon":103.7732,"lat":1.34,"property_match":"MATCHED","property_match_confidence":"HIGH","street":"TOH YI DR","residential":"Y","year_completed":1988,"building_age_2026":38,"max_floor_lvl":4,"total_dwelling_units":22,"small_flat_share_pct":59.09,"rental_share_pct":0.0,"footprint_area_m2":1151.9,"estimated_residents_2026":31.6,"estimated_elderly_65plus_2026":14.6,"estimated_elderly_share_pct":46.05,"elderly_exposure_score":6.8,"elderly_exposure_class":"VERY LOW","estimate_confidence":"HIGH","display_name":"Block 18"},"geometry":{"type":"Polygon","coordinates":[[[103.772811,1.340066],[103.772787,1.339849],[103.772893,1.339837],[103.772903,1.339928],[103.772869,1.339932],[103.772872,1.339958],[103.772933,1.339951],[103.772932,1.339933],[103.773185,1.339924],[103.773187,1.339949],[103.773197,1.339948],[103.773196,1.339923],[103.773212,1.339922],[103.773214,1.339948],[103.773237,1.339947],[103.773236,1.339922],[103.773322,1.339919],[103.773323,1.339944],[103.773346,1.339943],[103.773345,1.339918],[103.773494,1.339913],[103.773497,1.33999],[103.773517,1.33999],[103.773518,1.340037],[103.772908,1.340055],[103.772811,1.340066]]]}},{"type":"Feature","properties":{"block_id":"11057151","blk_no":"19","postal_code":"590019","region_id":"CR","region":"CENTRAL REGION","planning_area_id":"BT","planning_area":"BUKIT TIMAH","subzone_id":"BTSZ01","subzone":"ANAK BUKIT","lon":103.7739,"lat":1.34,"property_match":"MATCHED","property_match_confidence":"HIGH","street":"TOH YI DR","residential":"Y","year_completed":1988,"building_age_2026":38,"max_floor_lvl":4,"total_dwelling_units":16,"small_flat_share_pct":50.0,"rental_share_pct":0.0,"footprint_area_m2":965.1,"estimated_residents_2026":26.3,"estimated_elderly_65plus_2026":11.2,"estimated_elderly_share_pct":42.4,"elderly_exposure_score":4.7,"elderly_exposure_class":"VERY LOW","estimate_confidence":"HIGH","display_name":"Block 19"},"geometry":{"type":"Polygon","coordinates":[[[103.774222,1.340012],[103.773563,1.340035],[103.773562,1.339988],[103.773582,1.339987],[103.773579,1.33991],[103.773728,1.339905],[103.773728,1.339928],[103.773778,1.339926],[103.773777,1.339903],[103.774218,1.339888],[103.774222,1.340012]]]}},{"type":"Feature","properties":{"block_id":"11057158","blk_no":"1A","postal_code":"591601","region_id":"CR","region":"CENTRAL REGION","planning_area_id":"BT","planning_area":"BUKIT TIMAH","subzone_id":"BTSZ01","subzone":"ANAK BUKIT","lon":103.7743,"lat":1.339,"property_match":"MATCHED","property_match_confidence":"HIGH","street":"TOH YI DR","residential":"N","year_completed":1988,"building_age_2026":38,"max_floor_lvl":4,"total_dwelling_units":0,"small_flat_share_pct":null,"rental_share_pct":null,"footprint_area_m2":1785.1,"estimated_residents_2026":0.0,"estimated_elderly_65plus_2026":0.0,"estimated_elderly_share_pct":null,"elderly_exposure_score":null,"elderly_exposure_class":null,"estimate_confidence":"HIGH","display_name":"Block 1A"},"geometry":{"type":"Polygon","coordinates":[[[103.774198,1.33933],[103.774137,1.338789],[103.774402,1.338758],[103.774463,1.3393],[103.774198,1.33933]]]}},{"type":"Feature","properties":{"block_id":"11057159","blk_no":"2","postal_code":"590002","region_id":"CR","region":"CENTRAL REGION","planning_area_id":"BT","planning_area":"BUKIT TIMAH","subzone_id":"BTSZ01","subzone":"ANAK BUKIT","lon":103.7756,"lat":1.3391,"property_match":"MATCHED","property_match_confidence":"HIGH","street":"TOH YI DR","residential":"Y","year_completed":1988,"building_age_2026":38,"max_floor_lvl":15,"total_dwelling_units":78,"small_flat_share_pct":0.0,"rental_share_pct":0.0,"footprint_area_m2":1277.8,"estimated_residents_2026":261.2,"estimated_elderly_65plus_2026":73.6,"estimated_elderly_share_pct":28.19,"elderly_exposure_score":69.3,"elderly_exposure_class":"HIGH","estimate_confidence":"HIGH","display_name":"Block 2"},"geometry":{"type":"Polygon","coordinates":[[[103.774939,1.339281],[103.774927,1.33918],[103.774951,1.339177],[103.774949,1.339157],[103.775453,1.339103],[103.7755,1.339077],[103.775653,1.338883],[103.775666,1.338894],[103.775681,1.338875],[103.77576,1.338938],[103.775575,1.339171],[103.775546,1.339164],[103.775503,1.339189],[103.775493,1.339217],[103.774939,1.339281]]]}},{"type":"Feature","properties":{"block_id":"10064","blk_no":"21","postal_code":"590021","region_id":"CR","region":"CENTRAL REGION","planning_area_id":"BT","planning_area":"BUKIT TIMAH","subzone_id":"BTSZ01","subzone":"ANAK BUKIT","lon":103.772,"lat":1.3381,"property_match":"MATCHED","property_match_confidence":"HIGH","street":"TOH YI DR","residential":"Y","year_completed":2015,"building_age_2026":11,"max_floor_lvl":13,"total_dwelling_units":132,"small_flat_share_pct":100.0,"rental_share_pct":0.0,"footprint_area_m2":1578.4,"estimated_residents_2026":172.6,"estimated_elderly_65plus_2026":162.5,"estimated_elderly_share_pct":94.12,"elderly_exposure_score":98.0,"elderly_exposure_class":"VERY HIGH","estimate_confidence":"HIGH","display_name":"Block 21"},"geometry":{"type":"Polygon","coordinates":[[[103.771805,1.338152],[103.77177,1.337953],[103.772114,1.337914],[103.772158,1.338301],[103.772146,1.338302],[103.77215,1.338348],[103.771905,1.338376],[103.771897,1.338307],[103.771882,1.338309],[103.771879,1.338285],[103.771893,1.338283],[103.771882,1.338183],[103.771907,1.338181],[103.771903,1.338141],[103.771805,1.338152]]]}},{"type":"Feature","properties":{"block_id":"11057160","blk_no":"3","postal_code":"590003","region_id":"CR","region":"CENTRAL REGION","planning_area_id":"BT","planning_area":"BUKIT TIMAH","subzone_id":"BTSZ01","subzone":"ANAK BUKIT","lon":103.7752,"lat":1.3388,"property_match":"MATCHED","property_match_confidence":"HIGH","street":"TOH YI DR","residential":"Y","year_completed":1987,"building_age_2026":39,"max_floor_lvl":15,"total_dwelling_units":64,"small_flat_share_pct":0.0,"rental_share_pct":0.0,"footprint_area_m2":1042.2,"estimated_residents_2026":214.3,"estimated_elderly_65plus_2026":60.4,"estimated_elderly_share_pct":28.19,"elderly_exposure_score":54.6,"elderly_exposure_class":"MODERATE","estimate_confidence":"HIGH","display_name":"Block 3"},"geometry":{"type":"Polygon","coordinates":[[[103.774891,1.338858],[103.774879,1.338756],[103.775433,1.338692],[103.775449,1.338717],[103.775498,1.338731],[103.775524,1.338719],[103.775632,1.338805],[103.77557,1.338885],[103.775544,1.338864],[103.775535,1.338876],[103.775472,1.338826],[103.77542,1.338811],[103.774916,1.338869],[103.774914,1.338855],[103.774891,1.338858]]]}},{"type":"Feature","properties":{"block_id":"11057161","blk_no":"4","postal_code":"590004","region_id":"CR","region":"CENTRAL REGION","planning_area_id":"BT","planning_area":"BUKIT TIMAH","subzone_id":"BTSZ01","subzone":"ANAK BUKIT","lon":103.7744,"lat":1.3386,"property_match":"MATCHED","property_match_confidence":"HIGH","street":"TOH YI DR","residential":"Y","year_completed":1988,"building_age_2026":38,"max_floor_lvl":13,"total_dwelling_units":132,"small_flat_share_pct":0.0,"rental_share_pct":0.0,"footprint_area_m2":1562.1,"estimated_residents_2026":401.9,"estimated_elderly_65plus_2026":121.1,"estimated_elderly_share_pct":30.14,"elderly_exposure_score":93.5,"elderly_exposure_class":"VERY HIGH","estimate_confidence":"HIGH","display_name":"Block 4"},"geometry":{"type":"Polygon","coordinates":[[[103.774131,1.338735],[103.77412,1.338637],[103.774137,1.338635],[103.774133,1.338594],[103.774116,1.338596],[103.774104,1.338491],[103.774178,1.338482],[103.774173,1.338439],[103.774197,1.338437],[103.774204,1.338499],[103.774913,1.338417],[103.774906,1.338355],[103.77493,1.338353],[103.774935,1.338395],[103.775008,1.338387],[103.77502,1.338494],[103.775003,1.338496],[103.775008,1.338535],[103.775025,1.338533],[103.775036,1.338631],[103.774938,1.338642],[103.774925,1.338526],[103.774215,1.338605],[103.774206,1.338606],[103.774209,1.338635],[103.774219,1.338634],[103.774229,1.338724],[103.774131,1.338735]]]}},{"type":"Feature","properties":{"block_id":"11057167","blk_no":"5","postal_code":"590005","region_id":"CR","region":"CENTRAL REGION","planning_area_id":"BT","planning_area":"BUKIT TIMAH","subzone_id":"BTSZ01","subzone":"ANAK BUKIT","lon":103.7747,"lat":1.3382,"property_match":"MATCHED","property_match_confidence":"HIGH","street":"TOH YI DR","residential":"Y","year_completed":1989,"building_age_2026":37,"max_floor_lvl":13,"total_dwelling_units":132,"small_flat_share_pct":0.0,"rental_share_pct":0.0,"footprint_area_m2":1553.5,"estimated_residents_2026":401.9,"estimated_elderly_65plus_2026":121.1,"estimated_elderly_share_pct":30.14,"elderly_exposure_score":93.5,"elderly_exposure_class":"VERY HIGH","estimate_confidence":"HIGH","display_name":"Block 5"},"geometry":{"type":"Polygon","coordinates":[[[103.774084,1.338317],[103.774072,1.33821],[103.774091,1.338208],[103.774086,1.338168],[103.774067,1.338171],[103.774056,1.338072],[103.774154,1.338061],[103.774164,1.33815],[103.774154,1.338151],[103.774158,1.338185],[103.774167,1.338184],[103.77454,1.338132],[103.774887,1.338099],[103.774883,1.338068],[103.774873,1.338069],[103.774863,1.33798],[103.774961,1.337969],[103.774972,1.338067],[103.774955,1.338069],[103.77496,1.338108],[103.774976,1.338106],[103.774988,1.338213],[103.77491,1.338222],[103.774915,1.338263],[103.774891,1.338265],[103.774884,1.338206],[103.77418,1.338286],[103.774187,1.338345],[103.774162,1.338348],[103.774158,1.338308],[103.774084,1.338317]]]}},{"type":"Feature","properties":{"block_id":"11057168","blk_no":"6","postal_code":"590006","region_id":"CR","region":"CENTRAL REGION","planning_area_id":"BT","planning_area":"BUKIT TIMAH","subzone_id":"BTSZ01","subzone":"ANAK BUKIT","lon":103.7754,"lat":1.3377,"property_match":"MATCHED","property_match_confidence":"HIGH","street":"TOH YI DR","residential":"Y","year_completed":1989,"building_age_2026":37,"max_floor_lvl":15,"total_dwelling_units":78,"small_flat_share_pct":0.0,"rental_share_pct":0.0,"footprint_area_m2":1273.2,"estimated_residents_2026":261.2,"estimated_elderly_65plus_2026":73.6,"estimated_elderly_share_pct":28.19,"elderly_exposure_score":69.3,"elderly_exposure_class":"HIGH","estimate_confidence":"HIGH","display_name":"Block 6"},"geometry":{"type":"Polygon","coordinates":[[[103.774728,1.337879],[103.774716,1.337778],[103.774741,1.337776],[103.774739,1.337755],[103.775241,1.337703],[103.775288,1.337676],[103.775435,1.337481],[103.775453,1.337495],[103.775469,1.337475],[103.775548,1.337538],[103.775364,1.337772],[103.775335,1.337765],[103.775291,1.337789],[103.775282,1.337816],[103.774885,1.337862],[103.774883,1.337843],[103.77486,1.337846],[103.774862,1.337864],[103.774728,1.337879]]]}},{"type":"Feature","properties":{"block_id":"11057169","blk_no":"7","postal_code":"590007","region_id":"CR","region":"CENTRAL REGION","planning_area_id":"BT","planning_area":"BUKIT TIMAH","subzone_id":"BTSZ01","subzone":"ANAK BUKIT","lon":103.7748,"lat":1.3374,"property_match":"MATCHED","property_match_confidence":"HIGH","street":"TOH YI DR","residential":"Y","year_completed":1989,"building_age_2026":37,"max_floor_lvl":15,"total_dwelling_units":76,"small_flat_share_pct":0.0,"rental_share_pct":0.0,"footprint_area_m2":1225.2,"estimated_residents_2026":254.5,"estimated_elderly_65plus_2026":71.7,"estimated_elderly_share_pct":28.19,"elderly_exposure_score":67.0,"elderly_exposure_class":"HIGH","estimate_confidence":"HIGH","display_name":"Block 7"},"geometry":{"type":"Polygon","coordinates":[[[103.774694,1.337578],[103.774669,1.337355],[103.774713,1.33735],[103.774715,1.337366],[103.774766,1.33736],[103.774765,1.337345],[103.775222,1.337293],[103.775238,1.337318],[103.775285,1.337332],[103.775312,1.337319],[103.775418,1.337404],[103.775353,1.337485],[103.775334,1.33747],[103.775321,1.337487],[103.775256,1.337428],[103.775204,1.337414],[103.774847,1.337454],[103.774852,1.337496],[103.774819,1.3375],[103.774826,1.337562],[103.774788,1.337567],[103.774786,1.33755],[103.774735,1.337557],[103.774737,1.337573],[103.774694,1.337578]]]}},{"type":"Feature","properties":{"block_id":"11057166","blk_no":"8","postal_code":"590008","region_id":"CR","region":"CENTRAL REGION","planning_area_id":"BT","planning_area":"BUKIT TIMAH","subzone_id":"BTSZ01","subzone":"ANAK BUKIT","lon":103.774,"lat":1.338,"property_match":"MATCHED","property_match_confidence":"HIGH","street":"TOH YI DR","residential":"Y","year_completed":1988,"building_age_2026":38,"max_floor_lvl":4,"total_dwelling_units":32,"small_flat_share_pct":0.0,"rental_share_pct":0.0,"footprint_area_m2":1630.4,"estimated_residents_2026":107.1,"estimated_elderly_65plus_2026":30.2,"estimated_elderly_share_pct":28.19,"elderly_exposure_score":18.4,"elderly_exposure_class":"VERY LOW","estimate_confidence":"HIGH","display_name":"Block 8"},"geometry":{"type":"Polygon","coordinates":[[[103.773458,1.338072],[103.773446,1.337971],[103.774572,1.337841],[103.774584,1.337944],[103.77456,1.337946],[103.77456,1.33796],[103.774033,1.338021],[103.774037,1.338054],[103.774013,1.338057],[103.774009,1.338024],[103.773484,1.338084],[103.773482,1.338069],[103.773458,1.338072]]]}},{"type":"Feature","properties":{"block_id":"11057164","blk_no":"9","postal_code":"590009","region_id":"CR","region":"CENTRAL REGION","planning_area_id":"BT","planning_area":"BUKIT TIMAH","subzone_id":"BTSZ01","subzone":"ANAK BUKIT","lon":103.7737,"lat":1.3383,"property_match":"MATCHED","property_match_confidence":"HIGH","street":"TOH YI DR","residential":"Y","year_completed":1988,"building_age_2026":38,"max_floor_lvl":13,"total_dwelling_units":96,"small_flat_share_pct":0.0,"rental_share_pct":0.0,"footprint_area_m2":1118.0,"estimated_residents_2026":291.3,"estimated_elderly_65plus_2026":88.0,"estimated_elderly_share_pct":30.2,"elderly_exposure_score":81.4,"elderly_exposure_class":"VERY HIGH","estimate_confidence":"HIGH","display_name":"Block 9"},"geometry":{"type":"Polygon","coordinates":[[[103.773189,1.3384],[103.773177,1.338291],[103.773367,1.33827],[103.773369,1.33829],[103.77342,1.338284],[103.773418,1.338264],[103.773804,1.338225],[103.7738,1.338192],[103.773791,1.338193],[103.773781,1.338104],[103.773878,1.338093],[103.773889,1.338191],[103.773871,1.338193],[103.773875,1.338232],[103.773894,1.33823],[103.773906,1.338337],[103.773833,1.338345],[103.773838,1.338385],[103.773814,1.338388],[103.773807,1.338328],[103.773189,1.3384]]]}},{"type":"Feature","properties":{"block_id":"11851","blk_no":"1","postal_code":"260001","region_id":"CR","region":"CENTRAL REGION","planning_area_id":"BT","planning_area":"BUKIT TIMAH","subzone_id":"BTSZ08","subzone":"FARRER COURT","lon":103.8068,"lat":1.3173,"property_match":"MATCHED","property_match_confidence":"HIGH","street":"QUEEN'S RD","residential":"Y","year_completed":1974,"building_age_2026":52,"max_floor_lvl":23,"total_dwelling_units":88,"small_flat_share_pct":0.0,"rental_share_pct":0.0,"footprint_area_m2":631.3,"estimated_residents_2026":272.8,"estimated_elderly_65plus_2026":88.0,"estimated_elderly_share_pct":32.26,"elderly_exposure_score":81.4,"elderly_exposure_class":"VERY HIGH","estimate_confidence":"HIGH","display_name":"Block 1"},"geometry":{"type":"Polygon","coordinates":[[[103.806637,1.317337],[103.806662,1.317251],[103.806721,1.317268],[103.806732,1.317231],[103.806672,1.317214],[103.806696,1.317129],[103.806768,1.31715],[103.806772,1.317134],[103.806838,1.317141],[103.806834,1.317152],[103.806861,1.317159],[103.806857,1.317173],[103.806928,1.317196],[103.806904,1.31728],[103.806844,1.317263],[103.806834,1.3173],[103.806893,1.317317],[103.806869,1.317404],[103.806797,1.317385],[103.806793,1.317399],[103.806766,1.31739],[103.806765,1.317401],[103.806727,1.31739],[103.806731,1.31738],[103.806704,1.317373],[103.806709,1.317357],[103.806637,1.317337]]]}},{"type":"Feature","properties":{"block_id":"5465","blk_no":"2","postal_code":"260002","region_id":"CR","region":"CENTRAL REGION","planning_area_id":"BT","planning_area":"BUKIT TIMAH","subzone_id":"BTSZ08","subzone":"FARRER COURT","lon":103.8073,"lat":1.3178,"property_match":"MATCHED","property_match_confidence":"HIGH","street":"QUEEN'S RD","residential":"Y","year_completed":1973,"building_age_2026":53,"max_floor_lvl":12,"total_dwelling_units":66,"small_flat_share_pct":15.15,"rental_share_pct":0.0,"footprint_area_m2":715.2,"estimated_residents_2026":172.7,"estimated_elderly_65plus_2026":41.0,"estimated_elderly_share_pct":23.73,"elderly_exposure_score":29.7,"elderly_exposure_class":"LOW","estimate_confidence":"HIGH","display_name":"Block 2"},"geometry":{"type":"Polygon","coordinates":[[[103.806984,1.31768],[103.806988,1.317663],[103.807053,1.317685],[103.807059,1.317666],[103.807109,1.31768],[103.807103,1.3177],[103.807234,1.317737],[103.807239,1.317718],[103.807289,1.317732],[103.807284,1.317752],[103.807414,1.31779],[103.80742,1.31777],[103.80747,1.317785],[103.807464,1.317804],[103.807514,1.317818],[103.80752,1.317799],[103.80757,1.317813],[103.807547,1.317917],[103.807507,1.317902],[103.807503,1.317915],[103.807477,1.317908],[103.807481,1.317894],[103.807351,1.317857],[103.807347,1.31787],[103.807298,1.317856],[103.807302,1.317843],[103.80717,1.317804],[103.807166,1.317818],[103.807118,1.317804],[103.807122,1.317791],[103.806991,1.317753],[103.806987,1.317766],[103.806961,1.317759],[103.80697,1.317728],[103.806939,1.317719],[103.806953,1.317671],[103.806984,1.31768]]]}},{"type":"Feature","properties":{"block_id":"8375","blk_no":"3","postal_code":"260003","region_id":"CR","region":"CENTRAL REGION","planning_area_id":"BT","planning_area":"BUKIT TIMAH","subzone_id":"BTSZ08","subzone":"FARRER COURT","lon":103.8083,"lat":1.3186,"property_match":"MATCHED","property_match_confidence":"HIGH","street":"QUEEN'S RD","residential":"Y","year_completed":1973,"building_age_2026":53,"max_floor_lvl":12,"total_dwelling_units":150,"small_flat_share_pct":18.67,"rental_share_pct":0.0,"footprint_area_m2":1824.6,"estimated_residents_2026":388.8,"estimated_elderly_65plus_2026":93.5,"estimated_elderly_share_pct":24.04,"elderly_exposure_score":84.7,"elderly_exposure_class":"VERY HIGH","estimate_confidence":"HIGH","display_name":"Block 3"},"geometry":{"type":"Polygon","coordinates":[[[103.808443,1.318627],[103.808438,1.318651],[103.808502,1.318722],[103.808526,1.31872],[103.80856,1.318753],[103.808587,1.318787],[103.808581,1.318811],[103.808628,1.318863],[103.808652,1.31886],[103.80871,1.318924],[103.808695,1.318938],[103.808734,1.318977],[103.808671,1.319034],[103.808021,1.318311],[103.808047,1.318287],[103.80804,1.318279],[103.808014,1.318263],[103.808003,1.318301],[103.80746,1.318144],[103.807484,1.318061],[103.807535,1.318079],[103.807541,1.31806],[103.807583,1.318068],[103.807623,1.318084],[103.807631,1.318106],[103.807698,1.318125],[103.807716,1.318111],[103.807761,1.318119],[103.807804,1.318136],[103.807812,1.318158],[103.807878,1.318177],[103.807897,1.318163],[103.80794,1.318171],[103.807984,1.318188],[103.807992,1.31821],[103.808062,1.318227],[103.808107,1.318281],[103.80813,1.318279],[103.808162,1.318309],[103.80819,1.318347],[103.808186,1.31837],[103.808233,1.318423],[103.808257,1.318421],[103.808289,1.318452],[103.808317,1.318488],[103.808313,1.318511],[103.808359,1.318563],[103.808382,1.31856],[103.808443,1.318627]]]}},{"type":"Feature","properties":{"block_id":"3962","blk_no":"4","postal_code":"260004","region_id":"CR","region":"CENTRAL REGION","planning_area_id":"BT","planning_area":"BUKIT TIMAH","subzone_id":"BTSZ08","subzone":"FARRER COURT","lon":103.8081,"lat":1.3189,"property_match":"MATCHED","property_match_confidence":"HIGH","street":"QUEEN'S RD","residential":"Y","year_completed":1973,"building_age_2026":53,"max_floor_lvl":12,"total_dwelling_units":185,"small_flat_share_pct":99.46,"rental_share_pct":0.0,"footprint_area_m2":2036.3,"estimated_residents_2026":375.7,"estimated_elderly_65plus_2026":125.2,"estimated_elderly_share_pct":33.32,"elderly_exposure_score":94.3,"elderly_exposure_class":"VERY HIGH","estimate_confidence":"HIGH","display_name":"Block 4"},"geometry":{"type":"Polygon","coordinates":[[[103.807916,1.318763],[103.807853,1.318693],[103.807856,1.318673],[103.807787,1.318625],[103.807762,1.318591],[103.807776,1.318579],[103.807752,1.318557],[103.807822,1.318492],[103.808509,1.319261],[103.808992,1.31929],[103.808987,1.319387],[103.808955,1.319382],[103.808954,1.3194],[103.808914,1.319402],[103.808866,1.319395],[103.808853,1.319379],[103.808771,1.319394],[103.808688,1.31937],[103.808674,1.319385],[103.808625,1.319386],[103.808581,1.31938],[103.808569,1.319364],[103.80847,1.319359],[103.808431,1.319315],[103.808409,1.319315],[103.808376,1.319283],[103.808348,1.319246],[103.80835,1.319225],[103.808335,1.319209],[103.808314,1.319209],[103.808279,1.319176],[103.808252,1.31914],[103.808255,1.319119],[103.808184,1.319069],[103.808143,1.318995],[103.808122,1.318994],[103.80809,1.318964],[103.808061,1.318925],[103.808063,1.318905],[103.808049,1.318889],[103.808029,1.318889],[103.807993,1.318855],[103.807967,1.31882],[103.807969,1.3188],[103.807936,1.318763],[103.807916,1.318763]]]}},{"type":"Feature","properties":{"block_id":"1754","blk_no":"7","postal_code":"260007","region_id":"CR","region":"CENTRAL REGION","planning_area_id":"BT","planning_area":"BUKIT TIMAH","subzone_id":"BTSZ08","subzone":"FARRER COURT","lon":103.8056,"lat":1.3162,"property_match":"MATCHED","property_match_confidence":"HIGH","street":"EMPRESS RD","residential":"N","year_completed":2008,"building_age_2026":18,"max_floor_lvl":1,"total_dwelling_units":0,"small_flat_share_pct":null,"rental_share_pct":null,"footprint_area_m2":2946.5,"estimated_residents_2026":0.0,"estimated_elderly_65plus_2026":0.0,"estimated_elderly_share_pct":null,"elderly_exposure_score":null,"elderly_exposure_class":null,"estimate_confidence":"HIGH","display_name":"Block 7"},"geometry":{"type":"Polygon","coordinates":[[[103.805766,1.316154],[103.806024,1.316392],[103.805816,1.31662],[103.805558,1.316383],[103.80555,1.316392],[103.8055,1.316345],[103.805508,1.316336],[103.80525,1.316098],[103.805458,1.31587],[103.805716,1.316107],[103.805724,1.316099],[103.805774,1.316145],[103.805766,1.316154]]]}},{"type":"Feature","properties":{"block_id":"681","blk_no":"8","postal_code":"260008","region_id":"CR","region":"CENTRAL REGION","planning_area_id":"BT","planning_area":"BUKIT TIMAH","subzone_id":"BTSZ08","subzone":"FARRER COURT","lon":103.8053,"lat":1.3163,"property_match":"MATCHED","property_match_confidence":"HIGH","street":"EMPRESS RD","residential":"Y","year_completed":1975,"building_age_2026":51,"max_floor_lvl":14,"total_dwelling_units":186,"small_flat_share_pct":96.77,"rental_share_pct":0.0,"footprint_area_m2":1432.0,"estimated_residents_2026":383.1,"estimated_elderly_65plus_2026":127.5,"estimated_elderly_share_pct":33.28,"elderly_exposure_score":94.7,"elderly_exposure_class":"VERY HIGH","estimate_confidence":"HIGH","display_name":"Block 8"},"geometry":{"type":"Polygon","coordinates":[[[103.805047,1.315958],[103.805047,1.315928],[103.805083,1.315928],[103.805083,1.315912],[103.805173,1.315912],[103.805172,1.316138],[103.805191,1.316138],[103.805198,1.316159],[103.805183,1.316175],[103.805688,1.316642],[103.805679,1.316652],[103.805703,1.316674],[103.805669,1.316711],[103.805645,1.316689],[103.805628,1.316707],[103.805618,1.316698],[103.805593,1.316725],[103.805572,1.316705],[103.805584,1.316692],[103.805566,1.316675],[103.805553,1.316688],[103.805532,1.316668],[103.805557,1.316641],[103.805537,1.316623],[103.805512,1.31665],[103.805491,1.316631],[103.805503,1.316617],[103.805485,1.3166],[103.805473,1.316614],[103.805451,1.316594],[103.805476,1.316567],[103.805436,1.31653],[103.805411,1.316557],[103.80539,1.316537],[103.805402,1.316524],[103.805384,1.316507],[103.805371,1.31652],[103.80535,1.316501],[103.805375,1.316474],[103.805355,1.316456],[103.80533,1.316482],[103.805309,1.316463],[103.805322,1.316449],[103.805303,1.316432],[103.80529,1.316446],[103.805269,1.316426],[103.805294,1.316399],[103.805274,1.316381],[103.805249,1.316408],[103.805228,1.316388],[103.805241,1.316374],[103.805222,1.316357],[103.80521,1.316371],[103.805188,1.316351],[103.805213,1.316324],[103.805194,1.316306],[103.805169,1.316333],[103.805147,1.316314],[103.80516,1.3163],[103.805141,1.316283],[103.805129,1.316296],[103.805107,1.316277],[103.805131,1.316251],[103.805122,1.316243],[103.805111,1.316255],[103.805063,1.31621],[103.805045,1.31621],[103.805045,1.316129],[103.805082,1.316129],[103.805046,1.316125],[103.805046,1.316095],[103.805063,1.316095],[103.805063,1.31607],[103.805046,1.316069],[103.805046,1.31604],[103.805083,1.31604],[103.805083,1.316013],[103.805046,1.316013],[103.805047,1.315983],[103.805063,1.315983],[103.805063,1.315958],[103.805047,1.315958]]]}},{"type":"Feature","properties":{"block_id":"6416","blk_no":"8A","postal_code":"261008","region_id":"CR","region":"CENTRAL REGION","planning_area_id":"BT","planning_area":"BUKIT TIMAH","subzone_id":"BTSZ08","subzone":"FARRER COURT","lon":103.8062,"lat":1.3167,"property_match":"MATCHED","property_match_confidence":"HIGH","street":"EMPRESS RD","residential":"N","year_completed":1997,"building_age_2026":29,"max_floor_lvl":5,"total_dwelling_units":0,"small_flat_share_pct":null,"rental_share_pct":null,"footprint_area_m2":1749.2,"estimated_residents_2026":0.0,"estimated_elderly_65plus_2026":0.0,"estimated_elderly_share_pct":null,"elderly_exposure_score":null,"elderly_exposure_class":null,"estimate_confidence":"HIGH","display_name":"Block 8A"},"geometry":{"type":"Polygon","coordinates":[[[103.806106,1.316439],[103.806457,1.316763],[103.806257,1.316983],[103.805906,1.316659],[103.806106,1.316439]]]}}]}