{"type":"FeatureCollection","features":[{"type":"Feature","properties":{"block_id":"12379","blk_no":"1","postal_code":"500001","region_id":"ER","region":"EAST REGION","planning_area_id":"CH","planning_area":"CHANGI","subzone_id":"CHSZ01","subzone":"CHANGI POINT","lon":103.9876,"lat":1.3883,"property_match":"MATCHED","property_match_confidence":"HIGH","street":"CHANGI VILLAGE RD","residential":"Y","year_completed":1975,"building_age_2026":51,"max_floor_lvl":4,"total_dwelling_units":55,"small_flat_share_pct":98.18,"rental_share_pct":0.0,"footprint_area_m2":3099.3,"estimated_residents_2026":101.2,"estimated_elderly_65plus_2026":30.4,"estimated_elderly_share_pct":30.0,"elderly_exposure_score":18.5,"elderly_exposure_class":"VERY LOW","estimate_confidence":"HIGH","display_name":"Block 1"},"geometry":{"type":"Polygon","coordinates":[[[103.987553,1.388537],[103.987597,1.387679],[103.987712,1.387685],[103.987711,1.387698],[103.987752,1.3877],[103.987747,1.387788],[103.987723,1.387787],[103.987722,1.387809],[103.987746,1.387811],[103.987741,1.387898],[103.987717,1.387897],[103.987716,1.387919],[103.98774,1.387921],[103.987735,1.388009],[103.987694,1.388007],[103.987691,1.388056],[103.987733,1.388059],[103.987729,1.388146],[103.987704,1.388145],[103.987703,1.388167],[103.987728,1.388169],[103.987723,1.388256],[103.987698,1.388255],[103.987697,1.388277],[103.987722,1.388279],[103.987721,1.388327],[103.987717,1.388366],[103.987693,1.388364],[103.987692,1.388388],[103.987716,1.388389],[103.987711,1.388476],[103.987672,1.388475],[103.987668,1.388529],[103.987724,1.388546],[103.987733,1.388519],[103.987767,1.388529],[103.987776,1.388499],[103.987789,1.388503],[103.987801,1.388464],[103.987885,1.38849],[103.987872,1.388529],[103.987894,1.388535],[103.987906,1.388496],[103.987989,1.388522],[103.987977,1.388561],[103.987998,1.388567],[103.988011,1.388528],[103.988094,1.388554],[103.988083,1.388593],[103.98813,1.388608],[103.988142,1.388569],[103.988225,1.388594],[103.988213,1.388633],[103.988234,1.38864],[103.988247,1.388601],[103.98833,1.388626],[103.988317,1.388665],[103.988339,1.388672],[103.988351,1.388633],[103.988435,1.388659],[103.988422,1.388698],[103.988444,1.388704],[103.988456,1.388665],[103.988539,1.388691],[103.988527,1.38873],[103.98854,1.388734],[103.988534,1.388754],[103.988559,1.388761],[103.988532,1.388852],[103.987638,1.388577],[103.987645,1.388554],[103.987553,1.388537]]]}},{"type":"Feature","properties":{"block_id":"12296","blk_no":"1A","postal_code":"498730","region_id":"ER","region":"EAST REGION","planning_area_id":"CH","planning_area":"CHANGI","subzone_id":"CHSZ01","subzone":"CHANGI POINT","lon":103.9883,"lat":1.388,"property_match":"MATCHED","property_match_confidence":"HIGH","street":"TELOK PAKU RD","residential":"N","year_completed":2015,"building_age_2026":11,"max_floor_lvl":5,"total_dwelling_units":0,"small_flat_share_pct":null,"rental_share_pct":null,"footprint_area_m2":1371.8,"estimated_residents_2026":0.0,"estimated_elderly_65plus_2026":0.0,"estimated_elderly_share_pct":null,"elderly_exposure_score":null,"elderly_exposure_class":null,"estimate_confidence":"HIGH","display_name":"Block 1A"},"geometry":{"type":"Polygon","coordinates":[[[103.988602,1.387979],[103.988578,1.388056],[103.988562,1.388051],[103.988571,1.388059],[103.988564,1.38808],[103.988554,1.388077],[103.988518,1.388196],[103.98837,1.38815],[103.988384,1.388104],[103.988352,1.388094],[103.98836,1.388066],[103.988351,1.38807],[103.988189,1.38802],[103.988183,1.388039],[103.988024,1.38799],[103.988031,1.387964],[103.987996,1.387953],[103.988047,1.387801],[103.988602,1.387979]]]}},{"type":"Feature","properties":{"block_id":"10906","blk_no":"2","postal_code":"500002","region_id":"ER","region":"EAST REGION","planning_area_id":"CH","planning_area":"CHANGI","subzone_id":"CHSZ01","subzone":"CHANGI POINT","lon":103.9882,"lat":1.3892,"property_match":"MATCHED","property_match_confidence":"HIGH","street":"CHANGI VILLAGE RD","residential":"N","year_completed":1975,"building_age_2026":51,"max_floor_lvl":1,"total_dwelling_units":0,"small_flat_share_pct":null,"rental_share_pct":null,"footprint_area_m2":1940.5,"estimated_residents_2026":0.0,"estimated_elderly_65plus_2026":0.0,"estimated_elderly_share_pct":null,"elderly_exposure_score":null,"elderly_exposure_class":null,"estimate_confidence":"HIGH","display_name":"Block 2"},"geometry":{"type":"Polygon","coordinates":[[[103.988487,1.389016],[103.988372,1.389397],[103.987991,1.389279],[103.988095,1.388936],[103.988112,1.388941],[103.988123,1.388904],[103.988487,1.389016]]]}},{"type":"Feature","properties":{"block_id":"10908","blk_no":"3","postal_code":"500003","region_id":"ER","region":"EAST REGION","planning_area_id":"CH","planning_area":"CHANGI","subzone_id":"CHSZ01","subzone":"CHANGI POINT","lon":103.9881,"lat":1.3897,"property_match":"MATCHED","property_match_confidence":"HIGH","street":"CHANGI VILLAGE RD","residential":"N","year_completed":1975,"building_age_2026":51,"max_floor_lvl":1,"total_dwelling_units":0,"small_flat_share_pct":null,"rental_share_pct":null,"footprint_area_m2":1958.1,"estimated_residents_2026":0.0,"estimated_elderly_65plus_2026":0.0,"estimated_elderly_share_pct":null,"elderly_exposure_score":null,"elderly_exposure_class":null,"estimate_confidence":"HIGH","display_name":"Block 3"},"geometry":{"type":"Polygon","coordinates":[[[103.987955,1.389406],[103.988333,1.389522],[103.988217,1.389905],[103.987836,1.389788],[103.987955,1.389406]]]}},{"type":"Feature","properties":{"block_id":"12362","blk_no":"4","postal_code":"500004","region_id":"ER","region":"EAST REGION","planning_area_id":"CH","planning_area":"CHANGI","subzone_id":"CHSZ01","subzone":"CHANGI POINT","lon":103.9874,"lat":1.3892,"property_match":"MATCHED","property_match_confidence":"HIGH","street":"CHANGI VILLAGE RD","residential":"Y","year_completed":1975,"building_age_2026":51,"max_floor_lvl":4,"total_dwelling_units":36,"small_flat_share_pct":100.0,"rental_share_pct":2.78,"footprint_area_m2":2103.9,"estimated_residents_2026":67.5,"estimated_elderly_65plus_2026":20.2,"estimated_elderly_share_pct":30.0,"elderly_exposure_score":10.8,"elderly_exposure_class":"VERY LOW","estimate_confidence":"HIGH","display_name":"Block 4"},"geometry":{"type":"Polygon","coordinates":[[[103.987489,1.388742],[103.98758,1.38877],[103.987587,1.388747],[103.988035,1.388885],[103.988007,1.388975],[103.987983,1.388968],[103.987977,1.388987],[103.98795,1.388979],[103.987945,1.388995],[103.987959,1.388999],[103.987952,1.389023],[103.987659,1.388933],[103.987666,1.388909],[103.98768,1.388913],[103.987685,1.388898],[103.987658,1.38889],[103.987676,1.388832],[103.98759,1.388805],[103.987574,1.388855],[103.98759,1.38886],[103.987594,1.388846],[103.987618,1.388853],[103.987425,1.389491],[103.987401,1.389484],[103.987405,1.389469],[103.98739,1.389465],[103.987382,1.389492],[103.987272,1.389457],[103.987489,1.388742]]]}},{"type":"Feature","properties":{"block_id":"12361","blk_no":"5","postal_code":"500005","region_id":"ER","region":"EAST REGION","planning_area_id":"CH","planning_area":"CHANGI","subzone_id":"CHSZ01","subzone":"CHANGI POINT","lon":103.9869,"lat":1.3888,"property_match":"MATCHED","property_match_confidence":"HIGH","street":"CHANGI VILLAGE RD","residential":"Y","year_completed":1978,"building_age_2026":48,"max_floor_lvl":4,"total_dwelling_units":75,"small_flat_share_pct":98.67,"rental_share_pct":0.0,"footprint_area_m2":3718.2,"estimated_residents_2026":138.8,"estimated_elderly_65plus_2026":41.6,"estimated_elderly_share_pct":30.0,"elderly_exposure_score":30.4,"elderly_exposure_class":"LOW","estimate_confidence":"HIGH","display_name":"Block 5"},"geometry":{"type":"Polygon","coordinates":[[[103.986972,1.387839],[103.987086,1.387846],[103.98705,1.388524],[103.986647,1.389858],[103.986537,1.389824],[103.98654,1.389811],[103.986502,1.3898],[103.986559,1.38961],[103.986598,1.389622],[103.986625,1.389533],[103.98661,1.389528],[103.986605,1.389543],[103.986582,1.389536],[103.986735,1.38903],[103.986759,1.389037],[103.986754,1.389052],[103.98677,1.389057],[103.986797,1.388967],[103.986758,1.388956],[103.986879,1.388555],[103.986919,1.388567],[103.986937,1.388504],[103.986942,1.388421],[103.986925,1.38842],[103.986925,1.388435],[103.9869,1.388434],[103.986916,1.388125],[103.986941,1.388127],[103.98694,1.388142],[103.986957,1.388143],[103.986961,1.38805],[103.98692,1.388048],[103.98693,1.38785],[103.986971,1.387852],[103.986972,1.387839]]]}},{"type":"Feature","properties":{"block_id":"12380","blk_no":"6","postal_code":"509907","region_id":"ER","region":"EAST REGION","planning_area_id":"CH","planning_area":"CHANGI","subzone_id":"CHSZ01","subzone":"CHANGI POINT","lon":103.9887,"lat":1.3899,"property_match":"MATCHED","property_match_confidence":"HIGH","street":"CHANGI VILLAGE RD","residential":"N","year_completed":1981,"building_age_2026":45,"max_floor_lvl":1,"total_dwelling_units":0,"small_flat_share_pct":null,"rental_share_pct":null,"footprint_area_m2":1149.0,"estimated_residents_2026":0.0,"estimated_elderly_65plus_2026":0.0,"estimated_elderly_share_pct":null,"elderly_exposure_score":null,"elderly_exposure_class":null,"estimate_confidence":"HIGH","display_name":"Block 6"},"geometry":{"type":"Polygon","coordinates":[[[103.988919,1.390077],[103.988874,1.390062],[103.988771,1.390121],[103.988782,1.390081],[103.988753,1.390026],[103.988434,1.389932],[103.988484,1.389765],[103.988665,1.389825],[103.988758,1.389773],[103.988748,1.389816],[103.988769,1.389857],[103.988967,1.389918],[103.988961,1.389936],[103.988972,1.389957],[103.988952,1.389968],[103.988919,1.390077]]]}}]}