{"type":"FeatureCollection","features":[{"type":"Feature","properties":{"block_id":"7825","blk_no":"231","postal_code":"180231","region_id":"CR","region":"CENTRAL REGION","planning_area_id":"DT","planning_area":"DOWNTOWN CORE","subzone_id":"DTSZ01","subzone":"BUGIS","lon":103.8536,"lat":1.2968,"property_match":"MATCHED","property_match_confidence":"HIGH","street":"BAIN ST","residential":"N","year_completed":1980,"building_age_2026":46,"max_floor_lvl":5,"total_dwelling_units":0,"small_flat_share_pct":null,"rental_share_pct":null,"footprint_area_m2":8532.5,"estimated_residents_2026":0.0,"estimated_elderly_65plus_2026":0.0,"estimated_elderly_share_pct":null,"elderly_exposure_score":null,"elderly_exposure_class":null,"estimate_confidence":"HIGH","display_name":"Block 231"},"geometry":{"type":"Polygon","coordinates":[[[103.853417,1.297374],[103.853037,1.296901],[103.853093,1.296854],[103.853031,1.29678],[103.853116,1.296712],[103.853153,1.29676],[103.853812,1.296232],[103.85423,1.296759],[103.853517,1.297332],[103.853503,1.297369],[103.853469,1.297389],[103.853417,1.297374]]]}},{"type":"Feature","properties":{"block_id":"7826","blk_no":"232","postal_code":"180232","region_id":"CR","region":"CENTRAL REGION","planning_area_id":"DT","planning_area":"DOWNTOWN CORE","subzone_id":"DTSZ01","subzone":"BUGIS","lon":103.8534,"lat":1.2968,"property_match":"MATCHED","property_match_confidence":"HIGH","street":"BAIN ST","residential":"Y","year_completed":1979,"building_age_2026":47,"max_floor_lvl":25,"total_dwelling_units":120,"small_flat_share_pct":0.0,"rental_share_pct":0.0,"footprint_area_m2":710.6,"estimated_residents_2026":260.0,"estimated_elderly_65plus_2026":105.0,"estimated_elderly_share_pct":40.38,"elderly_exposure_score":89.6,"elderly_exposure_class":"VERY HIGH","estimate_confidence":"HIGH","display_name":"Block 232"},"geometry":{"type":"Polygon","coordinates":[[[103.853493,1.296656],[103.853504,1.29667],[103.85353,1.296649],[103.853583,1.296716],[103.853531,1.296758],[103.853542,1.296771],[103.853225,1.297025],[103.853214,1.297012],[103.85316,1.297056],[103.853107,1.296989],[103.853141,1.296962],[103.85313,1.296948],[103.853196,1.296895],[103.853207,1.296909],[103.853274,1.296855],[103.85331,1.296826],[103.853299,1.296812],[103.853364,1.29676],[103.853375,1.296774],[103.853436,1.296725],[103.853424,1.296711],[103.853493,1.296656]]]}},{"type":"Feature","properties":{"block_id":"8557","blk_no":"233","postal_code":"180233","region_id":"CR","region":"CENTRAL REGION","planning_area_id":"DT","planning_area":"DOWNTOWN CORE","subzone_id":"DTSZ01","subzone":"BUGIS","lon":103.8539,"lat":1.2968,"property_match":"MATCHED","property_match_confidence":"HIGH","street":"BAIN ST","residential":"Y","year_completed":1979,"building_age_2026":47,"max_floor_lvl":25,"total_dwelling_units":120,"small_flat_share_pct":0.0,"rental_share_pct":0.0,"footprint_area_m2":706.3,"estimated_residents_2026":260.0,"estimated_elderly_65plus_2026":105.0,"estimated_elderly_share_pct":40.38,"elderly_exposure_score":89.6,"elderly_exposure_class":"VERY HIGH","estimate_confidence":"HIGH","display_name":"Block 233"},"geometry":{"type":"Polygon","coordinates":[[[103.853831,1.296938],[103.853765,1.296991],[103.85375,1.296973],[103.853719,1.296998],[103.853666,1.296931],[103.85372,1.296887],[103.853714,1.296879],[103.854032,1.296624],[103.854039,1.296632],[103.854095,1.296588],[103.854148,1.296655],[103.854114,1.296681],[103.854128,1.296699],[103.854059,1.296755],[103.854045,1.296737],[103.853944,1.296818],[103.853958,1.296836],[103.853892,1.296889],[103.853878,1.296871],[103.853817,1.29692],[103.853831,1.296938]]]}}]}