{"type":"FeatureCollection","features":[{"type":"Feature","properties":{"block_id":"1644","blk_no":"531","postal_code":"050531","region_id":"CR","region":"CENTRAL REGION","planning_area_id":"OT","planning_area":"OUTRAM","subzone_id":"OTSZ04","subzone":"CHINA SQUARE","lon":103.8462,"lat":1.2846,"property_match":"MATCHED","property_match_confidence":"HIGH","street":"UPP CROSS ST","residential":"N","year_completed":1978,"building_age_2026":48,"max_floor_lvl":4,"total_dwelling_units":0,"small_flat_share_pct":null,"rental_share_pct":null,"footprint_area_m2":8251.2,"estimated_residents_2026":0.0,"estimated_elderly_65plus_2026":0.0,"estimated_elderly_share_pct":null,"elderly_exposure_score":null,"elderly_exposure_class":null,"estimate_confidence":"HIGH","display_name":"Block 531"},"geometry":{"type":"Polygon","coordinates":[[[103.845075,1.284821],[103.845013,1.284718],[103.845092,1.284669],[103.84506,1.284616],[103.845037,1.284608],[103.845007,1.284627],[103.845028,1.284661],[103.844996,1.284679],[103.844903,1.284512],[103.84528,1.284296],[103.845285,1.284304],[103.845294,1.284299],[103.845371,1.284425],[103.845361,1.284431],[103.845393,1.284484],[103.845482,1.284422],[103.84547,1.284402],[103.845491,1.284389],[103.845509,1.28442],[103.845516,1.284415],[103.845508,1.284401],[103.845549,1.284376],[103.845555,1.284385],[103.845715,1.284287],[103.845606,1.284107],[103.84589,1.283944],[103.845895,1.283953],[103.845904,1.283948],[103.84597,1.284056],[103.845961,1.284062],[103.845988,1.284105],[103.846034,1.284077],[103.846025,1.284062],[103.846046,1.284049],[103.846054,1.284064],[103.8461,1.284035],[103.846092,1.284022],[103.846149,1.283987],[103.846231,1.284123],[103.846223,1.284128],[103.846249,1.284171],[103.846257,1.284166],[103.846437,1.284461],[103.846428,1.284467],[103.846441,1.284489],[103.846464,1.284475],[103.846501,1.284536],[103.846475,1.284552],[103.84647,1.284542],[103.846378,1.284599],[103.846395,1.284627],[103.846374,1.284639],[103.846357,1.284612],[103.846171,1.284726],[103.846188,1.284754],[103.846167,1.284767],[103.846151,1.284739],[103.846034,1.28481],[103.846022,1.284791],[103.845907,1.284862],[103.845918,1.284881],[103.845824,1.284939],[103.845838,1.284964],[103.845816,1.284978],[103.845802,1.284953],[103.845527,1.285122],[103.845543,1.285145],[103.84552,1.285159],[103.845505,1.285135],[103.845408,1.285195],[103.845338,1.285082],[103.84535,1.285075],[103.84534,1.285059],[103.845411,1.285016],[103.845421,1.285032],[103.845467,1.285004],[103.845457,1.284987],[103.845527,1.284944],[103.845537,1.284961],[103.845558,1.284949],[103.845548,1.284931],[103.845619,1.284888],[103.845629,1.284904],[103.845651,1.284891],[103.845641,1.284874],[103.845712,1.284831],[103.845722,1.284848],[103.845766,1.284821],[103.845756,1.284804],[103.845829,1.284759],[103.84584,1.284776],[103.845851,1.284769],[103.84589,1.284835],[103.846005,1.284764],[103.845729,1.284309],[103.845617,1.284377],[103.845657,1.284443],[103.845644,1.284451],[103.845653,1.284466],[103.845583,1.284509],[103.845574,1.284494],[103.84553,1.28452],[103.84554,1.284537],[103.84547,1.284578],[103.845461,1.284564],[103.845437,1.284578],[103.845445,1.284593],[103.845375,1.284636],[103.845367,1.284623],[103.845344,1.284637],[103.845353,1.284652],[103.845285,1.284692],[103.845277,1.284678],[103.845228,1.284707],[103.845237,1.284723],[103.845075,1.284821]]]}},{"type":"Feature","properties":{"block_id":"4393","blk_no":"531A","postal_code":"051531","region_id":"CR","region":"CENTRAL REGION","planning_area_id":"OT","planning_area":"OUTRAM","subzone_id":"OTSZ04","subzone":"CHINA SQUARE","lon":103.8458,"lat":1.2853,"property_match":"MATCHED","property_match_confidence":"HIGH","street":"UPP CROSS ST","residential":"N","year_completed":1978,"building_age_2026":48,"max_floor_lvl":4,"total_dwelling_units":0,"small_flat_share_pct":null,"rental_share_pct":null,"footprint_area_m2":3099.7,"estimated_residents_2026":0.0,"estimated_elderly_65plus_2026":0.0,"estimated_elderly_share_pct":null,"elderly_exposure_score":null,"elderly_exposure_class":null,"estimate_confidence":"HIGH","display_name":"Block 531A"},"geometry":{"type":"Polygon","coordinates":[[[103.845456,1.285281],[103.845967,1.284963],[103.846062,1.285119],[103.846084,1.285133],[103.846079,1.285153],[103.846192,1.285336],[103.845665,1.285625],[103.845456,1.285281]]]}},{"type":"Feature","properties":{"block_id":"1612","blk_no":"532","postal_code":"050532","region_id":"CR","region":"CENTRAL REGION","planning_area_id":"OT","planning_area":"OUTRAM","subzone_id":"OTSZ04","subzone":"CHINA SQUARE","lon":103.846,"lat":1.2842,"property_match":"MATCHED","property_match_confidence":"HIGH","street":"UPP CROSS ST","residential":"Y","year_completed":1980,"building_age_2026":46,"max_floor_lvl":20,"total_dwelling_units":118,"small_flat_share_pct":98.31,"rental_share_pct":0.0,"footprint_area_m2":623.7,"estimated_residents_2026":229.1,"estimated_elderly_65plus_2026":94.4,"estimated_elderly_share_pct":41.21,"elderly_exposure_score":85.0,"elderly_exposure_class":"VERY HIGH","estimate_confidence":"HIGH","display_name":"Block 532"},"geometry":{"type":"Polygon","coordinates":[[[103.846168,1.284022],[103.846214,1.2841],[103.846206,1.284105],[103.846215,1.28412],[103.846137,1.284167],[103.846129,1.284152],[103.846088,1.284176],[103.846097,1.284192],[103.846027,1.284234],[103.846019,1.28422],[103.845994,1.284234],[103.846004,1.28425],[103.845934,1.284292],[103.845925,1.284277],[103.845881,1.284304],[103.845891,1.28432],[103.845819,1.284363],[103.84581,1.284348],[103.845797,1.284356],[103.845752,1.284279],[103.846168,1.284022]]]}},{"type":"Feature","properties":{"block_id":"1613","blk_no":"533","postal_code":"050533","region_id":"CR","region":"CENTRAL REGION","planning_area_id":"OT","planning_area":"OUTRAM","subzone_id":"OTSZ04","subzone":"CHINA SQUARE","lon":103.8454,"lat":1.2846,"property_match":"MATCHED","property_match_confidence":"HIGH","street":"UPP CROSS ST","residential":"Y","year_completed":1979,"building_age_2026":47,"max_floor_lvl":18,"total_dwelling_units":127,"small_flat_share_pct":97.64,"rental_share_pct":0.0,"footprint_area_m2":782.4,"estimated_residents_2026":246.2,"estimated_elderly_65plus_2026":101.8,"estimated_elderly_share_pct":41.34,"elderly_exposure_score":88.3,"elderly_exposure_class":"VERY HIGH","estimate_confidence":"HIGH","display_name":"Block 533"},"geometry":{"type":"Polygon","coordinates":[[[103.845166,1.284766],[103.845158,1.284751],[103.845146,1.284758],[103.8451,1.28468],[103.845145,1.284653],[103.84514,1.284647],[103.845611,1.284365],[103.845657,1.284443],[103.845644,1.284451],[103.845653,1.284466],[103.845583,1.284509],[103.845574,1.284494],[103.84553,1.28452],[103.84554,1.284537],[103.84547,1.284578],[103.845461,1.284564],[103.845437,1.284578],[103.845445,1.284593],[103.845375,1.284636],[103.845367,1.284623],[103.845344,1.284637],[103.845353,1.284652],[103.845285,1.284692],[103.845277,1.284678],[103.845228,1.284707],[103.845237,1.284723],[103.845166,1.284766]]]}},{"type":"Feature","properties":{"block_id":"1793","blk_no":"533A","postal_code":"051533","region_id":"CR","region":"CENTRAL REGION","planning_area_id":"OT","planning_area":"OUTRAM","subzone_id":"OTSZ04","subzone":"CHINA SQUARE","lon":103.8455,"lat":1.2848,"property_match":"MATCHED","property_match_confidence":"HIGH","street":"UPP CROSS ST","residential":"N","year_completed":1978,"building_age_2026":48,"max_floor_lvl":6,"total_dwelling_units":0,"small_flat_share_pct":null,"rental_share_pct":null,"footprint_area_m2":3136.0,"estimated_residents_2026":0.0,"estimated_elderly_65plus_2026":0.0,"estimated_elderly_share_pct":null,"elderly_exposure_score":null,"elderly_exposure_class":null,"estimate_confidence":"HIGH","display_name":"Block 533A"},"geometry":{"type":"Polygon","coordinates":[[[103.845247,1.285112],[103.84508,1.284836],[103.845753,1.284424],[103.84592,1.284701],[103.845247,1.285112]]]}},{"type":"Feature","properties":{"block_id":"1615","blk_no":"535","postal_code":"050535","region_id":"CR","region":"CENTRAL REGION","planning_area_id":"OT","planning_area":"OUTRAM","subzone_id":"OTSZ04","subzone":"CHINA SQUARE","lon":103.8462,"lat":1.2846,"property_match":"MATCHED","property_match_confidence":"HIGH","street":"UPP CROSS ST","residential":"Y","year_completed":1979,"building_age_2026":47,"max_floor_lvl":20,"total_dwelling_units":115,"small_flat_share_pct":95.65,"rental_share_pct":0.0,"footprint_area_m2":633.7,"estimated_residents_2026":221.9,"estimated_elderly_65plus_2026":92.6,"estimated_elderly_share_pct":41.74,"elderly_exposure_score":84.1,"elderly_exposure_class":"VERY HIGH","estimate_confidence":"HIGH","display_name":"Block 535"},"geometry":{"type":"Polygon","coordinates":[[[103.846408,1.284434],[103.846454,1.284511],[103.846039,1.284766],[103.845993,1.284688],[103.846005,1.284681],[103.845996,1.284665],[103.846067,1.284622],[103.846076,1.284637],[103.846119,1.284611],[103.846109,1.284595],[103.846181,1.284552],[103.84619,1.284567],[103.846212,1.284554],[103.846202,1.284537],[103.846274,1.284494],[103.846283,1.284509],[103.846323,1.284485],[103.846313,1.284468],[103.84639,1.284422],[103.8464,1.284439],[103.846408,1.284434]]]}},{"type":"Feature","properties":{"block_id":"1614","blk_no":"536","postal_code":"050536","region_id":"CR","region":"CENTRAL REGION","planning_area_id":"OT","planning_area":"OUTRAM","subzone_id":"OTSZ04","subzone":"CHINA SQUARE","lon":103.8456,"lat":1.285,"property_match":"MATCHED","property_match_confidence":"HIGH","street":"UPP CROSS ST","residential":"Y","year_completed":1978,"building_age_2026":48,"max_floor_lvl":18,"total_dwelling_units":122,"small_flat_share_pct":93.44,"rental_share_pct":0.82,"footprint_area_m2":855.3,"estimated_residents_2026":234.2,"estimated_elderly_65plus_2026":98.8,"estimated_elderly_share_pct":42.19,"elderly_exposure_score":87.1,"elderly_exposure_class":"VERY HIGH","estimate_confidence":"HIGH","display_name":"Block 536"},"geometry":{"type":"Polygon","coordinates":[[[103.845851,1.284769],[103.845903,1.284855],[103.845857,1.284887],[103.845391,1.285168],[103.845338,1.285082],[103.84535,1.285075],[103.84534,1.285059],[103.845411,1.285016],[103.845421,1.285032],[103.845467,1.285004],[103.845457,1.284987],[103.845527,1.284944],[103.845537,1.284961],[103.845558,1.284949],[103.845548,1.284931],[103.845619,1.284888],[103.845629,1.284904],[103.845651,1.284891],[103.845641,1.284874],[103.845712,1.284831],[103.845722,1.284848],[103.845766,1.284821],[103.845756,1.284804],[103.845829,1.284759],[103.84584,1.284776],[103.845851,1.284769]]]}},{"type":"Feature","properties":{"block_id":"4165","blk_no":"538","postal_code":"050538","region_id":"CR","region":"CENTRAL REGION","planning_area_id":"OT","planning_area":"OUTRAM","subzone_id":"OTSZ04","subzone":"CHINA SQUARE","lon":103.8457,"lat":1.2852,"property_match":"MATCHED","property_match_confidence":"HIGH","street":"UPP CROSS ST","residential":"Y","year_completed":1978,"building_age_2026":48,"max_floor_lvl":18,"total_dwelling_units":126,"small_flat_share_pct":96.83,"rental_share_pct":0.0,"footprint_area_m2":786.2,"estimated_residents_2026":243.8,"estimated_elderly_65plus_2026":101.2,"estimated_elderly_share_pct":41.5,"elderly_exposure_score":88.1,"elderly_exposure_class":"VERY HIGH","estimate_confidence":"HIGH","display_name":"Block 538"},"geometry":{"type":"Polygon","coordinates":[[[103.845996,1.28501],[103.846042,1.285088],[103.846029,1.285096],[103.846039,1.285111],[103.845968,1.285156],[103.845957,1.285139],[103.845915,1.285166],[103.845925,1.285183],[103.845855,1.285228],[103.845844,1.285211],[103.845822,1.285225],[103.845832,1.285241],[103.845763,1.285285],[103.845752,1.285268],[103.84573,1.285282],[103.845739,1.285298],[103.845671,1.285341],[103.84566,1.285323],[103.845614,1.285352],[103.845624,1.285369],[103.845553,1.285413],[103.845543,1.285397],[103.845532,1.285404],[103.845485,1.285327],[103.845996,1.28501]]]}},{"type":"Feature","properties":{"block_id":"1780","blk_no":"1","postal_code":"080001","region_id":"CR","region":"CENTRAL REGION","planning_area_id":"OT","planning_area":"OUTRAM","subzone_id":"OTSZ03","subzone":"CHINATOWN","lon":103.8413,"lat":1.2768,"property_match":"MATCHED","property_match_confidence":"HIGH","street":"CANTONMENT RD","residential":"N","year_completed":2010,"building_age_2026":16,"max_floor_lvl":2,"total_dwelling_units":0,"small_flat_share_pct":null,"rental_share_pct":null,"footprint_area_m2":21402.2,"estimated_residents_2026":0.0,"estimated_elderly_65plus_2026":0.0,"estimated_elderly_share_pct":null,"elderly_exposure_score":null,"elderly_exposure_class":null,"estimate_confidence":"HIGH","display_name":"Block 1"},"geometry":{"type":"Polygon","coordinates":[[[103.841771,1.277356],[103.841823,1.277381],[103.841797,1.277434],[103.841846,1.277458],[103.841759,1.277609],[103.84174,1.277606],[103.841668,1.277739],[103.841675,1.277755],[103.841646,1.277806],[103.841538,1.277907],[103.841466,1.278038],[103.841239,1.278237],[103.841052,1.278093],[103.840787,1.277965],[103.840726,1.27785],[103.841008,1.276072],[103.84118,1.275251],[103.841451,1.275346],[103.841382,1.275761],[103.841258,1.276195],[103.841227,1.276407],[103.841277,1.276416],[103.841427,1.276694],[103.841734,1.276744],[103.841872,1.276929],[103.842071,1.277028],[103.842002,1.277169],[103.841815,1.277091],[103.841666,1.277126],[103.841651,1.277238],[103.8417,1.277262],[103.841686,1.27729],[103.84178,1.277337],[103.841771,1.277356]]]}},{"type":"Feature","properties":{"block_id":"7768","blk_no":"1","postal_code":"082001","region_id":"CR","region":"CENTRAL REGION","planning_area_id":"OT","planning_area":"OUTRAM","subzone_id":"OTSZ03","subzone":"CHINATOWN","lon":103.8424,"lat":1.2756,"property_match":"MATCHED","property_match_confidence":"MEDIUM","street":"TG PAGAR PLAZA","residential":"Y","year_completed":1976,"building_age_2026":50,"max_floor_lvl":24,"total_dwelling_units":163,"small_flat_share_pct":96.93,"rental_share_pct":0.0,"footprint_area_m2":14252.2,"estimated_residents_2026":296.0,"estimated_elderly_65plus_2026":109.0,"estimated_elderly_share_pct":36.82,"elderly_exposure_score":90.9,"elderly_exposure_class":"VERY HIGH","estimate_confidence":"HIGH","display_name":"Block 1"},"geometry":{"type":"Polygon","coordinates":[[[103.842112,1.275391],[103.842149,1.275383],[103.842103,1.27515],[103.842513,1.275064],[103.842462,1.27481],[103.842956,1.27471],[103.843265,1.276259],[103.842574,1.276396],[103.842354,1.27604],[103.842343,1.276042],[103.842193,1.275803],[103.842112,1.275391]],[[103.842948,1.275929],[103.842811,1.275956],[103.842855,1.276191],[103.842995,1.276166],[103.842948,1.275929]],[[103.842743,1.274899],[103.842603,1.274927],[103.84265,1.275166],[103.842791,1.275136],[103.842743,1.274899]],[[103.842817,1.27527],[103.842678,1.275298],[103.842785,1.275831],[103.842923,1.275804],[103.842817,1.27527]]]}},{"type":"Feature","properties":{"block_id":"9033","blk_no":"1A","postal_code":"085101","region_id":"CR","region":"CENTRAL REGION","planning_area_id":"OT","planning_area":"OUTRAM","subzone_id":"OTSZ03","subzone":"CHINATOWN","lon":103.841,"lat":1.2778,"property_match":"MATCHED","property_match_confidence":"HIGH","street":"CANTONMENT RD","residential":"Y","year_completed":2009,"building_age_2026":17,"max_floor_lvl":50,"total_dwelling_units":264,"small_flat_share_pct":0.0,"rental_share_pct":0.0,"footprint_area_m2":911.1,"estimated_residents_2026":715.7,"estimated_elderly_65plus_2026":109.9,"estimated_elderly_share_pct":15.35,"elderly_exposure_score":91.1,"elderly_exposure_class":"VERY HIGH","estimate_confidence":"HIGH","display_name":"Block 1A"},"geometry":{"type":"Polygon","coordinates":[[[103.840862,1.277656],[103.841172,1.277833],[103.841143,1.277886],[103.841129,1.277878],[103.841078,1.277968],[103.841092,1.277976],[103.841064,1.278026],[103.840753,1.277849],[103.840783,1.277796],[103.840813,1.277813],[103.840861,1.277728],[103.840831,1.277711],[103.840862,1.277656]]]}},{"type":"Feature","properties":{"block_id":"4536","blk_no":"1B","postal_code":"085201","region_id":"CR","region":"CENTRAL REGION","planning_area_id":"OT","planning_area":"OUTRAM","subzone_id":"OTSZ03","subzone":"CHINATOWN","lon":103.8414,"lat":1.2778,"property_match":"MATCHED","property_match_confidence":"HIGH","street":"CANTONMENT RD","residential":"Y","year_completed":2009,"building_age_2026":17,"max_floor_lvl":50,"total_dwelling_units":264,"small_flat_share_pct":0.0,"rental_share_pct":0.0,"footprint_area_m2":911.1,"estimated_residents_2026":715.7,"estimated_elderly_65plus_2026":109.9,"estimated_elderly_share_pct":15.35,"elderly_exposure_score":91.1,"elderly_exposure_class":"VERY HIGH","estimate_confidence":"HIGH","display_name":"Block 1B"},"geometry":{"type":"Polygon","coordinates":[[[103.841469,1.277596],[103.84151,1.277644],[103.841484,1.277666],[103.841548,1.27774],[103.841574,1.277718],[103.841613,1.277763],[103.841343,1.277998],[103.841306,1.277955],[103.841318,1.277944],[103.841251,1.277866],[103.841238,1.277877],[103.841199,1.277831],[103.841469,1.277596]]]}},{"type":"Feature","properties":{"block_id":"6544","blk_no":"1C","postal_code":"085301","region_id":"CR","region":"CENTRAL REGION","planning_area_id":"OT","planning_area":"OUTRAM","subzone_id":"OTSZ03","subzone":"CHINATOWN","lon":103.8417,"lat":1.2774,"property_match":"MATCHED","property_match_confidence":"HIGH","street":"CANTONMENT RD","residential":"Y","year_completed":2009,"building_age_2026":17,"max_floor_lvl":50,"total_dwelling_units":264,"small_flat_share_pct":0.0,"rental_share_pct":0.0,"footprint_area_m2":911.1,"estimated_residents_2026":715.7,"estimated_elderly_65plus_2026":109.9,"estimated_elderly_share_pct":15.35,"elderly_exposure_score":91.1,"elderly_exposure_class":"VERY HIGH","estimate_confidence":"HIGH","display_name":"Block 1C"},"geometry":{"type":"Polygon","coordinates":[[[103.841648,1.277236],[103.841704,1.277264],[103.841689,1.277295],[103.841776,1.277338],[103.841792,1.277307],[103.841846,1.277333],[103.841689,1.277656],[103.841637,1.277631],[103.841644,1.277616],[103.841552,1.277571],[103.841545,1.277585],[103.841491,1.277559],[103.841648,1.277236]]]}},{"type":"Feature","properties":{"block_id":"4938","blk_no":"1D","postal_code":"085401","region_id":"CR","region":"CENTRAL REGION","planning_area_id":"OT","planning_area":"OUTRAM","subzone_id":"OTSZ03","subzone":"CHINATOWN","lon":103.8415,"lat":1.2769,"property_match":"MATCHED","property_match_confidence":"HIGH","street":"CANTONMENT RD","residential":"Y","year_completed":2009,"building_age_2026":17,"max_floor_lvl":50,"total_dwelling_units":264,"small_flat_share_pct":0.0,"rental_share_pct":0.0,"footprint_area_m2":903.4,"estimated_residents_2026":715.7,"estimated_elderly_65plus_2026":109.9,"estimated_elderly_share_pct":15.35,"elderly_exposure_score":91.1,"elderly_exposure_class":"VERY HIGH","estimate_confidence":"HIGH","display_name":"Block 1D"},"geometry":{"type":"Polygon","coordinates":[[[103.841322,1.276897],[103.841367,1.276804],[103.841353,1.276797],[103.841378,1.276744],[103.841699,1.276902],[103.841673,1.276955],[103.841638,1.276938],[103.841593,1.27703],[103.841628,1.277047],[103.841602,1.277101],[103.841281,1.276943],[103.841307,1.27689],[103.841322,1.276897]]]}},{"type":"Feature","properties":{"block_id":"8762","blk_no":"1E","postal_code":"085501","region_id":"CR","region":"CENTRAL REGION","planning_area_id":"OT","planning_area":"OUTRAM","subzone_id":"OTSZ03","subzone":"CHINATOWN","lon":103.8412,"lat":1.2766,"property_match":"MATCHED","property_match_confidence":"HIGH","street":"CANTONMENT RD","residential":"Y","year_completed":2009,"building_age_2026":17,"max_floor_lvl":50,"total_dwelling_units":264,"small_flat_share_pct":0.0,"rental_share_pct":0.0,"footprint_area_m2":925.8,"estimated_residents_2026":715.7,"estimated_elderly_65plus_2026":109.9,"estimated_elderly_share_pct":15.35,"elderly_exposure_score":91.1,"elderly_exposure_class":"VERY HIGH","estimate_confidence":"HIGH","display_name":"Block 1E"},"geometry":{"type":"Polygon","coordinates":[[[103.841025,1.276489],[103.841035,1.276507],[103.841124,1.276457],[103.841114,1.276439],[103.841166,1.27641],[103.841338,1.276724],[103.841287,1.276753],[103.841279,1.276738],[103.841189,1.276789],[103.841197,1.276803],[103.841146,1.276832],[103.840973,1.276517],[103.841025,1.276489]]]}},{"type":"Feature","properties":{"block_id":"7390","blk_no":"1F","postal_code":"085601","region_id":"CR","region":"CENTRAL REGION","planning_area_id":"OT","planning_area":"OUTRAM","subzone_id":"OTSZ03","subzone":"CHINATOWN","lon":103.8412,"lat":1.276,"property_match":"MATCHED","property_match_confidence":"HIGH","street":"CANTONMENT RD","residential":"Y","year_completed":2009,"building_age_2026":17,"max_floor_lvl":50,"total_dwelling_units":264,"small_flat_share_pct":0.0,"rental_share_pct":0.0,"footprint_area_m2":909.7,"estimated_residents_2026":715.7,"estimated_elderly_65plus_2026":109.9,"estimated_elderly_share_pct":15.35,"elderly_exposure_score":91.1,"elderly_exposure_class":"VERY HIGH","estimate_confidence":"HIGH","display_name":"Block 1F"},"geometry":{"type":"Polygon","coordinates":[[[103.841245,1.276195],[103.841187,1.276177],[103.841197,1.276144],[103.841099,1.276114],[103.841089,1.276148],[103.841034,1.276132],[103.841136,1.275787],[103.841192,1.275804],[103.841188,1.275818],[103.841286,1.275848],[103.84129,1.275834],[103.841347,1.275851],[103.841245,1.276195]]]}},{"type":"Feature","properties":{"block_id":"3083","blk_no":"1G","postal_code":"085701","region_id":"CR","region":"CENTRAL REGION","planning_area_id":"OT","planning_area":"OUTRAM","subzone_id":"OTSZ03","subzone":"CHINATOWN","lon":103.8413,"lat":1.2756,"property_match":"MATCHED","property_match_confidence":"HIGH","street":"CANTONMENT RD","residential":"Y","year_completed":2009,"building_age_2026":17,"max_floor_lvl":50,"total_dwelling_units":264,"small_flat_share_pct":0.0,"rental_share_pct":0.0,"footprint_area_m2":1286.7,"estimated_residents_2026":715.7,"estimated_elderly_65plus_2026":109.9,"estimated_elderly_share_pct":15.35,"elderly_exposure_score":91.1,"elderly_exposure_class":"VERY HIGH","estimate_confidence":"HIGH","display_name":"Block 1G"},"geometry":{"type":"Polygon","coordinates":[[[103.841259,1.275312],[103.84126,1.275304],[103.841431,1.275365],[103.841369,1.275759],[103.841312,1.27575],[103.841315,1.275735],[103.841214,1.275719],[103.841212,1.275734],[103.841107,1.275717],[103.841196,1.275302],[103.841259,1.275312]]]}},{"type":"Feature","properties":{"block_id":"7015","blk_no":"2","postal_code":"082002","region_id":"CR","region":"CENTRAL REGION","planning_area_id":"OT","planning_area":"OUTRAM","subzone_id":"OTSZ03","subzone":"CHINATOWN","lon":103.8427,"lat":1.2752,"property_match":"MATCHED","property_match_confidence":"MEDIUM","street":"TG PAGAR PLAZA","residential":"Y","year_completed":1976,"building_age_2026":50,"max_floor_lvl":18,"total_dwelling_units":200,"small_flat_share_pct":95.0,"rental_share_pct":0.0,"footprint_area_m2":1101.5,"estimated_residents_2026":367.8,"estimated_elderly_65plus_2026":132.7,"estimated_elderly_share_pct":36.07,"elderly_exposure_score":95.4,"elderly_exposure_class":"VERY HIGH","estimate_confidence":"HIGH","display_name":"Block 2"},"geometry":{"type":"Polygon","coordinates":[[[103.842559,1.275201],[103.842556,1.275188],[103.84264,1.27517],[103.842643,1.275183],[103.842671,1.275178],[103.842668,1.275165],[103.84275,1.275148],[103.842752,1.275161],[103.842768,1.275158],[103.84277,1.275169],[103.842794,1.275164],[103.842804,1.275137],[103.842884,1.27512],[103.842887,1.275133],[103.842911,1.275127],[103.842909,1.275116],[103.842989,1.275101],[103.842991,1.275113],[103.843005,1.275109],[103.843023,1.275206],[103.842214,1.275373],[103.842193,1.275275],[103.84221,1.275271],[103.842207,1.275257],[103.842289,1.275241],[103.842292,1.275254],[103.842318,1.275249],[103.842315,1.275236],[103.842397,1.27522],[103.842417,1.275243],[103.84244,1.275238],[103.842448,1.275209],[103.842529,1.275192],[103.842532,1.275207],[103.842559,1.275201]]]}},{"type":"Feature","properties":{"block_id":"7040","blk_no":"3","postal_code":"081003","region_id":"CR","region":"CENTRAL REGION","planning_area_id":"OT","planning_area":"OUTRAM","subzone_id":"OTSZ03","subzone":"CHINATOWN","lon":103.8424,"lat":1.2756,"property_match":"MATCHED","property_match_confidence":"MEDIUM","street":"TG PAGAR PLAZA","residential":"Y","year_completed":1976,"building_age_2026":50,"max_floor_lvl":24,"total_dwelling_units":165,"small_flat_share_pct":98.18,"rental_share_pct":0.61,"footprint_area_m2":668.3,"estimated_residents_2026":297.2,"estimated_elderly_65plus_2026":110.9,"estimated_elderly_share_pct":37.32,"elderly_exposure_score":91.4,"elderly_exposure_class":"VERY HIGH","estimate_confidence":"HIGH","display_name":"Block 3"},"geometry":{"type":"Polygon","coordinates":[[[103.842323,1.275678],[103.842301,1.275683],[103.842292,1.275708],[103.842213,1.275724],[103.842209,1.275713],[103.842201,1.275716],[103.842177,1.275613],[103.842664,1.275517],[103.842685,1.275617],[103.84267,1.27562],[103.842673,1.275632],[103.84259,1.275648],[103.842589,1.27564],[103.842575,1.275642],[103.842572,1.275628],[103.842543,1.275634],[103.842545,1.275644],[103.84253,1.275647],[103.842532,1.27566],[103.842446,1.275676],[103.842444,1.275665],[103.842419,1.275671],[103.842421,1.275682],[103.84234,1.275697],[103.842323,1.275678]]]}},{"type":"Feature","properties":{"block_id":"4786","blk_no":"333","postal_code":"080333","region_id":"CR","region":"CENTRAL REGION","planning_area_id":"OT","planning_area":"OUTRAM","subzone_id":"OTSZ03","subzone":"CHINATOWN","lon":103.8424,"lat":1.2809,"property_match":"MATCHED","property_match_confidence":"HIGH","street":"KRETA AYER RD","residential":"Y","year_completed":1981,"building_age_2026":45,"max_floor_lvl":19,"total_dwelling_units":126,"small_flat_share_pct":100.0,"rental_share_pct":100.0,"footprint_area_m2":2862.3,"estimated_residents_2026":195.8,"estimated_elderly_65plus_2026":78.8,"estimated_elderly_share_pct":40.23,"elderly_exposure_score":74.0,"elderly_exposure_class":"HIGH","estimate_confidence":"HIGH","display_name":"Block 333"},"geometry":{"type":"Polygon","coordinates":[[[103.843151,1.280469],[103.843145,1.28048],[103.843191,1.280505],[103.843169,1.28056],[103.843271,1.280748],[103.843176,1.280801],[103.843132,1.280722],[103.843151,1.280712],[103.843144,1.2807],[103.843126,1.28071],[103.843093,1.280651],[103.843112,1.280641],[103.843105,1.280628],[103.843087,1.280639],[103.843054,1.28058],[103.843069,1.28057],[103.843037,1.280535],[103.843018,1.280524],[103.843011,1.280537],[103.842952,1.280505],[103.842962,1.280487],[103.84295,1.28048],[103.84294,1.280498],[103.842881,1.280466],[103.842891,1.280448],[103.842879,1.280442],[103.842869,1.28046],[103.84281,1.280428],[103.84282,1.28041],[103.842807,1.280403],[103.842797,1.280421],[103.8427,1.280369],[103.842687,1.280394],[103.842709,1.280405],[103.842428,1.280936],[103.842474,1.280963],[103.842477,1.28099],[103.842453,1.281008],[103.842401,1.280986],[103.842333,1.281112],[103.842416,1.281157],[103.842466,1.281063],[103.842495,1.281079],[103.842529,1.281014],[103.842558,1.28103],[103.842533,1.281091],[103.842478,1.281194],[103.842331,1.281115],[103.842313,1.281149],[103.84246,1.281395],[103.842404,1.281429],[103.84239,1.281404],[103.842365,1.281419],[103.842194,1.281135],[103.842608,1.280356],[103.842625,1.280364],[103.842683,1.280254],[103.842691,1.280259],[103.842706,1.28023],[103.842733,1.280245],[103.842728,1.280255],[103.842773,1.280278],[103.842784,1.280258],[103.842824,1.28028],[103.842813,1.280301],[103.843097,1.280454],[103.843111,1.280427],[103.843132,1.280438],[103.843141,1.28042],[103.843192,1.280448],[103.843174,1.280482],[103.843151,1.280469]]]}},{"type":"Feature","properties":{"block_id":"762","blk_no":"334","postal_code":"080334","region_id":"CR","region":"CENTRAL REGION","planning_area_id":"OT","planning_area":"OUTRAM","subzone_id":"OTSZ03","subzone":"CHINATOWN","lon":103.8424,"lat":1.2817,"property_match":"MATCHED","property_match_confidence":"HIGH","street":"KRETA AYER RD","residential":"Y","year_completed":1980,"building_age_2026":46,"max_floor_lvl":25,"total_dwelling_units":88,"small_flat_share_pct":0.0,"rental_share_pct":0.0,"footprint_area_m2":1458.7,"estimated_residents_2026":227.2,"estimated_elderly_65plus_2026":37.3,"estimated_elderly_share_pct":16.43,"elderly_exposure_score":24.8,"elderly_exposure_class":"LOW","estimate_confidence":"HIGH","display_name":"Block 334"},"geometry":{"type":"Polygon","coordinates":[[[103.842377,1.281411],[103.842408,1.281464],[103.842386,1.281478],[103.84257,1.281788],[103.842385,1.281899],[103.842199,1.281586],[103.842252,1.281555],[103.842242,1.281537],[103.842193,1.281566],[103.842188,1.281559],[103.842178,1.281565],[103.842135,1.281472],[103.842126,1.281478],[103.842096,1.281428],[103.842107,1.281422],[103.842102,1.281414],[103.842178,1.281369],[103.842192,1.281391],[103.842206,1.281382],[103.842193,1.28136],[103.842269,1.281314],[103.842273,1.281322],[103.842284,1.281316],[103.842313,1.281364],[103.842281,1.281383],[103.842304,1.281421],[103.842336,1.281403],[103.842365,1.281452],[103.842354,1.281458],[103.842359,1.281466],[103.842384,1.281451],[103.842365,1.281419],[103.842377,1.281411]]]}},{"type":"Feature","properties":{"block_id":"1774","blk_no":"335","postal_code":"050335","region_id":"CR","region":"CENTRAL REGION","planning_area_id":"OT","planning_area":"OUTRAM","subzone_id":"OTSZ03","subzone":"CHINATOWN","lon":103.8428,"lat":1.2823,"property_match":"MATCHED","property_match_confidence":"HIGH","street":"SMITH ST","residential":"N","year_completed":1983,"building_age_2026":43,"max_floor_lvl":4,"total_dwelling_units":0,"small_flat_share_pct":null,"rental_share_pct":null,"footprint_area_m2":8413.4,"estimated_residents_2026":0.0,"estimated_elderly_65plus_2026":0.0,"estimated_elderly_share_pct":null,"elderly_exposure_score":null,"elderly_exposure_class":null,"estimate_confidence":"HIGH","display_name":"Block 335"},"geometry":{"type":"Polygon","coordinates":[[[103.843653,1.281967],[103.843555,1.282019],[103.843577,1.282027],[103.84358,1.282046],[103.843526,1.28208],[103.843502,1.282071],[103.843511,1.282044],[103.843279,1.282173],[103.84337,1.2823],[103.843397,1.282285],[103.843391,1.282259],[103.84341,1.282251],[103.843421,1.282267],[103.843644,1.282144],[103.843672,1.282196],[103.843656,1.282205],[103.843661,1.282214],[103.84368,1.282211],[103.843696,1.282242],[103.84369,1.282255],[103.843699,1.282272],[103.84371,1.282266],[103.843784,1.282401],[103.843778,1.282442],[103.84349,1.282608],[103.843375,1.282399],[103.843342,1.282418],[103.843401,1.282538],[103.843396,1.282587],[103.843379,1.282616],[103.842996,1.282867],[103.842944,1.282805],[103.842915,1.282792],[103.842911,1.282764],[103.842768,1.282592],[103.842789,1.282578],[103.84278,1.282558],[103.842791,1.28254],[103.842818,1.282541],[103.843117,1.282349],[103.843081,1.282284],[103.843055,1.282295],[103.843034,1.282258],[103.842997,1.282284],[103.843012,1.28232],[103.842953,1.282354],[103.842955,1.282375],[103.842938,1.282382],[103.842927,1.282368],[103.842844,1.282414],[103.842834,1.282395],[103.842813,1.282407],[103.842823,1.282426],[103.842749,1.282467],[103.842728,1.282454],[103.842712,1.282462],[103.842678,1.282401],[103.842694,1.282392],[103.842593,1.282207],[103.842597,1.282179],[103.842625,1.282158],[103.84262,1.282148],[103.842798,1.282061],[103.842806,1.282042],[103.842831,1.282043],[103.842839,1.282023],[103.842855,1.28203],[103.842973,1.281973],[103.842975,1.281949],[103.843027,1.281921],[103.843033,1.281932],[103.8431,1.281893],[103.843091,1.281876],[103.84315,1.281843],[103.843159,1.28186],[103.843217,1.281828],[103.843208,1.281811],[103.843267,1.281778],[103.843276,1.281794],[103.843335,1.281761],[103.843333,1.281729],[103.843385,1.281699],[103.843413,1.281722],[103.843405,1.281746],[103.843497,1.281695],[103.843653,1.281967]],[[103.843177,1.282526],[103.843142,1.282529],[103.843203,1.28264],[103.843223,1.282611],[103.843213,1.282551],[103.843229,1.282501],[103.843257,1.282473],[103.843307,1.282458],[103.843298,1.282442],[103.843189,1.282502],[103.843177,1.282526]],[[103.843358,1.282541],[103.843341,1.282512],[103.843299,1.2825],[103.843262,1.282525],[103.843258,1.282569],[103.843278,1.282596],[103.843321,1.282603],[103.843348,1.282584],[103.843358,1.282541]]]}},{"type":"Feature","properties":{"block_id":"1785","blk_no":"335A","postal_code":"051335","region_id":"CR","region":"CENTRAL REGION","planning_area_id":"OT","planning_area":"OUTRAM","subzone_id":"OTSZ03","subzone":"CHINATOWN","lon":103.8429,"lat":1.2822,"property_match":"MATCHED","property_match_confidence":"HIGH","street":"SMITH ST","residential":"Y","year_completed":1983,"building_age_2026":43,"max_floor_lvl":21,"total_dwelling_units":161,"small_flat_share_pct":96.89,"rental_share_pct":0.62,"footprint_area_m2":771.8,"estimated_residents_2026":290.9,"estimated_elderly_65plus_2026":107.7,"estimated_elderly_share_pct":37.03,"elderly_exposure_score":90.5,"elderly_exposure_class":"VERY HIGH","estimate_confidence":"HIGH","display_name":"Block 335A"},"geometry":{"type":"Polygon","coordinates":[[[103.842869,1.282022],[103.842875,1.282033],[103.842883,1.282029],[103.842924,1.282103],[103.842904,1.282114],[103.842915,1.282135],[103.842935,1.282124],[103.842975,1.282197],[103.842942,1.282231],[103.842962,1.282269],[103.843003,1.282255],[103.843011,1.282274],[103.842997,1.282284],[103.843012,1.28232],[103.842953,1.282354],[103.842959,1.28237],[103.842943,1.282381],[103.842927,1.282368],[103.842844,1.282414],[103.842834,1.282395],[103.842813,1.282407],[103.842823,1.282426],[103.842749,1.282467],[103.842728,1.282454],[103.842712,1.282462],[103.842678,1.282401],[103.842694,1.282392],[103.842678,1.282363],[103.842704,1.282348],[103.84271,1.282358],[103.842881,1.282263],[103.842795,1.282104],[103.842743,1.282123],[103.842729,1.282104],[103.842769,1.282077],[103.842796,1.282073],[103.842792,1.282065],[103.842869,1.282022]]]}},{"type":"Feature","properties":{"block_id":"4648","blk_no":"335B","postal_code":"052335","region_id":"CR","region":"CENTRAL REGION","planning_area_id":"OT","planning_area":"OUTRAM","subzone_id":"OTSZ03","subzone":"CHINATOWN","lon":103.8435,"lat":1.2824,"property_match":"MATCHED","property_match_confidence":"HIGH","street":"SMITH ST","residential":"Y","year_completed":1983,"building_age_2026":43,"max_floor_lvl":25,"total_dwelling_units":131,"small_flat_share_pct":0.0,"rental_share_pct":0.0,"footprint_area_m2":697.8,"estimated_residents_2026":338.2,"estimated_elderly_65plus_2026":55.6,"estimated_elderly_share_pct":16.43,"elderly_exposure_score":48.2,"elderly_exposure_class":"MODERATE","estimate_confidence":"HIGH","display_name":"Block 335B"},"geometry":{"type":"Polygon","coordinates":[[[103.843648,1.282152],[103.843672,1.282196],[103.843656,1.282205],[103.843661,1.282214],[103.84368,1.282211],[103.843694,1.282252],[103.843675,1.282263],[103.843659,1.282253],[103.843634,1.282267],[103.843643,1.282282],[103.843509,1.282356],[103.84358,1.282486],[103.843571,1.282505],[103.843596,1.28255],[103.843523,1.28259],[103.843504,1.282555],[103.843487,1.282565],[103.843446,1.28249],[103.843463,1.282481],[103.843426,1.282412],[103.843408,1.282422],[103.843368,1.282348],[103.843385,1.282338],[103.843366,1.282303],[103.843397,1.282285],[103.843388,1.282262],[103.843409,1.282251],[103.843431,1.282285],[103.843452,1.282274],[103.84347,1.282307],[103.843485,1.282299],[103.843474,1.282273],[103.843504,1.282257],[103.843539,1.282315],[103.843548,1.28231],[103.84351,1.282241],[103.843545,1.282222],[103.843535,1.282204],[103.843648,1.282152]]]}},{"type":"Feature","properties":{"block_id":"6095","blk_no":"336","postal_code":"050336","region_id":"CR","region":"CENTRAL REGION","planning_area_id":"OT","planning_area":"OUTRAM","subzone_id":"OTSZ03","subzone":"CHINATOWN","lon":103.8427,"lat":1.2828,"property_match":"MATCHED","property_match_confidence":"HIGH","street":"SMITH ST","residential":"N","year_completed":1986,"building_age_2026":40,"max_floor_lvl":8,"total_dwelling_units":0,"small_flat_share_pct":null,"rental_share_pct":null,"footprint_area_m2":1523.9,"estimated_residents_2026":0.0,"estimated_elderly_65plus_2026":0.0,"estimated_elderly_share_pct":null,"elderly_exposure_score":null,"elderly_exposure_class":null,"estimate_confidence":"HIGH","display_name":"Block 336"},"geometry":{"type":"Polygon","coordinates":[[[103.8427,1.282567],[103.842769,1.28265],[103.842796,1.282627],[103.842835,1.282673],[103.842807,1.282696],[103.842965,1.282886],[103.842705,1.283054],[103.842465,1.282765],[103.8427,1.282567]]]}},{"type":"Feature","properties":{"block_id":"1129","blk_no":"4","postal_code":"050004","region_id":"CR","region":"CENTRAL REGION","planning_area_id":"OT","planning_area":"OUTRAM","subzone_id":"OTSZ03","subzone":"CHINATOWN","lon":103.8428,"lat":1.2819,"property_match":"MATCHED","property_match_confidence":"HIGH","street":"SAGO LANE","residential":"Y","year_completed":1973,"building_age_2026":53,"max_floor_lvl":21,"total_dwelling_units":250,"small_flat_share_pct":99.2,"rental_share_pct":0.0,"footprint_area_m2":2144.0,"estimated_residents_2026":447.3,"estimated_elderly_65plus_2026":168.7,"estimated_elderly_share_pct":37.73,"elderly_exposure_score":98.3,"elderly_exposure_class":"VERY HIGH","estimate_confidence":"HIGH","display_name":"Block 4"},"geometry":{"type":"Polygon","coordinates":[[[103.843321,1.281476],[103.843401,1.281623],[103.842497,1.282125],[103.842415,1.281978],[103.843321,1.281476]]]}},{"type":"Feature","properties":{"block_id":"7228","blk_no":"4","postal_code":"081004","region_id":"CR","region":"CENTRAL REGION","planning_area_id":"OT","planning_area":"OUTRAM","subzone_id":"OTSZ03","subzone":"CHINATOWN","lon":103.8427,"lat":1.2759,"property_match":"MATCHED","property_match_confidence":"MEDIUM","street":"TG PAGAR PLAZA","residential":"Y","year_completed":1976,"building_age_2026":50,"max_floor_lvl":18,"total_dwelling_units":199,"small_flat_share_pct":94.47,"rental_share_pct":0.0,"footprint_area_m2":1097.9,"estimated_residents_2026":367.2,"estimated_elderly_65plus_2026":131.7,"estimated_elderly_share_pct":35.87,"elderly_exposure_score":95.3,"elderly_exposure_class":"VERY HIGH","estimate_confidence":"HIGH","display_name":"Block 4"},"geometry":{"type":"Polygon","coordinates":[[[103.843135,1.275769],[103.843155,1.275867],[103.843137,1.275872],[103.84314,1.275883],[103.843062,1.2759],[103.843058,1.275887],[103.843029,1.275894],[103.843032,1.275907],[103.842948,1.275925],[103.842929,1.275898],[103.842905,1.275903],[103.842908,1.275918],[103.842893,1.275922],[103.842895,1.275933],[103.842811,1.27595],[103.842808,1.275938],[103.842783,1.275943],[103.842785,1.275955],[103.842705,1.275972],[103.842702,1.275959],[103.842672,1.275965],[103.842675,1.275977],[103.842592,1.275994],[103.842589,1.275983],[103.842578,1.275986],[103.842575,1.275971],[103.842552,1.275976],[103.842544,1.276006],[103.842464,1.276021],[103.842461,1.276009],[103.842441,1.276012],[103.842443,1.276026],[103.842363,1.276043],[103.842361,1.27603],[103.842348,1.276033],[103.842325,1.275935],[103.843135,1.275769]]]}},{"type":"Feature","properties":{"block_id":"2374","blk_no":"5","postal_code":"050005","region_id":"CR","region":"CENTRAL REGION","planning_area_id":"OT","planning_area":"OUTRAM","subzone_id":"OTSZ03","subzone":"CHINATOWN","lon":103.8434,"lat":1.2812,"property_match":"MATCHED","property_match_confidence":"HIGH","street":"BANDA ST","residential":"Y","year_completed":1973,"building_age_2026":53,"max_floor_lvl":21,"total_dwelling_units":430,"small_flat_share_pct":100.0,"rental_share_pct":100.0,"footprint_area_m2":1791.4,"estimated_residents_2026":668.0,"estimated_elderly_65plus_2026":268.8,"estimated_elderly_share_pct":40.23,"elderly_exposure_score":99.9,"elderly_exposure_class":"VERY HIGH","estimate_confidence":"HIGH","display_name":"Block 5"},"geometry":{"type":"Polygon","coordinates":[[[103.843428,1.281387],[103.843473,1.281362],[103.843456,1.281331],[103.84341,1.281356],[103.843169,1.280915],[103.843317,1.280831],[103.843332,1.280857],[103.843355,1.280844],[103.84368,1.281439],[103.843657,1.281451],[103.843671,1.281477],[103.843643,1.281491],[103.843656,1.281514],[103.843683,1.281499],[103.843697,1.281525],[103.84359,1.281594],[103.843578,1.281573],[103.843594,1.281564],[103.843576,1.281529],[103.843548,1.281545],[103.843508,1.281471],[103.843482,1.281486],[103.843466,1.281457],[103.843438,1.281472],[103.843429,1.281455],[103.843457,1.28144],[103.843428,1.281387]]]}},{"type":"Feature","properties":{"block_id":"8047","blk_no":"5","postal_code":"081005","region_id":"CR","region":"CENTRAL REGION","planning_area_id":"OT","planning_area":"OUTRAM","subzone_id":"OTSZ03","subzone":"CHINATOWN","lon":103.843,"lat":1.2762,"property_match":"MATCHED","property_match_confidence":"MEDIUM","street":"TG PAGAR PLAZA","residential":"Y","year_completed":1976,"building_age_2026":50,"max_floor_lvl":24,"total_dwelling_units":166,"small_flat_share_pct":98.8,"rental_share_pct":0.0,"footprint_area_m2":655.6,"estimated_residents_2026":297.8,"estimated_elderly_65plus_2026":111.9,"estimated_elderly_share_pct":37.56,"elderly_exposure_score":91.6,"elderly_exposure_class":"VERY HIGH","estimate_confidence":"HIGH","display_name":"Block 5"},"geometry":{"type":"Polygon","coordinates":[[[103.84308,1.276178],[103.843121,1.276179],[103.843119,1.276171],[103.843134,1.276168],[103.843132,1.276154],[103.843217,1.276138],[103.84322,1.276151],[103.843239,1.276148],[103.843257,1.276246],[103.842777,1.276342],[103.842757,1.276243],[103.842766,1.276241],[103.842763,1.276229],[103.842843,1.276213],[103.842846,1.276225],[103.842863,1.276222],[103.842864,1.276231],[103.842889,1.276227],[103.842895,1.276203],[103.842974,1.276186],[103.842977,1.2762],[103.842999,1.276195],[103.842997,1.276183],[103.843078,1.276165],[103.84308,1.276178]]]}},{"type":"Feature","properties":{"block_id":"4757","blk_no":"6","postal_code":"081006","region_id":"CR","region":"CENTRAL REGION","planning_area_id":"OT","planning_area":"OUTRAM","subzone_id":"OTSZ03","subzone":"CHINATOWN","lon":103.8431,"lat":1.2766,"property_match":"MATCHED","property_match_confidence":"MEDIUM","street":"TG PAGAR PLAZA","residential":"N","year_completed":2014,"building_age_2026":12,"max_floor_lvl":2,"total_dwelling_units":0,"small_flat_share_pct":null,"rental_share_pct":null,"footprint_area_m2":1637.8,"estimated_residents_2026":0.0,"estimated_elderly_65plus_2026":0.0,"estimated_elderly_share_pct":null,"elderly_exposure_score":null,"elderly_exposure_class":null,"estimate_confidence":"HIGH","display_name":"Block 6"},"geometry":{"type":"Polygon","coordinates":[[[103.842987,1.276818],[103.842965,1.276712],[103.842861,1.276733],[103.84285,1.276675],[103.842956,1.276653],[103.842925,1.276493],[103.843299,1.276418],[103.843364,1.276742],[103.842987,1.276818]]]}},{"type":"Feature","properties":{"block_id":"2703","blk_no":"7","postal_code":"081007","region_id":"CR","region":"CENTRAL REGION","planning_area_id":"OT","planning_area":"OUTRAM","subzone_id":"OTSZ03","subzone":"CHINATOWN","lon":103.8432,"lat":1.2771,"property_match":"MATCHED","property_match_confidence":"MEDIUM","street":"TG PAGAR PLAZA","residential":"Y","year_completed":1979,"building_age_2026":47,"max_floor_lvl":27,"total_dwelling_units":96,"small_flat_share_pct":0.0,"rental_share_pct":0.0,"footprint_area_m2":1996.9,"estimated_residents_2026":247.9,"estimated_elderly_65plus_2026":40.7,"estimated_elderly_share_pct":16.43,"elderly_exposure_score":29.3,"elderly_exposure_class":"LOW","estimate_confidence":"HIGH","display_name":"Block 7"},"geometry":{"type":"Polygon","coordinates":[[[103.842997,1.277178],[103.84302,1.277174],[103.842987,1.277004],[103.842948,1.277011],[103.842938,1.276988],[103.843207,1.276928],[103.843186,1.276822],[103.843292,1.2768],[103.843319,1.276935],[103.843347,1.276929],[103.84335,1.276941],[103.843361,1.276938],[103.843372,1.276992],[103.843336,1.276999],[103.843344,1.277042],[103.843381,1.277035],[103.843392,1.277089],[103.84338,1.277091],[103.843382,1.277102],[103.843326,1.277114],[103.843209,1.277291],[103.843027,1.277328],[103.843029,1.27734],[103.842839,1.277379],[103.842836,1.277367],[103.842825,1.277369],[103.842814,1.277316],[103.84285,1.277308],[103.842842,1.277265],[103.842805,1.277273],[103.842795,1.277219],[103.842806,1.277217],[103.842804,1.277205],[103.842995,1.277166],[103.842997,1.277178]]]}},{"type":"Feature","properties":{"block_id":"2701","blk_no":"8","postal_code":"080008","region_id":"CR","region":"CENTRAL REGION","planning_area_id":"OT","planning_area":"OUTRAM","subzone_id":"OTSZ03","subzone":"CHINATOWN","lon":103.8429,"lat":1.2773,"property_match":"MATCHED","property_match_confidence":"MEDIUM","street":"TG PAGAR PLAZA","residential":"Y","year_completed":1979,"building_age_2026":47,"max_floor_lvl":27,"total_dwelling_units":96,"small_flat_share_pct":0.0,"rental_share_pct":0.0,"footprint_area_m2":430.7,"estimated_residents_2026":247.9,"estimated_elderly_65plus_2026":40.7,"estimated_elderly_share_pct":16.43,"elderly_exposure_score":29.3,"elderly_exposure_class":"LOW","estimate_confidence":"HIGH","display_name":"Block 8"},"geometry":{"type":"Polygon","coordinates":[[[103.843009,1.277176],[103.843019,1.27723],[103.842983,1.277237],[103.84299,1.277274],[103.843027,1.277267],[103.843038,1.277326],[103.843027,1.277328],[103.843029,1.27734],[103.842839,1.277379],[103.842836,1.277367],[103.842825,1.277369],[103.842814,1.277316],[103.84285,1.277308],[103.842842,1.277265],[103.842805,1.277273],[103.842795,1.277219],[103.842806,1.277217],[103.842804,1.277205],[103.842995,1.277166],[103.842997,1.277178],[103.843009,1.277176]]]}},{"type":"Feature","properties":{"block_id":"5550","blk_no":"1","postal_code":"161001","region_id":"CR","region":"CENTRAL REGION","planning_area_id":"OT","planning_area":"OUTRAM","subzone_id":"OTSZ01","subzone":"PEARL'S HILL","lon":103.8399,"lat":1.2883,"property_match":"MATCHED","property_match_confidence":"HIGH","street":"JLN KUKOH","residential":"Y","year_completed":1969,"building_age_2026":57,"max_floor_lvl":17,"total_dwelling_units":84,"small_flat_share_pct":83.33,"rental_share_pct":100.0,"footprint_area_m2":1491.4,"estimated_residents_2026":113.0,"estimated_elderly_65plus_2026":49.2,"estimated_elderly_share_pct":43.52,"elderly_exposure_score":40.3,"elderly_exposure_class":"MODERATE","estimate_confidence":"HIGH","display_name":"Block 1"},"geometry":{"type":"Polygon","coordinates":[[[103.84007,1.28801],[103.840073,1.288451],[103.8398,1.288452],[103.839799,1.288284],[103.839788,1.288282],[103.839788,1.288221],[103.839798,1.288223],[103.839797,1.288011],[103.84007,1.28801]]]}},{"type":"Feature","properties":{"block_id":"10426373","blk_no":"10","postal_code":"162010","region_id":"CR","region":"CENTRAL REGION","planning_area_id":"OT","planning_area":"OUTRAM","subzone_id":"OTSZ01","subzone":"PEARL'S HILL","lon":103.8391,"lat":1.287,"property_match":"MATCHED","property_match_confidence":"HIGH","street":"JLN KUKOH","residential":"Y","year_completed":1970,"building_age_2026":56,"max_floor_lvl":12,"total_dwelling_units":92,"small_flat_share_pct":95.65,"rental_share_pct":0.0,"footprint_area_m2":1028.0,"estimated_residents_2026":126.4,"estimated_elderly_65plus_2026":54.3,"estimated_elderly_share_pct":42.97,"elderly_exposure_score":46.6,"elderly_exposure_class":"MODERATE","estimate_confidence":"HIGH","display_name":"Block 10"},"geometry":{"type":"Polygon","coordinates":[[[103.839379,1.28711],[103.839349,1.287098],[103.839336,1.287131],[103.83931,1.287121],[103.839298,1.287151],[103.839241,1.287127],[103.839253,1.287097],[103.839203,1.287077],[103.839191,1.287107],[103.839133,1.287084],[103.839145,1.287054],[103.839122,1.287044],[103.839109,1.287074],[103.839052,1.287051],[103.839064,1.287021],[103.839041,1.287011],[103.839028,1.287041],[103.838971,1.287018],[103.838983,1.286988],[103.838959,1.286978],[103.838947,1.287008],[103.838889,1.286985],[103.838901,1.286955],[103.838852,1.286935],[103.83884,1.286965],[103.838783,1.286942],[103.838795,1.286911],[103.838769,1.286901],[103.838808,1.286804],[103.83889,1.286837],[103.838914,1.286784],[103.838961,1.286803],[103.838942,1.286858],[103.839241,1.286979],[103.839262,1.286934],[103.839309,1.286953],[103.839293,1.287],[103.839374,1.287033],[103.839369,1.287046],[103.839399,1.287058],[103.839379,1.28711]]]}},{"type":"Feature","properties":{"block_id":"5002","blk_no":"10A","postal_code":"163010","region_id":"CR","region":"CENTRAL REGION","planning_area_id":"OT","planning_area":"OUTRAM","subzone_id":"OTSZ01","subzone":"PEARL'S HILL","lon":103.8387,"lat":1.2868,"property_match":"MATCHED","property_match_confidence":"HIGH","street":"JLN KUKOH","residential":"N","year_completed":1999,"building_age_2026":27,"max_floor_lvl":1,"total_dwelling_units":0,"small_flat_share_pct":null,"rental_share_pct":null,"footprint_area_m2":103.6,"estimated_residents_2026":0.0,"estimated_elderly_65plus_2026":0.0,"estimated_elderly_share_pct":null,"elderly_exposure_score":null,"elderly_exposure_class":null,"estimate_confidence":"HIGH","display_name":"Block 10A"},"geometry":{"type":"Polygon","coordinates":[[[103.83867,1.286764],[103.838728,1.286788],[103.838678,1.286912],[103.83862,1.286888],[103.83867,1.286764]]]}},{"type":"Feature","properties":{"block_id":"6196","blk_no":"11","postal_code":"162011","region_id":"CR","region":"CENTRAL REGION","planning_area_id":"OT","planning_area":"OUTRAM","subzone_id":"OTSZ01","subzone":"PEARL'S HILL","lon":103.838,"lat":1.2873,"property_match":"MATCHED","property_match_confidence":"HIGH","street":"YORK HILL","residential":"Y","year_completed":1969,"building_age_2026":57,"max_floor_lvl":12,"total_dwelling_units":198,"small_flat_share_pct":100.0,"rental_share_pct":100.0,"footprint_area_m2":1172.7,"estimated_residents_2026":243.8,"estimated_elderly_65plus_2026":109.6,"estimated_elderly_share_pct":44.98,"elderly_exposure_score":91.1,"elderly_exposure_class":"VERY HIGH","estimate_confidence":"HIGH","display_name":"Block 11"},"geometry":{"type":"Polygon","coordinates":[[[103.83777,1.287095],[103.83834,1.287282],[103.838291,1.287433],[103.837721,1.287246],[103.83777,1.287095]]]}},{"type":"Feature","properties":{"block_id":"6238","blk_no":"12","postal_code":"163012","region_id":"CR","region":"CENTRAL REGION","planning_area_id":"OT","planning_area":"OUTRAM","subzone_id":"OTSZ01","subzone":"PEARL'S HILL","lon":103.838,"lat":1.2868,"property_match":"MATCHED","property_match_confidence":"HIGH","street":"YORK HILL","residential":"Y","year_completed":1969,"building_age_2026":57,"max_floor_lvl":12,"total_dwelling_units":198,"small_flat_share_pct":100.0,"rental_share_pct":100.0,"footprint_area_m2":1559.7,"estimated_residents_2026":243.8,"estimated_elderly_65plus_2026":109.6,"estimated_elderly_share_pct":44.98,"elderly_exposure_score":91.1,"elderly_exposure_class":"VERY HIGH","estimate_confidence":"HIGH","display_name":"Block 12"},"geometry":{"type":"Polygon","coordinates":[[[103.837955,1.286526],[103.838091,1.286571],[103.838022,1.286779],[103.838457,1.286922],[103.838408,1.287074],[103.837838,1.286886],[103.837955,1.286526]]]}},{"type":"Feature","properties":{"block_id":"4804","blk_no":"13","postal_code":"162013","region_id":"CR","region":"CENTRAL REGION","planning_area_id":"OT","planning_area":"OUTRAM","subzone_id":"OTSZ01","subzone":"PEARL'S HILL","lon":103.8384,"lat":1.2866,"property_match":"MATCHED","property_match_confidence":"HIGH","street":"YORK HILL","residential":"Y","year_completed":1969,"building_age_2026":57,"max_floor_lvl":12,"total_dwelling_units":182,"small_flat_share_pct":100.0,"rental_share_pct":100.0,"footprint_area_m2":1557.0,"estimated_residents_2026":224.1,"estimated_elderly_65plus_2026":100.8,"estimated_elderly_share_pct":44.98,"elderly_exposure_score":88.0,"elderly_exposure_class":"VERY HIGH","estimate_confidence":"HIGH","display_name":"Block 13"},"geometry":{"type":"Polygon","coordinates":[[[103.838004,1.286375],[103.838574,1.286563],[103.838457,1.286922],[103.838322,1.286878],[103.838389,1.286669],[103.837955,1.286526],[103.838004,1.286375]]]}},{"type":"Feature","properties":{"block_id":"7592","blk_no":"2","postal_code":"163002","region_id":"CR","region":"CENTRAL REGION","planning_area_id":"OT","planning_area":"OUTRAM","subzone_id":"OTSZ01","subzone":"PEARL'S HILL","lon":103.8396,"lat":1.2886,"property_match":"MATCHED","property_match_confidence":"HIGH","street":"JLN KUKOH","residential":"Y","year_completed":1966,"building_age_2026":60,"max_floor_lvl":12,"total_dwelling_units":264,"small_flat_share_pct":100.0,"rental_share_pct":100.0,"footprint_area_m2":996.1,"estimated_residents_2026":325.0,"estimated_elderly_65plus_2026":146.2,"estimated_elderly_share_pct":44.98,"elderly_exposure_score":97.1,"elderly_exposure_class":"VERY HIGH","estimate_confidence":"HIGH","display_name":"Block 2"},"geometry":{"type":"Polygon","coordinates":[[[103.839953,1.288583],[103.839938,1.288637],[103.839912,1.288634],[103.839913,1.288647],[103.839861,1.288647],[103.839861,1.288634],[103.839788,1.288635],[103.839788,1.288647],[103.839739,1.288647],[103.83974,1.288635],[103.839715,1.288635],[103.839715,1.288647],[103.839664,1.288647],[103.839664,1.288635],[103.839614,1.288635],[103.839614,1.288647],[103.839563,1.288647],[103.839563,1.288635],[103.839515,1.288635],[103.839515,1.288647],[103.839464,1.288648],[103.839464,1.288635],[103.839368,1.288636],[103.839368,1.288648],[103.839316,1.288648],[103.839316,1.288636],[103.839291,1.288639],[103.839275,1.288584],[103.839294,1.288518],[103.839909,1.288516],[103.839934,1.288516],[103.839953,1.288583]]]}},{"type":"Feature","properties":{"block_id":"4469","blk_no":"3","postal_code":"161003","region_id":"CR","region":"CENTRAL REGION","planning_area_id":"OT","planning_area":"OUTRAM","subzone_id":"OTSZ01","subzone":"PEARL'S HILL","lon":103.8394,"lat":1.2882,"property_match":"MATCHED","property_match_confidence":"HIGH","street":"JLN KUKOH","residential":"Y","year_completed":1966,"building_age_2026":60,"max_floor_lvl":16,"total_dwelling_units":270,"small_flat_share_pct":100.0,"rental_share_pct":100.0,"footprint_area_m2":768.9,"estimated_residents_2026":332.4,"estimated_elderly_65plus_2026":149.5,"estimated_elderly_share_pct":44.98,"elderly_exposure_score":97.3,"elderly_exposure_class":"VERY HIGH","estimate_confidence":"HIGH","display_name":"Block 3"},"geometry":{"type":"Polygon","coordinates":[[[103.839455,1.287947],[103.839456,1.288441],[103.839389,1.28846],[103.839335,1.288444],[103.839338,1.288419],[103.839325,1.288419],[103.839325,1.288367],[103.839338,1.288367],[103.839337,1.28827],[103.839325,1.288269],[103.839325,1.288218],[103.839337,1.288218],[103.839337,1.28817],[103.839325,1.28817],[103.839325,1.288119],[103.839337,1.288119],[103.839337,1.288022],[103.839325,1.288021],[103.839325,1.28797],[103.839337,1.28797],[103.839334,1.287944],[103.839388,1.287928],[103.839455,1.287947]]]}},{"type":"Feature","properties":{"block_id":"4883","blk_no":"32","postal_code":"050032","region_id":"CR","region":"CENTRAL REGION","planning_area_id":"OT","planning_area":"OUTRAM","subzone_id":"OTSZ01","subzone":"PEARL'S HILL","lon":103.8427,"lat":1.285,"property_match":"MATCHED","property_match_confidence":"HIGH","street":"NEW MKT RD","residential":"Y","year_completed":1968,"building_age_2026":58,"max_floor_lvl":9,"total_dwelling_units":127,"small_flat_share_pct":97.64,"rental_share_pct":0.79,"footprint_area_m2":5220.7,"estimated_residents_2026":180.9,"estimated_elderly_65plus_2026":77.0,"estimated_elderly_share_pct":42.58,"elderly_exposure_score":72.7,"elderly_exposure_class":"HIGH","estimate_confidence":"HIGH","display_name":"Block 32"},"geometry":{"type":"Polygon","coordinates":[[[103.842296,1.284906],[103.842256,1.284858],[103.842265,1.284851],[103.842247,1.284829],[103.842238,1.284836],[103.842199,1.284787],[103.842207,1.28478],[103.842171,1.284735],[103.842162,1.284742],[103.842123,1.284694],[103.842131,1.284687],[103.842113,1.284665],[103.842105,1.284672],[103.842065,1.284623],[103.842074,1.284616],[103.842056,1.284594],[103.842048,1.284601],[103.84203,1.284575],[103.84207,1.284541],[103.842045,1.284511],[103.842123,1.284447],[103.84214,1.284469],[103.842254,1.284375],[103.842261,1.284384],[103.842283,1.284365],[103.84259,1.284742],[103.842603,1.284731],[103.842833,1.285015],[103.842821,1.285025],[103.843127,1.285402],[103.843105,1.285421],[103.843112,1.285429],[103.842998,1.285523],[103.843016,1.285544],[103.842938,1.285608],[103.842914,1.285579],[103.842873,1.285611],[103.842866,1.285607],[103.842851,1.285589],[103.842859,1.285582],[103.842811,1.28554],[103.842784,1.285489],[103.842776,1.285496],[103.842736,1.285448],[103.842745,1.285441],[103.842708,1.285396],[103.842699,1.285403],[103.84266,1.285354],[103.842668,1.285347],[103.842651,1.285325],[103.842642,1.285332],[103.842603,1.285284],[103.842611,1.285277],[103.842593,1.285255],[103.842585,1.285262],[103.842544,1.285212],[103.842552,1.285205],[103.842516,1.285159],[103.842507,1.285166],[103.842468,1.285118],[103.842476,1.285111],[103.842439,1.285065],[103.842431,1.285072],[103.842391,1.285024],[103.8424,1.285017],[103.842314,1.284928],[103.842322,1.284921],[103.842304,1.284899],[103.842296,1.284906]],[[103.842549,1.284938],[103.842493,1.284985],[103.842509,1.285005],[103.842565,1.284958],[103.842549,1.284938]],[[103.842281,1.284608],[103.842224,1.284655],[103.842296,1.284743],[103.842353,1.284697],[103.842281,1.284608]],[[103.842818,1.285269],[103.842762,1.285315],[103.842834,1.285404],[103.84289,1.285357],[103.842818,1.285269]],[[103.842586,1.284984],[103.842558,1.285017],[103.842553,1.285011],[103.84253,1.28503],[103.842641,1.285166],[103.842697,1.28512],[103.842586,1.284984]]]}},{"type":"Feature","properties":{"block_id":"204","blk_no":"33","postal_code":"050033","region_id":"CR","region":"CENTRAL REGION","planning_area_id":"OT","planning_area":"OUTRAM","subzone_id":"OTSZ01","subzone":"PEARL'S HILL","lon":103.8423,"lat":1.2855,"property_match":"MATCHED","property_match_confidence":"HIGH","street":"PK CRES","residential":"N","year_completed":1974,"building_age_2026":52,"max_floor_lvl":6,"total_dwelling_units":0,"small_flat_share_pct":null,"rental_share_pct":null,"footprint_area_m2":3493.2,"estimated_residents_2026":0.0,"estimated_elderly_65plus_2026":0.0,"estimated_elderly_share_pct":null,"elderly_exposure_score":null,"elderly_exposure_class":null,"estimate_confidence":"HIGH","display_name":"Block 33"},"geometry":{"type":"Polygon","coordinates":[[[103.842048,1.285831],[103.842011,1.28576],[103.842008,1.285706],[103.842092,1.285282],[103.842125,1.285234],[103.842197,1.285188],[103.842254,1.285181],[103.842326,1.285199],[103.842385,1.285246],[103.842547,1.285441],[103.842571,1.285512],[103.842561,1.285597],[103.842516,1.285668],[103.842257,1.285875],[103.842207,1.28589],[103.84214,1.285887],[103.84209,1.285864],[103.842048,1.285831]]]}},{"type":"Feature","properties":{"block_id":"5630","blk_no":"34","postal_code":"050034","region_id":"CR","region":"CENTRAL REGION","planning_area_id":"OT","planning_area":"OUTRAM","subzone_id":"OTSZ01","subzone":"PEARL'S HILL","lon":103.8422,"lat":1.2863,"property_match":"MATCHED","property_match_confidence":"HIGH","street":"UPP CROSS ST","residential":"Y","year_completed":1974,"building_age_2026":52,"max_floor_lvl":20,"total_dwelling_units":314,"small_flat_share_pct":98.09,"rental_share_pct":0.0,"footprint_area_m2":3155.9,"estimated_residents_2026":553.1,"estimated_elderly_65plus_2026":220.0,"estimated_elderly_share_pct":39.77,"elderly_exposure_score":99.5,"elderly_exposure_class":"VERY HIGH","estimate_confidence":"HIGH","display_name":"Block 34"},"geometry":{"type":"Polygon","coordinates":[[[103.842816,1.285546],[103.842833,1.285567],[103.842842,1.28556],[103.842859,1.285582],[103.842851,1.285589],[103.84287,1.285607],[103.842782,1.28568],[103.842813,1.285717],[103.842518,1.285961],[103.842527,1.285969],[103.842456,1.286054],[103.842446,1.286045],[103.842231,1.286412],[103.842243,1.286417],[103.842205,1.28652],[103.842192,1.286516],[103.84212,1.286905],[103.841962,1.286875],[103.841838,1.286958],[103.841793,1.286889],[103.841934,1.286795],[103.842006,1.286809],[103.842009,1.286795],[103.841968,1.286787],[103.841973,1.28676],[103.841993,1.286764],[103.841998,1.286735],[103.841978,1.286732],[103.841983,1.286705],[103.842024,1.286713],[103.842029,1.286686],[103.841988,1.286679],[103.841993,1.286652],[103.842013,1.286656],[103.842018,1.286627],[103.841999,1.286623],[103.842003,1.286597],[103.842044,1.286604],[103.842049,1.286578],[103.842008,1.28657],[103.842013,1.286544],[103.842033,1.286547],[103.842038,1.286518],[103.842019,1.286515],[103.842024,1.286488],[103.842064,1.286496],[103.842075,1.286436],[103.842056,1.286415],[103.842064,1.286394],[103.842092,1.286393],[103.8421,1.286378],[103.84207,1.28636],[103.842086,1.286332],[103.842117,1.286351],[103.842123,1.286339],[103.842088,1.286318],[103.842101,1.286295],[103.842119,1.286305],[103.842133,1.286279],[103.842116,1.286269],[103.84213,1.286246],[103.842166,1.286267],[103.842179,1.286244],[103.842143,1.286223],[103.842157,1.2862],[103.842174,1.28621],[103.842189,1.286184],[103.842172,1.286174],[103.842186,1.286151],[103.842221,1.286172],[103.842235,1.286149],[103.842199,1.286128],[103.842213,1.286105],[103.84223,1.286115],[103.842245,1.286089],[103.842228,1.286079],[103.842241,1.286056],[103.842277,1.286077],[103.84229,1.286054],[103.842255,1.286033],[103.842268,1.28601],[103.842286,1.28602],[103.8423,1.285995],[103.842283,1.285984],[103.842297,1.285961],[103.842333,1.285982],[103.842344,1.285962],[103.84231,1.285941],[103.842324,1.285916],[103.842359,1.285937],[103.842352,1.285904],[103.842366,1.285887],[103.842393,1.285895],[103.842407,1.285884],[103.842378,1.285847],[103.842401,1.285828],[103.842431,1.285864],[103.842441,1.285856],[103.842414,1.285824],[103.842435,1.285807],[103.842448,1.285822],[103.842471,1.285803],[103.842458,1.285788],[103.842479,1.285771],[103.842505,1.285803],[103.842526,1.285786],[103.842499,1.285754],[103.84252,1.285737],[103.842533,1.285752],[103.842555,1.285734],[103.842543,1.285718],[103.842563,1.285701],[103.84259,1.285733],[103.84261,1.285716],[103.842584,1.285684],[103.842605,1.285667],[103.842617,1.285682],[103.84264,1.285664],[103.842627,1.285648],[103.842648,1.285631],[103.842674,1.285663],[103.842685,1.285655],[103.842671,1.285638],[103.842695,1.285619],[103.842708,1.285635],[103.842816,1.285546]]]}},{"type":"Feature","properties":{"block_id":"6796","blk_no":"4","postal_code":"163004","region_id":"CR","region":"CENTRAL REGION","planning_area_id":"OT","planning_area":"OUTRAM","subzone_id":"OTSZ01","subzone":"PEARL'S HILL","lon":103.8387,"lat":1.2881,"property_match":"MATCHED","property_match_confidence":"HIGH","street":"JLN MINYAK","residential":"Y","year_completed":1964,"building_age_2026":62,"max_floor_lvl":12,"total_dwelling_units":156,"small_flat_share_pct":100.0,"rental_share_pct":100.0,"footprint_area_m2":739.8,"estimated_residents_2026":198.8,"estimated_elderly_65plus_2026":88.3,"estimated_elderly_share_pct":44.42,"elderly_exposure_score":81.6,"elderly_exposure_class":"VERY HIGH","estimate_confidence":"HIGH","display_name":"Block 4"},"geometry":{"type":"Polygon","coordinates":[[[103.838898,1.28824],[103.838856,1.288214],[103.838852,1.288224],[103.838799,1.288202],[103.838803,1.288193],[103.83878,1.288183],[103.838776,1.288193],[103.838723,1.288172],[103.838727,1.288162],[103.838703,1.288153],[103.838699,1.288162],[103.838619,1.28813],[103.838623,1.28812],[103.838599,1.288111],[103.838596,1.28812],[103.838543,1.288099],[103.838546,1.28809],[103.838524,1.288081],[103.838519,1.28809],[103.838466,1.288069],[103.83847,1.288059],[103.838445,1.288049],[103.838479,1.287962],[103.838682,1.288043],[103.838694,1.288013],[103.838722,1.288024],[103.838711,1.288054],[103.839041,1.288187],[103.83903,1.28823],[103.839002,1.28822],[103.83898,1.288272],[103.838952,1.288264],[103.838956,1.288253],[103.838898,1.28824]]]}},{"type":"Feature","properties":{"block_id":"2495","blk_no":"5","postal_code":"161005","region_id":"CR","region":"CENTRAL REGION","planning_area_id":"OT","planning_area":"OUTRAM","subzone_id":"OTSZ01","subzone":"PEARL'S HILL","lon":103.8381,"lat":1.2879,"property_match":"MATCHED","property_match_confidence":"HIGH","street":"JLN MINYAK","residential":"Y","year_completed":1964,"building_age_2026":62,"max_floor_lvl":12,"total_dwelling_units":143,"small_flat_share_pct":100.0,"rental_share_pct":100.0,"footprint_area_m2":741.0,"estimated_residents_2026":182.3,"estimated_elderly_65plus_2026":81.0,"estimated_elderly_share_pct":44.42,"elderly_exposure_score":76.2,"elderly_exposure_class":"HIGH","estimate_confidence":"HIGH","display_name":"Block 5"},"geometry":{"type":"Polygon","coordinates":[[[103.838374,1.287948],[103.838361,1.287991],[103.838333,1.287981],[103.838312,1.288034],[103.838263,1.288006],[103.838259,1.288015],[103.838206,1.287995],[103.83821,1.287985],[103.838187,1.287975],[103.838183,1.287985],[103.83813,1.287964],[103.838134,1.287954],[103.838111,1.287945],[103.838106,1.287954],[103.838054,1.287934],[103.838058,1.287924],[103.838034,1.287914],[103.83803,1.287924],[103.83795,1.287892],[103.837954,1.287882],[103.83793,1.287873],[103.837926,1.287883],[103.837874,1.287861],[103.837877,1.287851],[103.837854,1.287842],[103.83785,1.287852],[103.837797,1.287831],[103.8378,1.287821],[103.837776,1.287811],[103.83781,1.287724],[103.838012,1.287804],[103.838025,1.287775],[103.838059,1.287789],[103.838041,1.287816],[103.838374,1.287948]]]}},{"type":"Feature","properties":{"block_id":"5131","blk_no":"51","postal_code":"160051","region_id":"CR","region":"CENTRAL REGION","planning_area_id":"OT","planning_area":"OUTRAM","subzone_id":"OTSZ01","subzone":"PEARL'S HILL","lon":103.842,"lat":1.2874,"property_match":"MATCHED","property_match_confidence":"HIGH","street":"CHIN SWEE RD","residential":"Y","year_completed":1973,"building_age_2026":53,"max_floor_lvl":20,"total_dwelling_units":328,"small_flat_share_pct":100.0,"rental_share_pct":100.0,"footprint_area_m2":1870.7,"estimated_residents_2026":403.8,"estimated_elderly_65plus_2026":181.6,"estimated_elderly_share_pct":44.98,"elderly_exposure_score":98.9,"elderly_exposure_class":"VERY HIGH","estimate_confidence":"HIGH","display_name":"Block 51"},"geometry":{"type":"Polygon","coordinates":[[[103.841712,1.287528],[103.841695,1.287501],[103.842271,1.287118],[103.842334,1.287213],[103.842349,1.287203],[103.842384,1.287255],[103.842369,1.287265],[103.842386,1.287292],[103.84181,1.287676],[103.841771,1.287617],[103.841725,1.287648],[103.84171,1.287626],[103.841756,1.287595],[103.841741,1.287572],[103.841674,1.287617],[103.841645,1.287573],[103.841712,1.287528]]]}},{"type":"Feature","properties":{"block_id":"4626","blk_no":"52","postal_code":"160052","region_id":"CR","region":"CENTRAL REGION","planning_area_id":"OT","planning_area":"OUTRAM","subzone_id":"OTSZ01","subzone":"PEARL'S HILL","lon":103.8416,"lat":1.2872,"property_match":"MATCHED","property_match_confidence":"HIGH","street":"CHIN SWEE RD","residential":"Y","year_completed":1973,"building_age_2026":53,"max_floor_lvl":20,"total_dwelling_units":272,"small_flat_share_pct":100.0,"rental_share_pct":100.0,"footprint_area_m2":2465.4,"estimated_residents_2026":334.9,"estimated_elderly_65plus_2026":150.6,"estimated_elderly_share_pct":44.98,"elderly_exposure_score":97.4,"elderly_exposure_class":"VERY HIGH","estimate_confidence":"HIGH","display_name":"Block 52"},"geometry":{"type":"Polygon","coordinates":[[[103.841695,1.287501],[103.841651,1.287434],[103.841639,1.287442],[103.841303,1.286931],[103.841364,1.286889],[103.841348,1.286865],[103.841389,1.286838],[103.841397,1.286851],[103.841478,1.286797],[103.841501,1.286832],[103.841532,1.286811],[103.841547,1.286834],[103.841648,1.286769],[103.841715,1.286872],[103.841761,1.286841],[103.841838,1.286958],[103.841653,1.287082],[103.841858,1.287393],[103.841695,1.287501]]]}},{"type":"Feature","properties":{"block_id":"11056513","blk_no":"53","postal_code":"160053","region_id":"CR","region":"CENTRAL REGION","planning_area_id":"OT","planning_area":"OUTRAM","subzone_id":"OTSZ01","subzone":"PEARL'S HILL","lon":103.8414,"lat":1.2876,"property_match":"MATCHED","property_match_confidence":"HIGH","street":"CHIN SWEE RD","residential":"Y","year_completed":1973,"building_age_2026":53,"max_floor_lvl":26,"total_dwelling_units":96,"small_flat_share_pct":0.0,"rental_share_pct":0.0,"footprint_area_m2":799.5,"estimated_residents_2026":216.0,"estimated_elderly_65plus_2026":72.0,"estimated_elderly_share_pct":33.33,"elderly_exposure_score":67.3,"elderly_exposure_class":"HIGH","estimate_confidence":"HIGH","display_name":"Block 53"},"geometry":{"type":"Polygon","coordinates":[[[103.841412,1.287759],[103.841388,1.287722],[103.841375,1.28773],[103.841355,1.287745],[103.841378,1.287781],[103.841321,1.287819],[103.841274,1.287747],[103.841301,1.287729],[103.841289,1.28771],[103.841262,1.287728],[103.841216,1.287657],[103.841274,1.28762],[103.841296,1.287654],[103.84133,1.287633],[103.841307,1.287598],[103.841367,1.287558],[103.841395,1.287602],[103.841651,1.287434],[103.841712,1.287528],[103.841457,1.287697],[103.841471,1.287719],[103.841412,1.287759]]]}},{"type":"Feature","properties":{"block_id":"7369","blk_no":"54","postal_code":"160054","region_id":"CR","region":"CENTRAL REGION","planning_area_id":"OT","planning_area":"OUTRAM","subzone_id":"OTSZ01","subzone":"PEARL'S HILL","lon":103.8412,"lat":1.2874,"property_match":"MATCHED","property_match_confidence":"HIGH","street":"CHIN SWEE RD","residential":"N","year_completed":1973,"building_age_2026":53,"max_floor_lvl":7,"total_dwelling_units":0,"small_flat_share_pct":null,"rental_share_pct":null,"footprint_area_m2":1745.0,"estimated_residents_2026":0.0,"estimated_elderly_65plus_2026":0.0,"estimated_elderly_share_pct":null,"elderly_exposure_score":null,"elderly_exposure_class":null,"estimate_confidence":"HIGH","display_name":"Block 54"},"geometry":{"type":"Polygon","coordinates":[[[103.841215,1.287656],[103.84113,1.287714],[103.841099,1.287667],[103.841079,1.28768],[103.840911,1.287423],[103.841271,1.287182],[103.841256,1.28716],[103.841273,1.287154],[103.841294,1.287166],[103.84136,1.287266],[103.841327,1.287289],[103.841432,1.287449],[103.841186,1.287612],[103.841215,1.287656]]]}},{"type":"Feature","properties":{"block_id":"8547","blk_no":"6","postal_code":"162006","region_id":"CR","region":"CENTRAL REGION","planning_area_id":"OT","planning_area":"OUTRAM","subzone_id":"OTSZ01","subzone":"PEARL'S HILL","lon":103.8374,"lat":1.2876,"property_match":"MATCHED","property_match_confidence":"HIGH","street":"JLN MINYAK","residential":"Y","year_completed":1964,"building_age_2026":62,"max_floor_lvl":12,"total_dwelling_units":156,"small_flat_share_pct":100.0,"rental_share_pct":100.0,"footprint_area_m2":742.0,"estimated_residents_2026":198.8,"estimated_elderly_65plus_2026":88.3,"estimated_elderly_share_pct":44.42,"elderly_exposure_score":81.6,"elderly_exposure_class":"VERY HIGH","estimate_confidence":"HIGH","display_name":"Block 6"},"geometry":{"type":"Polygon","coordinates":[[[103.837386,1.287625],[103.837381,1.287635],[103.837301,1.287603],[103.837304,1.287593],[103.837281,1.287584],[103.837277,1.287593],[103.837224,1.287572],[103.837228,1.287562],[103.837205,1.287554],[103.837201,1.287562],[103.837148,1.287541],[103.837152,1.287531],[103.837126,1.287521],[103.837161,1.287434],[103.837364,1.287515],[103.837376,1.287485],[103.837409,1.287499],[103.837392,1.287526],[103.837723,1.28766],[103.837712,1.287702],[103.837683,1.287692],[103.837662,1.287744],[103.837615,1.287717],[103.83761,1.287726],[103.837558,1.287705],[103.837561,1.287696],[103.837539,1.287686],[103.837534,1.287696],[103.837481,1.287675],[103.837484,1.287665],[103.837462,1.287656],[103.837457,1.287665],[103.837405,1.287644],[103.837408,1.287637],[103.837386,1.287625]]]}},{"type":"Feature","properties":{"block_id":"10439655","blk_no":"8","postal_code":"162008","region_id":"CR","region":"CENTRAL REGION","planning_area_id":"OT","planning_area":"OUTRAM","subzone_id":"OTSZ01","subzone":"PEARL'S HILL","lon":103.8394,"lat":1.2874,"property_match":"MATCHED","property_match_confidence":"HIGH","street":"JLN KUKOH","residential":"Y","year_completed":1970,"building_age_2026":56,"max_floor_lvl":18,"total_dwelling_units":138,"small_flat_share_pct":98.55,"rental_share_pct":0.72,"footprint_area_m2":839.2,"estimated_residents_2026":187.7,"estimated_elderly_65plus_2026":81.3,"estimated_elderly_share_pct":43.31,"elderly_exposure_score":76.4,"elderly_exposure_class":"HIGH","estimate_confidence":"HIGH","display_name":"Block 8"},"geometry":{"type":"Polygon","coordinates":[[[103.839288,1.287632],[103.839261,1.287621],[103.839276,1.287583],[103.839246,1.287571],[103.839269,1.287513],[103.839299,1.287525],[103.839319,1.287476],[103.839289,1.287464],[103.839313,1.287405],[103.839342,1.287417],[103.839352,1.287394],[103.839322,1.287382],[103.839345,1.287323],[103.839375,1.287335],[103.839385,1.287312],[103.839355,1.2873],[103.839378,1.287242],[103.839408,1.287254],[103.839428,1.287204],[103.839398,1.287192],[103.839421,1.287135],[103.839451,1.287147],[103.839461,1.287121],[103.839558,1.28716],[103.839525,1.287243],[103.839576,1.287265],[103.839558,1.287311],[103.839504,1.287294],[103.839363,1.287648],[103.839293,1.287619],[103.839288,1.287632]]]}},{"type":"Feature","properties":{"block_id":"7371","blk_no":"8A","postal_code":"167008","region_id":"CR","region":"CENTRAL REGION","planning_area_id":"OT","planning_area":"OUTRAM","subzone_id":"OTSZ01","subzone":"PEARL'S HILL","lon":103.8389,"lat":1.2873,"property_match":"MATCHED","property_match_confidence":"HIGH","street":"JLN KUKOH","residential":"N","year_completed":1999,"building_age_2026":27,"max_floor_lvl":4,"total_dwelling_units":0,"small_flat_share_pct":null,"rental_share_pct":null,"footprint_area_m2":3946.6,"estimated_residents_2026":0.0,"estimated_elderly_65plus_2026":0.0,"estimated_elderly_share_pct":null,"elderly_exposure_score":null,"elderly_exposure_class":null,"estimate_confidence":"HIGH","display_name":"Block 8A"},"geometry":{"type":"Polygon","coordinates":[[[103.839131,1.287647],[103.838545,1.28741],[103.838721,1.286965],[103.839345,1.287217],[103.839182,1.287625],[103.839131,1.287647]]]}},{"type":"Feature","properties":{"block_id":"10452937","blk_no":"9","postal_code":"160009","region_id":"CR","region":"CENTRAL REGION","planning_area_id":"OT","planning_area":"OUTRAM","subzone_id":"OTSZ01","subzone":"PEARL'S HILL","lon":103.8388,"lat":1.2877,"property_match":"MATCHED","property_match_confidence":"HIGH","street":"JLN KUKOH","residential":"Y","year_completed":1970,"building_age_2026":56,"max_floor_lvl":12,"total_dwelling_units":110,"small_flat_share_pct":98.18,"rental_share_pct":0.91,"footprint_area_m2":1226.0,"estimated_residents_2026":164.6,"estimated_elderly_65plus_2026":69.0,"estimated_elderly_share_pct":41.94,"elderly_exposure_score":64.4,"elderly_exposure_class":"HIGH","estimate_confidence":"HIGH","display_name":"Block 9"},"geometry":{"type":"Polygon","coordinates":[[[103.838495,1.287593],[103.838501,1.287578],[103.838471,1.287566],[103.838492,1.287514],[103.838522,1.287526],[103.838535,1.287493],[103.83856,1.287503],[103.838572,1.287473],[103.83863,1.287497],[103.838618,1.287527],[103.838694,1.287558],[103.838706,1.287528],[103.838762,1.28755],[103.83875,1.28758],[103.838773,1.28759],[103.838785,1.28756],[103.838843,1.287583],[103.838831,1.287613],[103.838854,1.287623],[103.838866,1.287593],[103.838924,1.287616],[103.838912,1.287646],[103.838936,1.287656],[103.838948,1.287626],[103.839006,1.287649],[103.838993,1.287679],[103.839017,1.287689],[103.839029,1.287658],[103.839085,1.287681],[103.839073,1.287711],[103.839148,1.287742],[103.83916,1.287712],[103.839216,1.287734],[103.839203,1.287764],[103.839231,1.287776],[103.839191,1.287875],[103.839084,1.287832],[103.839075,1.287855],[103.839022,1.287834],[103.839031,1.28781],[103.838636,1.28765],[103.838621,1.287689],[103.838581,1.287672],[103.838596,1.287634],[103.838495,1.287593]]]}}]}