{"type":"FeatureCollection","features":[{"type":"Feature","properties":{"block_id":"6055","blk_no":"10","postal_code":"180010","region_id":"CR","region":"CENTRAL REGION","planning_area_id":"RC","planning_area":"ROCHOR","subzone_id":"RCSZ09","subzone":"BENCOOLEN","lon":103.8505,"lat":1.3037,"property_match":"MATCHED","property_match_confidence":"HIGH","street":"SELEGIE RD","residential":"Y","year_completed":1963,"building_age_2026":63,"max_floor_lvl":10,"total_dwelling_units":48,"small_flat_share_pct":100.0,"rental_share_pct":0.0,"footprint_area_m2":553.9,"estimated_residents_2026":86.2,"estimated_elderly_65plus_2026":29.5,"estimated_elderly_share_pct":34.29,"elderly_exposure_score":17.5,"elderly_exposure_class":"VERY LOW","estimate_confidence":"HIGH","display_name":"Block 10"},"geometry":{"type":"Polygon","coordinates":[[[103.850659,1.303658],[103.850663,1.30363],[103.850756,1.30363],[103.850755,1.303717],[103.850679,1.303717],[103.850679,1.303754],[103.850648,1.303759],[103.850648,1.303781],[103.850629,1.303781],[103.850629,1.303768],[103.850618,1.303764],[103.850568,1.303781],[103.850568,1.303759],[103.850549,1.303759],[103.850549,1.303781],[103.85053,1.303781],[103.850519,1.303764],[103.850469,1.303781],[103.850469,1.303759],[103.85045,1.303759],[103.85045,1.303781],[103.850431,1.303781],[103.850421,1.303765],[103.850371,1.303781],[103.850371,1.303759],[103.850326,1.303767],[103.850329,1.303676],[103.85036,1.303676],[103.85036,1.30366],[103.850659,1.303658]]]}},{"type":"Feature","properties":{"block_id":"603","blk_no":"8","postal_code":"180008","region_id":"CR","region":"CENTRAL REGION","planning_area_id":"RC","planning_area":"ROCHOR","subzone_id":"RCSZ09","subzone":"BENCOOLEN","lon":103.8506,"lat":1.3031,"property_match":"MATCHED","property_match_confidence":"HIGH","street":"SELEGIE RD","residential":"Y","year_completed":1963,"building_age_2026":63,"max_floor_lvl":10,"total_dwelling_units":108,"small_flat_share_pct":96.3,"rental_share_pct":0.93,"footprint_area_m2":1095.3,"estimated_residents_2026":178.3,"estimated_elderly_65plus_2026":61.1,"estimated_elderly_share_pct":34.25,"elderly_exposure_score":55.5,"elderly_exposure_class":"MODERATE","estimate_confidence":"HIGH","display_name":"Block 8"},"geometry":{"type":"Polygon","coordinates":[[[103.850883,1.302987],[103.850883,1.303],[103.850915,1.303004],[103.850925,1.303],[103.850925,1.302987],[103.850944,1.302987],[103.850945,1.303009],[103.850955,1.303008],[103.850955,1.303054],[103.850986,1.303054],[103.850986,1.303106],[103.850659,1.303106],[103.85066,1.303164],[103.850679,1.303164],[103.85068,1.303215],[103.85066,1.303215],[103.85066,1.303262],[103.850329,1.303262],[103.850329,1.303205],[103.850359,1.303205],[103.850359,1.303162],[103.850371,1.303162],[103.850371,1.303138],[103.85039,1.303138],[103.85039,1.303152],[103.8504,1.303156],[103.850432,1.303152],[103.850432,1.303138],[103.850451,1.303138],[103.850451,1.303152],[103.850489,1.303138],[103.850489,1.303152],[103.85052,1.303156],[103.85052,1.303138],[103.850538,1.303138],[103.850538,1.303152],[103.850558,1.303161],[103.850558,1.303138],[103.850546,1.303138],[103.850545,1.303092],[103.850529,1.303092],[103.850529,1.303082],[103.850507,1.303074],[103.850508,1.30303],[103.850556,1.30303],[103.850569,1.302987],[103.850619,1.303004],[103.85063,1.303],[103.850629,1.302987],[103.850648,1.302987],[103.850648,1.30301],[103.850668,1.30301],[103.850668,1.302987],[103.850687,1.302987],[103.850697,1.303004],[103.850718,1.303004],[103.850728,1.303],[103.850728,1.302987],[103.850747,1.302987],[103.850747,1.30301],[103.850766,1.30301],[103.850766,1.302987],[103.850785,1.302987],[103.850795,1.303004],[103.850816,1.303004],[103.850827,1.303],[103.850827,1.302987],[103.850845,1.302987],[103.850845,1.30301],[103.850864,1.30301],[103.850864,1.302987],[103.850883,1.302987]]]}},{"type":"Feature","properties":{"block_id":"8360","blk_no":"9","postal_code":"180009","region_id":"CR","region":"CENTRAL REGION","planning_area_id":"RC","planning_area":"ROCHOR","subzone_id":"RCSZ09","subzone":"BENCOOLEN","lon":103.8509,"lat":1.3034,"property_match":"MATCHED","property_match_confidence":"HIGH","street":"SELEGIE RD","residential":"Y","year_completed":1963,"building_age_2026":63,"max_floor_lvl":20,"total_dwelling_units":299,"small_flat_share_pct":87.63,"rental_share_pct":0.0,"footprint_area_m2":1493.4,"estimated_residents_2026":498.8,"estimated_elderly_65plus_2026":170.5,"estimated_elderly_share_pct":34.18,"elderly_exposure_score":98.4,"elderly_exposure_class":"VERY HIGH","estimate_confidence":"HIGH","display_name":"Block 9"},"geometry":{"type":"Polygon","coordinates":[[[103.850731,1.303517],[103.8507,1.303513],[103.850689,1.303517],[103.850689,1.30353],[103.85067,1.30353],[103.85067,1.303507],[103.850648,1.303507],[103.850648,1.30353],[103.850629,1.30353],[103.850629,1.303517],[103.850618,1.303513],[103.850597,1.303513],[103.850587,1.303517],[103.850587,1.30353],[103.850568,1.30353],[103.850568,1.303507],[103.850549,1.303507],[103.850549,1.30353],[103.85053,1.30353],[103.85053,1.303517],[103.850519,1.303513],[103.850498,1.303513],[103.850487,1.303517],[103.850487,1.30353],[103.850469,1.30353],[103.850469,1.303507],[103.85045,1.303507],[103.85045,1.30353],[103.850431,1.30353],[103.850431,1.303517],[103.85042,1.303513],[103.8504,1.303513],[103.850389,1.303517],[103.850389,1.30353],[103.85037,1.30353],[103.85037,1.303508],[103.850351,1.303508],[103.850351,1.30353],[103.850332,1.30353],[103.850322,1.303513],[103.850301,1.303513],[103.850291,1.303517],[103.850291,1.30353],[103.850273,1.30353],[103.850273,1.303512],[103.85026,1.303512],[103.850259,1.303476],[103.850232,1.303476],[103.850232,1.303425],[103.850261,1.303425],[103.850261,1.303409],[103.850423,1.303409],[103.850431,1.303375],[103.850465,1.303375],[103.850464,1.303404],[103.850473,1.303409],[103.850842,1.303409],[103.850836,1.303291],[103.850854,1.303291],[103.850854,1.303248],[103.851173,1.303248],[103.851173,1.30327],[103.851186,1.30327],[103.851187,1.303321],[103.851157,1.303321],[103.851144,1.30337],[103.851094,1.303353],[103.851084,1.30337],[103.851065,1.30337],[103.851065,1.303347],[103.851046,1.303347],[103.851046,1.30337],[103.850995,1.303353],[103.850985,1.303357],[103.850985,1.30337],[103.850966,1.30337],[103.850966,1.303347],[103.850944,1.303347],[103.850945,1.303404],[103.850958,1.303404],[103.850958,1.303508],[103.850947,1.303508],[103.850947,1.303531],[103.850928,1.303531],[103.850928,1.303517],[103.850918,1.303513],[103.850897,1.303513],[103.850886,1.303517],[103.850886,1.30353],[103.850867,1.30353],[103.850867,1.303507],[103.850849,1.303507],[103.850849,1.30353],[103.850829,1.30353],[103.850829,1.303517],[103.850819,1.303513],[103.850788,1.303517],[103.850788,1.30353],[103.850769,1.30353],[103.850769,1.303507],[103.85075,1.303507],[103.85075,1.30353],[103.850731,1.30353],[103.850731,1.303517]]]}},{"type":"Feature","properties":{"block_id":"5766","blk_no":"9A","postal_code":"181009","region_id":"CR","region":"CENTRAL REGION","planning_area_id":"RC","planning_area":"ROCHOR","subzone_id":"RCSZ09","subzone":"BENCOOLEN","lon":103.8506,"lat":1.3033,"property_match":"MATCHED","property_match_confidence":"HIGH","street":"SELEGIE RD","residential":"N","year_completed":2003,"building_age_2026":23,"max_floor_lvl":1,"total_dwelling_units":0,"small_flat_share_pct":null,"rental_share_pct":null,"footprint_area_m2":190.3,"estimated_residents_2026":0.0,"estimated_elderly_65plus_2026":0.0,"estimated_elderly_share_pct":null,"elderly_exposure_score":null,"elderly_exposure_class":null,"estimate_confidence":"HIGH","display_name":"Block 9A"},"geometry":{"type":"Polygon","coordinates":[[[103.8506,1.303284],[103.850601,1.30327],[103.85064,1.30327],[103.85064,1.303284],[103.850715,1.303284],[103.850714,1.303384],[103.85064,1.303383],[103.85064,1.303397],[103.850601,1.303398],[103.8506,1.303384],[103.85057,1.303384],[103.85057,1.303284],[103.8506,1.303284]]]}},{"type":"Feature","properties":{"block_id":"13012","blk_no":"661","postal_code":"210661","region_id":"CR","region":"CENTRAL REGION","planning_area_id":"RC","planning_area":"ROCHOR","subzone_id":"RCSZ01","subzone":"FARRER PARK","lon":103.8501,"lat":1.3068,"property_match":"MATCHED","property_match_confidence":"HIGH","street":"BUFFALO RD","residential":"Y","year_completed":1981,"building_age_2026":45,"max_floor_lvl":23,"total_dwelling_units":127,"small_flat_share_pct":0.0,"rental_share_pct":0.0,"footprint_area_m2":819.8,"estimated_residents_2026":319.5,"estimated_elderly_65plus_2026":88.1,"estimated_elderly_share_pct":27.56,"elderly_exposure_score":81.5,"elderly_exposure_class":"VERY HIGH","estimate_confidence":"HIGH","display_name":"Block 661"},"geometry":{"type":"Polygon","coordinates":[[[103.850391,1.306837],[103.850305,1.306894],[103.850279,1.306889],[103.850275,1.306907],[103.850139,1.306876],[103.850144,1.306818],[103.850158,1.306809],[103.850173,1.306814],[103.850177,1.306793],[103.849977,1.306742],[103.849937,1.306769],[103.849878,1.306672],[103.849904,1.306666],[103.849896,1.306653],[103.849907,1.306646],[103.849934,1.306642],[103.849928,1.306606],[103.850008,1.306593],[103.850013,1.306625],[103.850075,1.306637],[103.850071,1.306651],[103.850109,1.30666],[103.850116,1.30663],[103.850195,1.306649],[103.850188,1.306679],[103.85023,1.306687],[103.850211,1.306765],[103.850237,1.306771],[103.850256,1.306744],[103.850326,1.306761],[103.850318,1.306798],[103.850326,1.306812],[103.850352,1.306788],[103.850391,1.306837]]]}},{"type":"Feature","properties":{"block_id":"13019","blk_no":"662","postal_code":"210662","region_id":"CR","region":"CENTRAL REGION","planning_area_id":"RC","planning_area":"ROCHOR","subzone_id":"RCSZ01","subzone":"FARRER PARK","lon":103.8499,"lat":1.3063,"property_match":"MATCHED","property_match_confidence":"HIGH","street":"BUFFALO RD","residential":"Y","year_completed":1981,"building_age_2026":45,"max_floor_lvl":25,"total_dwelling_units":152,"small_flat_share_pct":7.89,"rental_share_pct":0.0,"footprint_area_m2":1437.3,"estimated_residents_2026":375.3,"estimated_elderly_65plus_2026":105.1,"estimated_elderly_share_pct":28.01,"elderly_exposure_score":89.7,"elderly_exposure_class":"VERY HIGH","estimate_confidence":"HIGH","display_name":"Block 662"},"geometry":{"type":"Polygon","coordinates":[[[103.850391,1.306127],[103.850462,1.306217],[103.85043,1.306243],[103.850442,1.306259],[103.850432,1.306272],[103.850378,1.306312],[103.850359,1.306288],[103.850235,1.306316],[103.850229,1.306346],[103.850163,1.306338],[103.850143,1.30633],[103.850151,1.30631],[103.850113,1.306302],[103.850126,1.306227],[103.85009,1.30622],[103.850086,1.30624],[103.85004,1.306234],[103.85002,1.306244],[103.850009,1.306231],[103.850025,1.306215],[103.850016,1.306203],[103.849998,1.306219],[103.850004,1.306227],[103.849991,1.306238],[103.850018,1.30628],[103.849955,1.306335],[103.849912,1.3063],[103.849904,1.306306],[103.849924,1.306338],[103.849915,1.306387],[103.849884,1.306408],[103.849889,1.306417],[103.849916,1.306399],[103.849939,1.306433],[103.849956,1.306423],[103.849999,1.306496],[103.849982,1.306507],[103.849988,1.306517],[103.849897,1.306575],[103.849787,1.306393],[103.849803,1.306286],[103.849948,1.306164],[103.849955,1.30617],[103.849957,1.306154],[103.849972,1.306155],[103.849995,1.306136],[103.849997,1.306121],[103.850015,1.306121],[103.850034,1.3061],[103.850054,1.306105],[103.850059,1.306084],[103.850193,1.306111],[103.850203,1.306124],[103.850195,1.306168],[103.850168,1.306174],[103.850164,1.306195],[103.850226,1.306207],[103.85032,1.306184],[103.850391,1.306127]]]}},{"type":"Feature","properties":{"block_id":"13015","blk_no":"663","postal_code":"210663","region_id":"CR","region":"CENTRAL REGION","planning_area_id":"RC","planning_area":"ROCHOR","subzone_id":"RCSZ01","subzone":"FARRER PARK","lon":103.8509,"lat":1.3056,"property_match":"MATCHED","property_match_confidence":"HIGH","street":"BUFFALO RD","residential":"Y","year_completed":1981,"building_age_2026":45,"max_floor_lvl":21,"total_dwelling_units":115,"small_flat_share_pct":0.0,"rental_share_pct":0.0,"footprint_area_m2":766.5,"estimated_residents_2026":289.4,"estimated_elderly_65plus_2026":79.8,"estimated_elderly_share_pct":27.56,"elderly_exposure_score":75.3,"elderly_exposure_class":"HIGH","estimate_confidence":"HIGH","display_name":"Block 663"},"geometry":{"type":"Polygon","coordinates":[[[103.851053,1.305548],[103.851111,1.305639],[103.851077,1.30566],[103.851089,1.30568],[103.851019,1.305725],[103.851001,1.305696],[103.850881,1.305718],[103.850875,1.305752],[103.850793,1.305735],[103.850798,1.305713],[103.850758,1.305707],[103.850773,1.305628],[103.850737,1.305621],[103.850733,1.305644],[103.850687,1.305633],[103.850666,1.305653],[103.850653,1.305638],[103.850671,1.305618],[103.850661,1.305606],[103.850643,1.305625],[103.850605,1.305579],[103.850607,1.305567],[103.850645,1.305543],[103.850646,1.30553],[103.85066,1.305532],[103.850681,1.305509],[103.8507,1.305515],[103.850705,1.305493],[103.850841,1.305521],[103.85085,1.305535],[103.850841,1.305577],[103.850815,1.305585],[103.850811,1.305605],[103.850875,1.305616],[103.850979,1.305596],[103.851053,1.305548]]]}},{"type":"Feature","properties":{"block_id":"13014","blk_no":"664","postal_code":"210664","region_id":"CR","region":"CENTRAL REGION","planning_area_id":"RC","planning_area":"ROCHOR","subzone_id":"RCSZ01","subzone":"FARRER PARK","lon":103.8512,"lat":1.3061,"property_match":"MATCHED","property_match_confidence":"HIGH","street":"BUFFALO RD","residential":"Y","year_completed":1981,"building_age_2026":45,"max_floor_lvl":4,"total_dwelling_units":16,"small_flat_share_pct":100.0,"rental_share_pct":0.0,"footprint_area_m2":985.6,"estimated_residents_2026":30.7,"estimated_elderly_65plus_2026":10.7,"estimated_elderly_share_pct":34.78,"elderly_exposure_score":4.4,"elderly_exposure_class":"VERY LOW","estimate_confidence":"HIGH","display_name":"Block 664"},"geometry":{"type":"Polygon","coordinates":[[[103.851175,1.305844],[103.851186,1.305846],[103.851296,1.306018],[103.851279,1.306127],[103.850944,1.306389],[103.850865,1.306289],[103.850941,1.306228],[103.850956,1.306245],[103.850963,1.306239],[103.850972,1.306227],[103.85096,1.306211],[103.850969,1.306198],[103.851026,1.306159],[103.851039,1.306174],[103.851077,1.306142],[103.851064,1.306126],[103.851076,1.306111],[103.851116,1.306081],[103.85113,1.306074],[103.851173,1.306109],[103.851182,1.306101],[103.851169,1.306088],[103.851171,1.306065],[103.851158,1.306056],[103.851166,1.306009],[103.851198,1.30599],[103.851192,1.305981],[103.851165,1.305999],[103.851144,1.305966],[103.851127,1.305976],[103.851087,1.305915],[103.851103,1.305904],[103.851096,1.305895],[103.851175,1.305844]]]}},{"type":"Feature","properties":{"block_id":"13013","blk_no":"665","postal_code":"210665","region_id":"CR","region":"CENTRAL REGION","planning_area_id":"RC","planning_area":"ROCHOR","subzone_id":"RCSZ01","subzone":"FARRER PARK","lon":103.8506,"lat":1.3062,"property_match":"MATCHED","property_match_confidence":"HIGH","street":"BUFFALO RD","residential":"N","year_completed":1980,"building_age_2026":46,"max_floor_lvl":2,"total_dwelling_units":0,"small_flat_share_pct":null,"rental_share_pct":null,"footprint_area_m2":8300.0,"estimated_residents_2026":0.0,"estimated_elderly_65plus_2026":0.0,"estimated_elderly_share_pct":null,"elderly_exposure_score":null,"elderly_exposure_class":null,"estimate_confidence":"HIGH","display_name":"Block 665"},"geometry":{"type":"Polygon","coordinates":[[[103.850096,1.306515],[103.85006,1.306508],[103.850073,1.30644],[103.850059,1.306437],[103.85007,1.306382],[103.850102,1.30638],[103.850126,1.306359],[103.850297,1.306395],[103.850484,1.306246],[103.850389,1.306125],[103.850379,1.306132],[103.850369,1.306121],[103.850356,1.306069],[103.850278,1.306053],[103.850283,1.306026],[103.850266,1.306022],[103.850244,1.30604],[103.85021,1.306026],[103.850224,1.305949],[103.850599,1.305627],[103.850626,1.30567],[103.850629,1.305638],[103.850661,1.305606],[103.850671,1.305618],[103.850653,1.305638],[103.850666,1.305653],[103.850687,1.305633],[103.850733,1.305644],[103.850737,1.305621],[103.850773,1.305628],[103.850758,1.305707],[103.850798,1.305713],[103.850793,1.305735],[103.850875,1.305752],[103.850881,1.305718],[103.850969,1.305702],[103.851001,1.305696],[103.851019,1.305725],[103.851089,1.30568],[103.851077,1.30566],[103.851111,1.305639],[103.851169,1.30573],[103.851129,1.305723],[103.851112,1.30573],[103.851181,1.30584],[103.851047,1.305926],[103.851125,1.306049],[103.851035,1.30612],[103.850971,1.306039],[103.850734,1.306229],[103.850894,1.306431],[103.850389,1.306835],[103.850352,1.306788],[103.850326,1.306812],[103.850318,1.306798],[103.850326,1.306761],[103.850256,1.306744],[103.850237,1.306771],[103.850211,1.306765],[103.85023,1.306687],[103.850188,1.306679],[103.850195,1.306649],[103.850116,1.30663],[103.850109,1.30666],[103.850071,1.306651],[103.850075,1.306637],[103.850013,1.306625],[103.850008,1.306593],[103.849928,1.306606],[103.849934,1.306642],[103.849922,1.30665],[103.849901,1.30665],[103.849879,1.306614],[103.849974,1.306556],[103.850085,1.30658],[103.850096,1.306515]]]}},{"type":"Feature","properties":{"block_id":"5963","blk_no":"668","postal_code":"210668","region_id":"CR","region":"CENTRAL REGION","planning_area_id":"RC","planning_area":"ROCHOR","subzone_id":"RCSZ01","subzone":"FARRER PARK","lon":103.8516,"lat":1.3077,"property_match":"MATCHED","property_match_confidence":"HIGH","street":"CHANDER RD","residential":"Y","year_completed":1984,"building_age_2026":42,"max_floor_lvl":13,"total_dwelling_units":120,"small_flat_share_pct":75.0,"rental_share_pct":0.83,"footprint_area_m2":1524.7,"estimated_residents_2026":248.0,"estimated_elderly_65plus_2026":80.8,"estimated_elderly_share_pct":32.59,"elderly_exposure_score":76.1,"elderly_exposure_class":"HIGH","estimate_confidence":"HIGH","display_name":"Block 668"},"geometry":{"type":"Polygon","coordinates":[[[103.851856,1.307964],[103.851771,1.307945],[103.851587,1.307667],[103.85141,1.307633],[103.85134,1.307678],[103.85119,1.307646],[103.851083,1.307478],[103.851098,1.307402],[103.851169,1.307355],[103.851216,1.307428],[103.851202,1.307494],[103.851214,1.307523],[103.851359,1.307554],[103.851431,1.307507],[103.851664,1.307556],[103.851873,1.307879],[103.851856,1.307964]]]}},{"type":"Feature","properties":{"block_id":"3838","blk_no":"671","postal_code":"210671","region_id":"CR","region":"CENTRAL REGION","planning_area_id":"RC","planning_area":"ROCHOR","subzone_id":"RCSZ01","subzone":"FARRER PARK","lon":103.8524,"lat":1.3089,"property_match":"MATCHED","property_match_confidence":"HIGH","street":"KLANG LANE","residential":"N","year_completed":2000,"building_age_2026":26,"max_floor_lvl":5,"total_dwelling_units":0,"small_flat_share_pct":null,"rental_share_pct":null,"footprint_area_m2":1548.4,"estimated_residents_2026":0.0,"estimated_elderly_65plus_2026":0.0,"estimated_elderly_share_pct":null,"elderly_exposure_score":null,"elderly_exposure_class":null,"estimate_confidence":"HIGH","display_name":"Block 671"},"geometry":{"type":"Polygon","coordinates":[[[103.852435,1.308647],[103.852735,1.309056],[103.852615,1.309148],[103.852559,1.309075],[103.852442,1.309166],[103.852247,1.30891],[103.852364,1.308819],[103.852308,1.308746],[103.852435,1.308647]]]}},{"type":"Feature","properties":{"block_id":"3799","blk_no":"671A","postal_code":"211671","region_id":"CR","region":"CENTRAL REGION","planning_area_id":"RC","planning_area":"ROCHOR","subzone_id":"RCSZ01","subzone":"FARRER PARK","lon":103.8521,"lat":1.3089,"property_match":"MATCHED","property_match_confidence":"HIGH","street":"KLANG LANE","residential":"Y","year_completed":2000,"building_age_2026":26,"max_floor_lvl":17,"total_dwelling_units":78,"small_flat_share_pct":0.0,"rental_share_pct":0.0,"footprint_area_m2":842.1,"estimated_residents_2026":199.9,"estimated_elderly_65plus_2026":51.3,"estimated_elderly_share_pct":25.67,"elderly_exposure_score":43.1,"elderly_exposure_class":"MODERATE","estimate_confidence":"HIGH","display_name":"Block 671A"},"geometry":{"type":"Polygon","coordinates":[[[103.852211,1.308614],[103.852237,1.308649],[103.852218,1.308675],[103.852226,1.308686],[103.852238,1.308677],[103.85226,1.308724],[103.852239,1.308741],[103.852262,1.308771],[103.852292,1.30875],[103.852306,1.308767],[103.852293,1.308777],[103.852308,1.308797],[103.852298,1.308776],[103.85232,1.308759],[103.85236,1.30881],[103.852301,1.30886],[103.852281,1.30884],[103.852262,1.308855],[103.852219,1.308813],[103.852196,1.308831],[103.852167,1.308794],[103.852191,1.308775],[103.852174,1.30875],[103.852108,1.308802],[103.852115,1.308818],[103.852105,1.308826],[103.852119,1.308844],[103.852106,1.308854],[103.852115,1.308865],[103.852131,1.30886],[103.852196,1.308945],[103.852187,1.308959],[103.852196,1.30897],[103.852208,1.30896],[103.852252,1.309019],[103.852241,1.309028],[103.85225,1.309039],[103.852282,1.309024],[103.852301,1.309049],[103.852274,1.309071],[103.852285,1.309086],[103.852241,1.30912],[103.852221,1.309094],[103.852202,1.309098],[103.852032,1.308883],[103.852032,1.30886],[103.852046,1.308849],[103.852033,1.308833],[103.851997,1.308844],[103.852,1.308825],[103.85198,1.308825],[103.851984,1.308799],[103.851967,1.308788],[103.852003,1.308751],[103.852028,1.308772],[103.85204,1.308763],[103.85203,1.308751],[103.852068,1.308721],[103.852078,1.308734],[103.852089,1.308725],[103.852084,1.308709],[103.852097,1.308692],[103.852112,1.308696],[103.852115,1.308677],[103.85213,1.308682],[103.852134,1.308674],[103.852142,1.308693],[103.852157,1.308681],[103.852145,1.308665],[103.852149,1.308641],[103.852165,1.308646],[103.852168,1.308624],[103.85219,1.30863],[103.852211,1.308614]]]}},{"type":"Feature","properties":{"block_id":"7570","blk_no":"671B","postal_code":"212671","region_id":"CR","region":"CENTRAL REGION","planning_area_id":"RC","planning_area":"ROCHOR","subzone_id":"RCSZ01","subzone":"FARRER PARK","lon":103.8526,"lat":1.3093,"property_match":"MATCHED","property_match_confidence":"HIGH","street":"KLANG LANE","residential":"Y","year_completed":2000,"building_age_2026":26,"max_floor_lvl":17,"total_dwelling_units":78,"small_flat_share_pct":0.0,"rental_share_pct":0.0,"footprint_area_m2":844.3,"estimated_residents_2026":199.9,"estimated_elderly_65plus_2026":51.3,"estimated_elderly_share_pct":25.67,"elderly_exposure_score":43.1,"elderly_exposure_class":"MODERATE","estimate_confidence":"HIGH","display_name":"Block 671B"},"geometry":{"type":"Polygon","coordinates":[[[103.852416,1.309383],[103.852252,1.309164],[103.852261,1.309146],[103.852241,1.30912],[103.852285,1.309086],[103.852297,1.309101],[103.852325,1.309079],[103.852344,1.309104],[103.852321,1.309132],[103.85233,1.309144],[103.852341,1.309135],[103.852386,1.309193],[103.852373,1.309202],[103.852382,1.309214],[103.852398,1.309208],[103.852463,1.309294],[103.852454,1.309308],[103.852462,1.309319],[103.852475,1.309309],[103.852489,1.309327],[103.852499,1.30932],[103.852513,1.309331],[103.85258,1.309273],[103.852559,1.309257],[103.852536,1.309275],[103.852507,1.309238],[103.85253,1.30922],[103.852529,1.309202],[103.852479,1.309138],[103.8525,1.309122],[103.852508,1.309131],[103.852567,1.309086],[103.852593,1.309119],[103.852569,1.309138],[103.852584,1.309157],[103.852596,1.309147],[103.852611,1.309166],[103.852581,1.309189],[103.852605,1.309219],[103.852626,1.309203],[103.852666,1.309236],[103.852654,1.309245],[103.852663,1.309257],[103.852693,1.309244],[103.85272,1.309279],[103.852699,1.309295],[103.852699,1.309318],[103.852677,1.309315],[103.852678,1.309332],[103.852654,1.309329],[103.852639,1.30931],[103.852623,1.309322],[103.852634,1.309356],[103.852615,1.309354],[103.852616,1.30937],[103.852596,1.309378],[103.852582,1.309368],[103.85257,1.309377],[103.85258,1.30939],[103.852542,1.309419],[103.852533,1.309407],[103.852522,1.309416],[103.852534,1.309446],[103.852499,1.309473],[103.852483,1.309452],[103.852461,1.309452],[103.852463,1.30943],[103.852446,1.30943],[103.852449,1.309407],[103.852465,1.309395],[103.852452,1.309379],[103.852438,1.30939],[103.852416,1.309383]]]}},{"type":"Feature","properties":{"block_id":"5082","blk_no":"672","postal_code":"210672","region_id":"CR","region":"CENTRAL REGION","planning_area_id":"RC","planning_area":"ROCHOR","subzone_id":"RCSZ01","subzone":"FARRER PARK","lon":103.8526,"lat":1.3088,"property_match":"MATCHED","property_match_confidence":"HIGH","street":"KLANG LANE","residential":"N","year_completed":2000,"building_age_2026":26,"max_floor_lvl":1,"total_dwelling_units":0,"small_flat_share_pct":null,"rental_share_pct":null,"footprint_area_m2":209.7,"estimated_residents_2026":0.0,"estimated_elderly_65plus_2026":0.0,"estimated_elderly_share_pct":null,"elderly_exposure_score":null,"elderly_exposure_class":null,"estimate_confidence":"HIGH","display_name":"Block 672"},"geometry":{"type":"Polygon","coordinates":[[[103.852689,1.308729],[103.852724,1.308785],[103.852703,1.308798],[103.852725,1.308832],[103.852644,1.308886],[103.852562,1.308758],[103.852643,1.308705],[103.852665,1.308739],[103.852689,1.308729]]]}},{"type":"Feature","properties":{"block_id":"9399","blk_no":"672A","postal_code":"211672","region_id":"CR","region":"CENTRAL REGION","planning_area_id":"RC","planning_area":"ROCHOR","subzone_id":"RCSZ01","subzone":"FARRER PARK","lon":103.8525,"lat":1.3085,"property_match":"MATCHED","property_match_confidence":"HIGH","street":"KLANG LANE","residential":"Y","year_completed":2000,"building_age_2026":26,"max_floor_lvl":19,"total_dwelling_units":93,"small_flat_share_pct":0.0,"rental_share_pct":0.0,"footprint_area_m2":1228.7,"estimated_residents_2026":257.2,"estimated_elderly_65plus_2026":46.9,"estimated_elderly_share_pct":18.23,"elderly_exposure_score":37.0,"elderly_exposure_class":"LOW","estimate_confidence":"HIGH","display_name":"Block 672A"},"geometry":{"type":"Polygon","coordinates":[[[103.852976,1.308577],[103.852952,1.308592],[103.852943,1.308577],[103.852897,1.308607],[103.852886,1.308603],[103.852878,1.30857],[103.852893,1.30856],[103.852885,1.308547],[103.852851,1.308569],[103.852823,1.308525],[103.852804,1.308524],[103.852729,1.308408],[103.852717,1.308416],[103.852758,1.308484],[103.852741,1.308495],[103.852769,1.308526],[103.852725,1.308555],[103.852677,1.308506],[103.852689,1.308488],[103.852681,1.308475],[103.852664,1.308486],[103.852647,1.30847],[103.852613,1.308493],[103.85263,1.308519],[103.852592,1.308544],[103.852638,1.308612],[103.852616,1.308626],[103.852636,1.308657],[103.852621,1.308675],[103.852608,1.308664],[103.852593,1.308681],[103.852569,1.308653],[103.852554,1.308655],[103.852537,1.308628],[103.85255,1.308608],[103.852542,1.308595],[103.852524,1.308607],[103.852474,1.308531],[103.852454,1.308544],[103.852439,1.308522],[103.852458,1.30851],[103.852449,1.308497],[103.852426,1.308502],[103.852409,1.308474],[103.85242,1.308467],[103.852401,1.308437],[103.852422,1.308424],[103.852427,1.308398],[103.852444,1.308404],[103.85246,1.30843],[103.852499,1.308405],[103.852482,1.308379],[103.852489,1.308357],[103.852509,1.308367],[103.85253,1.308353],[103.852549,1.308383],[103.85256,1.308375],[103.852578,1.308402],[103.852564,1.308422],[103.852573,1.308435],[103.852591,1.308423],[103.852605,1.308445],[103.852589,1.308456],[103.852602,1.308477],[103.852639,1.308448],[103.852614,1.308408],[103.85263,1.308397],[103.852622,1.308384],[103.8526,1.308388],[103.852583,1.30836],[103.852594,1.308353],[103.852575,1.308324],[103.852619,1.308296],[103.852641,1.308339],[103.85266,1.308327],[103.852705,1.308397],[103.852715,1.308386],[103.852684,1.308339],[103.852697,1.308331],[103.852663,1.308278],[103.852685,1.308263],[103.852695,1.30828],[103.852708,1.308272],[103.852705,1.30825],[103.852769,1.308222],[103.852799,1.308269],[103.852766,1.308291],[103.85276,1.308283],[103.852751,1.308289],[103.852777,1.308329],[103.852786,1.308323],[103.852781,1.308315],[103.852814,1.308293],[103.852845,1.30834],[103.852794,1.308387],[103.852775,1.308375],[103.852762,1.308384],[103.852773,1.3084],[103.852753,1.308414],[103.852766,1.308434],[103.852787,1.308421],[103.852797,1.308438],[103.85281,1.308429],[103.852807,1.308408],[103.852871,1.30838],[103.852901,1.308427],[103.852868,1.308449],[103.852862,1.30844],[103.852853,1.308447],[103.852865,1.308466],[103.852878,1.308457],[103.852918,1.30852],[103.852948,1.3085],[103.852983,1.308553],[103.852968,1.308563],[103.852976,1.308577]]]}},{"type":"Feature","properties":{"block_id":"9400","blk_no":"672B","postal_code":"212672","region_id":"CR","region":"CENTRAL REGION","planning_area_id":"RC","planning_area":"ROCHOR","subzone_id":"RCSZ01","subzone":"FARRER PARK","lon":103.8531,"lat":1.3089,"property_match":"MATCHED","property_match_confidence":"HIGH","street":"KLANG LANE","residential":"Y","year_completed":2000,"building_age_2026":26,"max_floor_lvl":19,"total_dwelling_units":93,"small_flat_share_pct":0.0,"rental_share_pct":0.0,"footprint_area_m2":1228.6,"estimated_residents_2026":257.2,"estimated_elderly_65plus_2026":46.9,"estimated_elderly_share_pct":18.23,"elderly_exposure_score":37.0,"elderly_exposure_class":"LOW","estimate_confidence":"HIGH","display_name":"Block 672B"},"geometry":{"type":"Polygon","coordinates":[[[103.852952,1.308592],[103.852976,1.308577],[103.852985,1.30859],[103.853,1.30858],[103.853034,1.308633],[103.853004,1.308653],[103.853045,1.308716],[103.853032,1.308724],[103.853044,1.308743],[103.853054,1.308737],[103.853049,1.308728],[103.853082,1.308707],[103.853112,1.308754],[103.853061,1.308801],[103.853043,1.308789],[103.85303,1.308798],[103.853041,1.308814],[103.85302,1.308828],[103.853033,1.308848],[103.853054,1.308835],[103.853065,1.308851],[103.853078,1.308843],[103.853075,1.308821],[103.853138,1.308794],[103.853169,1.308841],[103.853135,1.308862],[103.85313,1.308854],[103.85312,1.308861],[103.853146,1.308901],[103.853156,1.308894],[103.853151,1.308886],[103.853184,1.308864],[103.853214,1.308911],[103.853163,1.308958],[103.853145,1.308947],[103.853132,1.308955],[103.853143,1.308972],[103.853121,1.308986],[103.853087,1.308933],[103.853074,1.308942],[103.853044,1.308895],[103.853029,1.308898],[103.853075,1.308969],[103.853056,1.308981],[103.853087,1.309019],[103.853043,1.309048],[103.853025,1.309019],[103.853014,1.309026],[103.852996,1.308999],[103.853008,1.308981],[103.852999,1.308968],[103.852983,1.308979],[103.852957,1.308939],[103.852915,1.308961],[103.852929,1.308982],[103.852946,1.308971],[103.85296,1.308993],[103.852942,1.309005],[103.85295,1.309018],[103.852973,1.309014],[103.852991,1.309041],[103.85298,1.309049],[103.852999,1.309078],[103.852978,1.309092],[103.852979,1.309114],[103.852956,1.309111],[103.852939,1.309086],[103.852901,1.309111],[103.852917,1.309137],[103.852916,1.309155],[103.852891,1.309149],[103.85287,1.309162],[103.852851,1.309133],[103.852839,1.30914],[103.852822,1.309113],[103.852835,1.309094],[103.852827,1.309081],[103.852809,1.309093],[103.852794,1.309071],[103.852815,1.309057],[103.852765,1.308981],[103.852783,1.308969],[103.852775,1.308956],[103.852752,1.30896],[103.852734,1.308933],[103.852742,1.30892],[103.852726,1.308887],[103.852748,1.30888],[103.852743,1.308863],[103.852765,1.308857],[103.852785,1.308888],[103.852807,1.308873],[103.85285,1.308943],[103.852888,1.308919],[103.852905,1.308945],[103.85294,1.308923],[103.852932,1.308901],[103.852949,1.30889],[103.85294,1.308877],[103.852919,1.30888],[103.852894,1.308817],[103.852938,1.308788],[103.852956,1.308826],[103.852973,1.308815],[103.853018,1.30888],[103.853029,1.308873],[103.852954,1.308757],[103.852961,1.308738],[103.852932,1.308695],[103.852966,1.308673],[103.852957,1.30866],[103.852942,1.30867],[103.852915,1.308648],[103.852917,1.308637],[103.852962,1.308607],[103.852952,1.308592]]]}},{"type":"Feature","properties":{"block_id":"6277","blk_no":"632","postal_code":"200632","region_id":"CR","region":"CENTRAL REGION","planning_area_id":"RC","planning_area":"ROCHOR","subzone_id":"RCSZ02","subzone":"LITTLE INDIA","lon":103.8545,"lat":1.3061,"property_match":"MATCHED","property_match_confidence":"HIGH","street":"VEERASAMY RD","residential":"Y","year_completed":1984,"building_age_2026":42,"max_floor_lvl":25,"total_dwelling_units":96,"small_flat_share_pct":9.38,"rental_share_pct":0.0,"footprint_area_m2":638.8,"estimated_residents_2026":281.6,"estimated_elderly_65plus_2026":86.5,"estimated_elderly_share_pct":30.7,"elderly_exposure_score":80.2,"elderly_exposure_class":"VERY HIGH","estimate_confidence":"HIGH","display_name":"Block 632"},"geometry":{"type":"Polygon","coordinates":[[[103.854552,1.305907],[103.854609,1.306003],[103.854561,1.306034],[103.854563,1.306044],[103.854576,1.306065],[103.854595,1.306051],[103.854585,1.306036],[103.854627,1.30601],[103.85465,1.306047],[103.854637,1.306055],[103.854673,1.306115],[103.854594,1.306165],[103.854549,1.306095],[103.854503,1.306126],[103.854512,1.306141],[103.854526,1.306133],[103.854553,1.306173],[103.854516,1.306198],[103.854506,1.306183],[103.854441,1.306229],[103.854388,1.306148],[103.854458,1.306101],[103.854447,1.306077],[103.854435,1.30606],[103.854415,1.306073],[103.854424,1.306088],[103.854384,1.306114],[103.854359,1.306073],[103.854372,1.306064],[103.854334,1.306005],[103.854412,1.305953],[103.854461,1.306028],[103.854467,1.306025],[103.854516,1.305997],[103.854504,1.305976],[103.854491,1.305984],[103.854466,1.305944],[103.854503,1.30592],[103.854512,1.305934],[103.854552,1.305907]]]}},{"type":"Feature","properties":{"block_id":"8329","blk_no":"633","postal_code":"200633","region_id":"CR","region":"CENTRAL REGION","planning_area_id":"RC","planning_area":"ROCHOR","subzone_id":"RCSZ02","subzone":"LITTLE INDIA","lon":103.8549,"lat":1.3058,"property_match":"MATCHED","property_match_confidence":"HIGH","street":"VEERASAMY RD","residential":"Y","year_completed":1984,"building_age_2026":42,"max_floor_lvl":10,"total_dwelling_units":140,"small_flat_share_pct":84.29,"rental_share_pct":0.0,"footprint_area_m2":1551.6,"estimated_residents_2026":326.5,"estimated_elderly_65plus_2026":97.4,"estimated_elderly_share_pct":29.83,"elderly_exposure_score":86.4,"elderly_exposure_class":"VERY HIGH","estimate_confidence":"HIGH","display_name":"Block 633"},"geometry":{"type":"Polygon","coordinates":[[[103.854609,1.306003],[103.854541,1.305888],[103.854588,1.305857],[103.854593,1.305864],[103.854618,1.305847],[103.854613,1.30584],[103.854709,1.305778],[103.854714,1.305785],[103.854738,1.30577],[103.854732,1.305763],[103.854802,1.305728],[103.854797,1.30572],[103.854846,1.305689],[103.854851,1.305695],[103.855038,1.305565],[103.855042,1.305573],[103.855138,1.305511],[103.855229,1.305667],[103.855237,1.305663],[103.855299,1.305756],[103.855292,1.305761],[103.855346,1.30583],[103.855235,1.305903],[103.855097,1.305687],[103.854609,1.306003]]]}},{"type":"Feature","properties":{"block_id":"5833","blk_no":"634","postal_code":"200634","region_id":"CR","region":"CENTRAL REGION","planning_area_id":"RC","planning_area":"ROCHOR","subzone_id":"RCSZ02","subzone":"LITTLE INDIA","lon":103.8552,"lat":1.306,"property_match":"MATCHED","property_match_confidence":"HIGH","street":"VEERASAMY RD","residential":"Y","year_completed":1984,"building_age_2026":42,"max_floor_lvl":25,"total_dwelling_units":96,"small_flat_share_pct":12.5,"rental_share_pct":0.0,"footprint_area_m2":1196.3,"estimated_residents_2026":279.5,"estimated_elderly_65plus_2026":85.6,"estimated_elderly_share_pct":30.63,"elderly_exposure_score":79.4,"elderly_exposure_class":"HIGH","estimate_confidence":"HIGH","display_name":"Block 634"},"geometry":{"type":"Polygon","coordinates":[[[103.85534,1.305834],[103.855419,1.305942],[103.855144,1.30613],[103.855133,1.306111],[103.855092,1.306138],[103.8551,1.306152],[103.85494,1.306252],[103.854915,1.306213],[103.854901,1.306224],[103.854877,1.306186],[103.854918,1.306159],[103.854928,1.306174],[103.854947,1.306162],[103.854935,1.306143],[103.854918,1.306124],[103.85485,1.306166],[103.854799,1.306087],[103.854862,1.306045],[103.854854,1.306034],[103.854895,1.306008],[103.854921,1.306048],[103.854907,1.306057],[103.854918,1.306073],[103.854963,1.306044],[103.854912,1.305963],[103.854991,1.305912],[103.855031,1.305975],[103.855043,1.305969],[103.855066,1.306004],[103.855027,1.30603],[103.855019,1.306016],[103.854999,1.306028],[103.855018,1.306053],[103.85534,1.305834]]]}},{"type":"Feature","properties":{"block_id":"9213","blk_no":"635","postal_code":"200635","region_id":"CR","region":"CENTRAL REGION","planning_area_id":"RC","planning_area":"ROCHOR","subzone_id":"RCSZ02","subzone":"LITTLE INDIA","lon":103.8553,"lat":1.3065,"property_match":"MATCHED","property_match_confidence":"HIGH","street":"VEERASAMY RD","residential":"Y","year_completed":1984,"building_age_2026":42,"max_floor_lvl":13,"total_dwelling_units":123,"small_flat_share_pct":80.49,"rental_share_pct":0.0,"footprint_area_m2":1901.0,"estimated_residents_2026":288.2,"estimated_elderly_65plus_2026":87.1,"estimated_elderly_share_pct":30.23,"elderly_exposure_score":80.8,"elderly_exposure_class":"VERY HIGH","estimate_confidence":"HIGH","display_name":"Block 635"},"geometry":{"type":"Polygon","coordinates":[[[103.855161,1.306596],[103.85494,1.306252],[103.855046,1.306186],[103.855137,1.30631],[103.855128,1.306316],[103.855212,1.30643],[103.855205,1.306435],[103.85522,1.30646],[103.855228,1.306455],[103.855264,1.306529],[103.855505,1.306373],[103.855577,1.306485],[103.855505,1.306533],[103.8555,1.306525],[103.855475,1.306541],[103.85548,1.306549],[103.855362,1.306626],[103.855357,1.306618],[103.855332,1.306634],[103.855337,1.306642],[103.855289,1.306674],[103.855284,1.306666],[103.855231,1.3067],[103.855236,1.306708],[103.855189,1.306739],[103.855184,1.306731],[103.85516,1.306747],[103.855165,1.306754],[103.855069,1.306817],[103.855064,1.30681],[103.855041,1.306825],[103.855046,1.306833],[103.854932,1.306907],[103.854909,1.306871],[103.854925,1.30686],[103.854914,1.306844],[103.854899,1.306854],[103.85486,1.306795],[103.855161,1.306596]]]}},{"type":"Feature","properties":{"block_id":"9212","blk_no":"636","postal_code":"200636","region_id":"CR","region":"CENTRAL REGION","planning_area_id":"RC","planning_area":"ROCHOR","subzone_id":"RCSZ02","subzone":"LITTLE INDIA","lon":103.8554,"lat":1.3063,"property_match":"MATCHED","property_match_confidence":"HIGH","street":"VEERASAMY RD","residential":"Y","year_completed":1984,"building_age_2026":42,"max_floor_lvl":8,"total_dwelling_units":21,"small_flat_share_pct":100.0,"rental_share_pct":0.0,"footprint_area_m2":371.6,"estimated_residents_2026":46.3,"estimated_elderly_65plus_2026":13.7,"estimated_elderly_share_pct":29.63,"elderly_exposure_score":6.3,"elderly_exposure_class":"VERY LOW","estimate_confidence":"HIGH","display_name":"Block 636"},"geometry":{"type":"Polygon","coordinates":[[[103.855376,1.306172],[103.855505,1.306373],[103.855403,1.306439],[103.855383,1.306408],[103.855376,1.306412],[103.855316,1.306317],[103.855324,1.306312],[103.855269,1.306242],[103.855376,1.306172]]]}},{"type":"Feature","properties":{"block_id":"4255","blk_no":"637","postal_code":"200637","region_id":"CR","region":"CENTRAL REGION","planning_area_id":"RC","planning_area":"ROCHOR","subzone_id":"RCSZ02","subzone":"LITTLE INDIA","lon":103.8555,"lat":1.307,"property_match":"MATCHED","property_match_confidence":"HIGH","street":"VEERASAMY RD","residential":"Y","year_completed":1984,"building_age_2026":42,"max_floor_lvl":13,"total_dwelling_units":107,"small_flat_share_pct":57.94,"rental_share_pct":0.0,"footprint_area_m2":1757.9,"estimated_residents_2026":268.4,"estimated_elderly_65plus_2026":82.6,"estimated_elderly_share_pct":30.76,"elderly_exposure_score":77.4,"elderly_exposure_class":"HIGH","estimate_confidence":"HIGH","display_name":"Block 637"},"geometry":{"type":"Polygon","coordinates":[[[103.855752,1.306977],[103.855669,1.306862],[103.855675,1.306857],[103.85565,1.30682],[103.855606,1.306848],[103.855587,1.306838],[103.855589,1.306824],[103.855628,1.306799],[103.855612,1.306774],[103.855723,1.306702],[103.8559,1.306978],[103.855862,1.307003],[103.855889,1.307043],[103.855926,1.307018],[103.855981,1.307104],[103.855638,1.307328],[103.855582,1.307241],[103.855617,1.307218],[103.855608,1.307201],[103.855577,1.30719],[103.85556,1.307202],[103.855376,1.306928],[103.855491,1.306854],[103.855653,1.307108],[103.855681,1.3071],[103.855687,1.307119],[103.855669,1.307131],[103.855677,1.307144],[103.855806,1.307061],[103.855746,1.306983],[103.855752,1.306977]]]}},{"type":"Feature","properties":{"block_id":"6768","blk_no":"638","postal_code":"200638","region_id":"CR","region":"CENTRAL REGION","planning_area_id":"RC","planning_area":"ROCHOR","subzone_id":"RCSZ02","subzone":"LITTLE INDIA","lon":103.8553,"lat":1.3072,"property_match":"MATCHED","property_match_confidence":"HIGH","street":"VEERASAMY RD","residential":"N","year_completed":1985,"building_age_2026":41,"max_floor_lvl":4,"total_dwelling_units":0,"small_flat_share_pct":null,"rental_share_pct":null,"footprint_area_m2":1884.7,"estimated_residents_2026":0.0,"estimated_elderly_65plus_2026":0.0,"estimated_elderly_share_pct":null,"elderly_exposure_score":null,"elderly_exposure_class":null,"estimate_confidence":"HIGH","display_name":"Block 638"},"geometry":{"type":"Polygon","coordinates":[[[103.855351,1.306945],[103.85561,1.307346],[103.855341,1.307522],[103.855082,1.307121],[103.855351,1.306945]]]}},{"type":"Feature","properties":{"block_id":"6672","blk_no":"639","postal_code":"200639","region_id":"CR","region":"CENTRAL REGION","planning_area_id":"RC","planning_area":"ROCHOR","subzone_id":"RCSZ02","subzone":"LITTLE INDIA","lon":103.8552,"lat":1.3078,"property_match":"MATCHED","property_match_confidence":"HIGH","street":"ROWELL RD","residential":"Y","year_completed":1982,"building_age_2026":44,"max_floor_lvl":25,"total_dwelling_units":96,"small_flat_share_pct":9.38,"rental_share_pct":0.0,"footprint_area_m2":533.8,"estimated_residents_2026":281.6,"estimated_elderly_65plus_2026":86.5,"estimated_elderly_share_pct":30.7,"elderly_exposure_score":80.2,"elderly_exposure_class":"VERY HIGH","estimate_confidence":"HIGH","display_name":"Block 639"},"geometry":{"type":"Polygon","coordinates":[[[103.85522,1.307594],[103.855247,1.307636],[103.855261,1.307626],[103.855285,1.307663],[103.855246,1.30769],[103.855236,1.307676],[103.855218,1.307688],[103.855256,1.30774],[103.855312,1.307702],[103.855365,1.307784],[103.855296,1.307845],[103.855271,1.307807],[103.855286,1.307797],[103.855272,1.307776],[103.855233,1.307806],[103.855264,1.30785],[103.855186,1.307903],[103.85516,1.307863],[103.855145,1.307873],[103.855121,1.307837],[103.855161,1.30781],[103.85517,1.307823],[103.855184,1.307814],[103.855154,1.307769],[103.855099,1.307806],[103.855045,1.307725],[103.855086,1.307697],[103.855078,1.307684],[103.855115,1.307659],[103.855143,1.3077],[103.85513,1.307708],[103.855143,1.307728],[103.85516,1.307715],[103.85518,1.307698],[103.855143,1.307644],[103.85522,1.307594]]]}},{"type":"Feature","properties":{"block_id":"3815","blk_no":"640","postal_code":"200640","region_id":"CR","region":"CENTRAL REGION","planning_area_id":"RC","planning_area":"ROCHOR","subzone_id":"RCSZ02","subzone":"LITTLE INDIA","lon":103.8547,"lat":1.3077,"property_match":"MATCHED","property_match_confidence":"HIGH","street":"ROWELL RD","residential":"Y","year_completed":1982,"building_age_2026":44,"max_floor_lvl":10,"total_dwelling_units":167,"small_flat_share_pct":88.02,"rental_share_pct":0.0,"footprint_area_m2":2376.4,"estimated_residents_2026":383.5,"estimated_elderly_65plus_2026":114.6,"estimated_elderly_share_pct":29.89,"elderly_exposure_score":92.2,"elderly_exposure_class":"VERY HIGH","estimate_confidence":"HIGH","display_name":"Block 640"},"geometry":{"type":"Polygon","coordinates":[[[103.855075,1.308061],[103.854975,1.308129],[103.854944,1.308083],[103.854952,1.308077],[103.854934,1.308051],[103.854926,1.308056],[103.854862,1.307964],[103.854869,1.307959],[103.854854,1.307936],[103.854847,1.307941],[103.854809,1.307869],[103.854801,1.307874],[103.854769,1.307829],[103.854777,1.307824],[103.854759,1.307798],[103.854752,1.307803],[103.854691,1.307712],[103.854698,1.307707],[103.854674,1.307685],[103.854539,1.307477],[103.854694,1.307385],[103.854688,1.307376],[103.854781,1.307313],[103.854788,1.307323],[103.854811,1.307308],[103.854805,1.307298],[103.854854,1.307265],[103.85486,1.307274],[103.854893,1.307253],[103.854886,1.307243],[103.854964,1.307191],[103.855034,1.307301],[103.855046,1.307292],[103.855239,1.307581],[103.855143,1.307644],[103.855134,1.307631],[103.855112,1.307627],[103.854934,1.307362],[103.854713,1.307513],[103.855065,1.308026],[103.855075,1.308061]]]}},{"type":"Feature","properties":{"block_id":"4450","blk_no":"641","postal_code":"200641","region_id":"CR","region":"CENTRAL REGION","planning_area_id":"RC","planning_area":"ROCHOR","subzone_id":"RCSZ02","subzone":"LITTLE INDIA","lon":103.8552,"lat":1.3082,"property_match":"MATCHED","property_match_confidence":"HIGH","street":"ROWELL RD","residential":"Y","year_completed":1982,"building_age_2026":44,"max_floor_lvl":25,"total_dwelling_units":96,"small_flat_share_pct":9.38,"rental_share_pct":0.0,"footprint_area_m2":540.6,"estimated_residents_2026":281.6,"estimated_elderly_65plus_2026":86.5,"estimated_elderly_share_pct":30.7,"elderly_exposure_score":80.2,"elderly_exposure_class":"VERY HIGH","estimate_confidence":"HIGH","display_name":"Block 641"},"geometry":{"type":"Polygon","coordinates":[[[103.855075,1.308061],[103.855112,1.308116],[103.855154,1.30809],[103.855141,1.30807],[103.855126,1.30808],[103.855098,1.30804],[103.855136,1.308015],[103.855144,1.308028],[103.855185,1.308002],[103.855238,1.308082],[103.855184,1.308117],[103.855214,1.308163],[103.855229,1.308153],[103.855221,1.308138],[103.855259,1.308112],[103.855284,1.308149],[103.85527,1.308159],[103.855297,1.3082],[103.855218,1.308252],[103.855188,1.308206],[103.855164,1.308219],[103.855145,1.308232],[103.85516,1.308252],[103.855174,1.308243],[103.855201,1.308282],[103.855165,1.308308],[103.855155,1.308294],[103.855114,1.308322],[103.855062,1.308244],[103.855119,1.308206],[103.855099,1.308167],[103.855086,1.308146],[103.855065,1.30816],[103.855074,1.308175],[103.855034,1.308202],[103.855008,1.308164],[103.855021,1.308156],[103.854994,1.308116],[103.855075,1.308061]]]}},{"type":"Feature","properties":{"block_id":"2912","blk_no":"642","postal_code":"200642","region_id":"CR","region":"CENTRAL REGION","planning_area_id":"RC","planning_area":"ROCHOR","subzone_id":"RCSZ02","subzone":"LITTLE INDIA","lon":103.8565,"lat":1.3078,"property_match":"MATCHED","property_match_confidence":"HIGH","street":"ROWELL RD","residential":"Y","year_completed":1982,"building_age_2026":44,"max_floor_lvl":25,"total_dwelling_units":88,"small_flat_share_pct":0.0,"rental_share_pct":0.0,"footprint_area_m2":639.9,"estimated_residents_2026":264.7,"estimated_elderly_65plus_2026":81.5,"estimated_elderly_share_pct":30.8,"elderly_exposure_score":76.6,"elderly_exposure_class":"HIGH","estimate_confidence":"HIGH","display_name":"Block 642"},"geometry":{"type":"Polygon","coordinates":[[[103.856536,1.307895],[103.856545,1.307907],[103.856507,1.307932],[103.856499,1.307918],[103.856458,1.307945],[103.856406,1.307866],[103.856457,1.307831],[103.856431,1.30779],[103.856379,1.307825],[103.856355,1.307787],[103.856368,1.307778],[103.856341,1.307737],[103.856481,1.307638],[103.85649,1.307653],[103.856531,1.307626],[103.856628,1.307775],[103.856615,1.307783],[103.85664,1.307824],[103.856536,1.307895]]]}},{"type":"Feature","properties":{"block_id":"3262","blk_no":"25","postal_code":"200025","region_id":"CR","region":"CENTRAL REGION","planning_area_id":"RC","planning_area":"ROCHOR","subzone_id":"RCSZ03","subzone":"SUNGEI ROAD","lon":103.8582,"lat":1.3062,"property_match":"MATCHED","property_match_confidence":"HIGH","street":"JLN BERSEH","residential":"Y","year_completed":1978,"building_age_2026":48,"max_floor_lvl":16,"total_dwelling_units":298,"small_flat_share_pct":100.0,"rental_share_pct":100.0,"footprint_area_m2":1486.7,"estimated_residents_2026":645.7,"estimated_elderly_65plus_2026":129.1,"estimated_elderly_share_pct":20.0,"elderly_exposure_score":94.9,"elderly_exposure_class":"VERY HIGH","estimate_confidence":"HIGH","display_name":"Block 25"},"geometry":{"type":"Polygon","coordinates":[[[103.85784,1.306492],[103.857849,1.306499],[103.857971,1.306383],[103.857958,1.306368],[103.857951,1.306377],[103.857965,1.306327],[103.857959,1.306289],[103.857984,1.306267],[103.858001,1.306252],[103.85805,1.306313],[103.858243,1.306134],[103.858191,1.306078],[103.858252,1.306022],[103.858304,1.306078],[103.858461,1.305932],[103.858453,1.305924],[103.85849,1.305887],[103.858522,1.305871],[103.858578,1.305886],[103.858647,1.305969],[103.858592,1.30602],[103.85855,1.305974],[103.858528,1.305995],[103.85854,1.306008],[103.858491,1.306054],[103.858479,1.30604],[103.858468,1.30605],[103.858481,1.306063],[103.858432,1.306109],[103.858419,1.306095],[103.858409,1.306105],[103.858421,1.306119],[103.858372,1.306164],[103.85836,1.30615],[103.858329,1.306178],[103.858342,1.306192],[103.858293,1.306238],[103.85828,1.306224],[103.85827,1.306233],[103.858282,1.306247],[103.858233,1.306293],[103.858221,1.306279],[103.85821,1.306289],[103.858223,1.306302],[103.858174,1.306348],[103.858161,1.306334],[103.858151,1.306344],[103.858163,1.306357],[103.858114,1.306403],[103.858102,1.306389],[103.858071,1.306417],[103.858084,1.306431],[103.858035,1.306477],[103.858022,1.306463],[103.858012,1.306472],[103.858024,1.306486],[103.857975,1.306532],[103.857963,1.306518],[103.857952,1.306528],[103.857965,1.306541],[103.857916,1.306587],[103.857901,1.306572],[103.857888,1.306588],[103.857819,1.306512],[103.85784,1.306492]]]}},{"type":"Feature","properties":{"block_id":"3740","blk_no":"26","postal_code":"200026","region_id":"CR","region":"CENTRAL REGION","planning_area_id":"RC","planning_area":"ROCHOR","subzone_id":"RCSZ03","subzone":"SUNGEI ROAD","lon":103.8578,"lat":1.3062,"property_match":"MATCHED","property_match_confidence":"HIGH","street":"JLN BERSEH","residential":"Y","year_completed":1978,"building_age_2026":48,"max_floor_lvl":16,"total_dwelling_units":120,"small_flat_share_pct":0.0,"rental_share_pct":0.0,"footprint_area_m2":1066.4,"estimated_residents_2026":260.0,"estimated_elderly_65plus_2026":90.0,"estimated_elderly_share_pct":34.62,"elderly_exposure_score":82.6,"elderly_exposure_class":"VERY HIGH","estimate_confidence":"HIGH","display_name":"Block 26"},"geometry":{"type":"Polygon","coordinates":[[[103.857561,1.306236],[103.857593,1.306267],[103.857649,1.306215],[103.857621,1.306181],[103.857639,1.306164],[103.857654,1.30618],[103.857677,1.306158],[103.857662,1.306143],[103.857681,1.306126],[103.857712,1.306157],[103.857768,1.306105],[103.85774,1.306071],[103.857759,1.306054],[103.857773,1.30607],[103.857796,1.306049],[103.857781,1.306033],[103.8578,1.306016],[103.857831,1.306047],[103.857887,1.305995],[103.857859,1.305961],[103.857877,1.305943],[103.857889,1.305956],[103.857912,1.305933],[103.8579,1.305922],[103.857918,1.305906],[103.85795,1.305937],[103.857978,1.305908],[103.858044,1.305982],[103.858,1.306025],[103.858018,1.306044],[103.857989,1.306071],[103.85797,1.30605],[103.857882,1.306132],[103.857896,1.306133],[103.857942,1.306182],[103.857897,1.306225],[103.857905,1.30623],[103.857869,1.306222],[103.857821,1.306233],[103.857827,1.306228],[103.857805,1.306203],[103.857761,1.306244],[103.85778,1.306264],[103.857751,1.306291],[103.857732,1.306271],[103.857642,1.306354],[103.857661,1.306375],[103.857632,1.306402],[103.857613,1.306381],[103.857567,1.306424],[103.857499,1.306351],[103.85753,1.306326],[103.857502,1.306291],[103.85752,1.306275],[103.857535,1.306291],[103.857557,1.306269],[103.857543,1.306253],[103.857561,1.306236]]]}},{"type":"Feature","properties":{"block_id":"3436","blk_no":"27","postal_code":"200027","region_id":"CR","region":"CENTRAL REGION","planning_area_id":"RC","planning_area":"ROCHOR","subzone_id":"RCSZ03","subzone":"SUNGEI ROAD","lon":103.8578,"lat":1.3066,"property_match":"MATCHED","property_match_confidence":"HIGH","street":"JLN BERSEH","residential":"Y","year_completed":1978,"building_age_2026":48,"max_floor_lvl":2,"total_dwelling_units":3,"small_flat_share_pct":100.0,"rental_share_pct":100.0,"footprint_area_m2":707.9,"estimated_residents_2026":6.5,"estimated_elderly_65plus_2026":1.8,"estimated_elderly_share_pct":27.59,"elderly_exposure_score":0.2,"elderly_exposure_class":"VERY LOW","estimate_confidence":"HIGH","display_name":"Block 27"},"geometry":{"type":"Polygon","coordinates":[[[103.857722,1.306406],[103.857986,1.306696],[103.857878,1.306795],[103.857614,1.306505],[103.857722,1.306406]]]}},{"type":"Feature","properties":{"block_id":"65","blk_no":"28","postal_code":"200028","region_id":"CR","region":"CENTRAL REGION","planning_area_id":"RC","planning_area":"ROCHOR","subzone_id":"RCSZ03","subzone":"SUNGEI ROAD","lon":103.8574,"lat":1.3059,"property_match":"MATCHED","property_match_confidence":"HIGH","street":"KELANTAN RD","residential":"Y","year_completed":1977,"building_age_2026":49,"max_floor_lvl":16,"total_dwelling_units":138,"small_flat_share_pct":97.83,"rental_share_pct":0.0,"footprint_area_m2":1264.6,"estimated_residents_2026":293.6,"estimated_elderly_65plus_2026":81.0,"estimated_elderly_share_pct":27.59,"elderly_exposure_score":76.2,"elderly_exposure_class":"HIGH","estimate_confidence":"HIGH","display_name":"Block 28"},"geometry":{"type":"Polygon","coordinates":[[[103.857403,1.305841],[103.857354,1.305788],[103.857373,1.305772],[103.857346,1.30574],[103.857451,1.305643],[103.857593,1.30581],[103.857583,1.305819],[103.857612,1.305853],[103.857594,1.30587],[103.85758,1.305854],[103.857556,1.305876],[103.85757,1.305892],[103.857553,1.305908],[103.857538,1.305892],[103.857507,1.305921],[103.857491,1.305904],[103.857484,1.305911],[103.857513,1.305946],[103.857495,1.305962],[103.857481,1.305947],[103.857456,1.305968],[103.857471,1.305984],[103.857453,1.306001],[103.857422,1.305968],[103.857405,1.305984],[103.857434,1.306019],[103.857415,1.306035],[103.857401,1.30602],[103.857378,1.306042],[103.857392,1.306058],[103.857374,1.306074],[103.857342,1.306042],[103.857325,1.306058],[103.857354,1.306093],[103.857336,1.30611],[103.857322,1.306093],[103.857298,1.306115],[103.857313,1.306131],[103.857295,1.306147],[103.857266,1.30612],[103.857227,1.306149],[103.857255,1.306184],[103.857237,1.3062],[103.857222,1.306185],[103.857198,1.306207],[103.857213,1.306222],[103.857196,1.30624],[103.857164,1.306207],[103.857157,1.306219],[103.857082,1.306138],[103.857139,1.306086],[103.857113,1.306055],[103.857115,1.306019],[103.857147,1.305986],[103.857193,1.306036],[103.857403,1.305841]]]}},{"type":"Feature","properties":{"block_id":"7161","blk_no":"28A","postal_code":"201028","region_id":"CR","region":"CENTRAL REGION","planning_area_id":"RC","planning_area":"ROCHOR","subzone_id":"RCSZ03","subzone":"SUNGEI ROAD","lon":103.8575,"lat":1.3061,"property_match":"MATCHED","property_match_confidence":"HIGH","street":"KELANTAN RD","residential":"N","year_completed":2003,"building_age_2026":23,"max_floor_lvl":1,"total_dwelling_units":0,"small_flat_share_pct":null,"rental_share_pct":null,"footprint_area_m2":297.9,"estimated_residents_2026":0.0,"estimated_elderly_65plus_2026":0.0,"estimated_elderly_share_pct":null,"elderly_exposure_score":null,"elderly_exposure_class":null,"estimate_confidence":"HIGH","display_name":"Block 28A"},"geometry":{"type":"Polygon","coordinates":[[[103.857337,1.306213],[103.857493,1.306046],[103.857574,1.306136],[103.857437,1.306264],[103.857409,1.306232],[103.857379,1.30626],[103.857337,1.306213]]]}},{"type":"Feature","properties":{"block_id":"6810","blk_no":"29","postal_code":"200029","region_id":"CR","region":"CENTRAL REGION","planning_area_id":"RC","planning_area":"ROCHOR","subzone_id":"RCSZ03","subzone":"SUNGEI ROAD","lon":103.8571,"lat":1.3057,"property_match":"MATCHED","property_match_confidence":"HIGH","street":"KELANTAN RD","residential":"Y","year_completed":1977,"building_age_2026":49,"max_floor_lvl":16,"total_dwelling_units":133,"small_flat_share_pct":94.74,"rental_share_pct":0.0,"footprint_area_m2":1091.7,"estimated_residents_2026":274.1,"estimated_elderly_65plus_2026":75.6,"estimated_elderly_share_pct":27.59,"elderly_exposure_score":71.5,"elderly_exposure_class":"HIGH","estimate_confidence":"HIGH","display_name":"Block 29"},"geometry":{"type":"Polygon","coordinates":[[[103.857166,1.305565],[103.857192,1.305602],[103.857205,1.30559],[103.857187,1.30557],[103.857209,1.305551],[103.857226,1.305571],[103.857234,1.305563],[103.857205,1.305528],[103.857224,1.305512],[103.857238,1.305528],[103.857262,1.305506],[103.857247,1.30549],[103.857265,1.305474],[103.857297,1.305505],[103.857309,1.305493],[103.857379,1.305574],[103.857322,1.305627],[103.857348,1.305657],[103.857346,1.305694],[103.857313,1.305726],[103.857268,1.305676],[103.85705,1.305879],[103.857095,1.305929],[103.857059,1.305959],[103.857039,1.305961],[103.856996,1.305928],[103.856939,1.305981],[103.856867,1.305903],[103.856877,1.305894],[103.85685,1.305859],[103.856867,1.305843],[103.856881,1.305859],[103.856905,1.305837],[103.856891,1.305821],[103.856908,1.305804],[103.856941,1.305836],[103.856978,1.305801],[103.856947,1.305768],[103.856966,1.305751],[103.85698,1.305766],[103.857003,1.305745],[103.85699,1.305729],[103.857007,1.305712],[103.857041,1.305744],[103.857057,1.305727],[103.857027,1.305694],[103.857045,1.305677],[103.857059,1.305694],[103.857083,1.30567],[103.857068,1.305656],[103.857087,1.305639],[103.857118,1.30567],[103.857135,1.305655],[103.857107,1.30562],[103.857124,1.305604],[103.857139,1.305621],[103.857162,1.305598],[103.857148,1.305582],[103.857166,1.305565]]]}},{"type":"Feature","properties":{"block_id":"2522","blk_no":"30","postal_code":"200030","region_id":"CR","region":"CENTRAL REGION","planning_area_id":"RC","planning_area":"ROCHOR","subzone_id":"RCSZ03","subzone":"SUNGEI ROAD","lon":103.8569,"lat":1.3055,"property_match":"MATCHED","property_match_confidence":"HIGH","street":"KELANTAN RD","residential":"Y","year_completed":1980,"building_age_2026":46,"max_floor_lvl":16,"total_dwelling_units":138,"small_flat_share_pct":99.28,"rental_share_pct":0.0,"footprint_area_m2":934.2,"estimated_residents_2026":298.0,"estimated_elderly_65plus_2026":82.2,"estimated_elderly_share_pct":27.59,"elderly_exposure_score":77.0,"elderly_exposure_class":"HIGH","estimate_confidence":"HIGH","display_name":"Block 30"},"geometry":{"type":"Polygon","coordinates":[[[103.857059,1.305225],[103.85714,1.305313],[103.857126,1.305326],[103.857139,1.305341],[103.857124,1.305356],[103.857104,1.305334],[103.857081,1.305356],[103.857101,1.305377],[103.857085,1.305392],[103.857071,1.305377],[103.857058,1.305389],[103.857045,1.305375],[103.857023,1.305391],[103.857015,1.305398],[103.857042,1.305432],[103.857025,1.305449],[103.857011,1.305433],[103.856987,1.305454],[103.857002,1.30547],[103.856984,1.305486],[103.856952,1.305455],[103.856935,1.305471],[103.856964,1.305505],[103.856946,1.305521],[103.856932,1.305506],[103.856909,1.305527],[103.856923,1.305543],[103.856904,1.30556],[103.856873,1.305528],[103.856856,1.305544],[103.856884,1.305578],[103.856867,1.305595],[103.856852,1.30558],[103.856829,1.305601],[103.856843,1.305617],[103.856825,1.305633],[103.856794,1.305602],[103.856787,1.305613],[103.856781,1.305607],[103.856763,1.305624],[103.856782,1.305645],[103.856768,1.305657],[103.856782,1.305672],[103.856767,1.305687],[103.856746,1.305665],[103.856724,1.305687],[103.856744,1.305708],[103.856728,1.305723],[103.856714,1.305707],[103.8567,1.30572],[103.85662,1.305632],[103.8567,1.305558],[103.856666,1.305523],[103.856689,1.305501],[103.85672,1.305538],[103.856954,1.305325],[103.856929,1.3053],[103.856963,1.305269],[103.856986,1.305293],[103.857059,1.305225]]]}},{"type":"Feature","properties":{"block_id":"3761","blk_no":"31","postal_code":"200031","region_id":"CR","region":"CENTRAL REGION","planning_area_id":"RC","planning_area":"ROCHOR","subzone_id":"RCSZ03","subzone":"SUNGEI ROAD","lon":103.8567,"lat":1.3062,"property_match":"MATCHED","property_match_confidence":"HIGH","street":"KELANTAN LANE","residential":"N","year_completed":1978,"building_age_2026":48,"max_floor_lvl":5,"total_dwelling_units":0,"small_flat_share_pct":null,"rental_share_pct":null,"footprint_area_m2":3301.0,"estimated_residents_2026":0.0,"estimated_elderly_65plus_2026":0.0,"estimated_elderly_share_pct":null,"elderly_exposure_score":null,"elderly_exposure_class":null,"estimate_confidence":"HIGH","display_name":"Block 31"},"geometry":{"type":"Polygon","coordinates":[[[103.856626,1.305889],[103.856625,1.30587],[103.856643,1.305865],[103.8572,1.306475],[103.857228,1.306452],[103.857246,1.306462],[103.857243,1.306477],[103.856984,1.306717],[103.856409,1.306088],[103.856407,1.306074],[103.856425,1.306064],[103.856457,1.306095],[103.85665,1.305916],[103.856626,1.305889]]]}},{"type":"Feature","properties":{"block_id":"9268","blk_no":"261","postal_code":"180261","region_id":"CR","region":"CENTRAL REGION","planning_area_id":"RC","planning_area":"ROCHOR","subzone_id":"RCSZ10","subzone":"VICTORIA","lon":103.8522,"lat":1.2987,"property_match":"MATCHED","property_match_confidence":"HIGH","street":"WATERLOO ST","residential":"N","year_completed":1978,"building_age_2026":48,"max_floor_lvl":5,"total_dwelling_units":0,"small_flat_share_pct":null,"rental_share_pct":null,"footprint_area_m2":7888.0,"estimated_residents_2026":0.0,"estimated_elderly_65plus_2026":0.0,"estimated_elderly_share_pct":null,"elderly_exposure_score":null,"elderly_exposure_class":null,"estimate_confidence":"HIGH","display_name":"Block 261"},"geometry":{"type":"Polygon","coordinates":[[[103.852095,1.299247],[103.851454,1.29848],[103.85172,1.298256],[103.85188,1.298448],[103.852132,1.298236],[103.852337,1.298481],[103.85242,1.298411],[103.852695,1.298741],[103.852095,1.299247]]]}},{"type":"Feature","properties":{"block_id":"9265","blk_no":"262","postal_code":"180262","region_id":"CR","region":"CENTRAL REGION","planning_area_id":"RC","planning_area":"ROCHOR","subzone_id":"RCSZ10","subzone":"VICTORIA","lon":103.8519,"lat":1.2985,"property_match":"MATCHED","property_match_confidence":"HIGH","street":"WATERLOO ST","residential":"Y","year_completed":1978,"building_age_2026":48,"max_floor_lvl":18,"total_dwelling_units":78,"small_flat_share_pct":0.0,"rental_share_pct":0.0,"footprint_area_m2":670.8,"estimated_residents_2026":190.7,"estimated_elderly_65plus_2026":65.0,"estimated_elderly_share_pct":34.09,"elderly_exposure_score":59.8,"elderly_exposure_class":"MODERATE","estimate_confidence":"HIGH","display_name":"Block 262"},"geometry":{"type":"Polygon","coordinates":[[[103.851675,1.298744],[103.851623,1.298683],[103.851675,1.298639],[103.851667,1.298628],[103.85198,1.298364],[103.851988,1.298375],[103.852039,1.298332],[103.85209,1.298394],[103.852058,1.298421],[103.852071,1.298437],[103.852006,1.298492],[103.851993,1.298476],[103.851895,1.298558],[103.851909,1.298574],[103.851843,1.29863],[103.85183,1.298613],[103.851771,1.298663],[103.851784,1.298679],[103.851718,1.298735],[103.851705,1.298719],[103.851675,1.298744]]]}},{"type":"Feature","properties":{"block_id":"9266","blk_no":"263","postal_code":"180263","region_id":"CR","region":"CENTRAL REGION","planning_area_id":"RC","planning_area":"ROCHOR","subzone_id":"RCSZ10","subzone":"VICTORIA","lon":103.8523,"lat":1.2986,"property_match":"MATCHED","property_match_confidence":"HIGH","street":"WATERLOO ST","residential":"Y","year_completed":1978,"building_age_2026":48,"max_floor_lvl":21,"total_dwelling_units":124,"small_flat_share_pct":96.77,"rental_share_pct":0.81,"footprint_area_m2":625.0,"estimated_residents_2026":226.2,"estimated_elderly_65plus_2026":83.1,"estimated_elderly_share_pct":36.73,"elderly_exposure_score":77.7,"elderly_exposure_class":"HIGH","estimate_confidence":"HIGH","display_name":"Block 263"},"geometry":{"type":"Polygon","coordinates":[[[103.852047,1.298726],[103.85242,1.298411],[103.852478,1.298481],[103.852468,1.298489],[103.852481,1.298504],[103.852416,1.298559],[103.852404,1.298543],[103.852366,1.298575],[103.852379,1.29859],[103.852316,1.298643],[103.852303,1.298628],[103.852281,1.298647],[103.852294,1.298662],[103.852229,1.298717],[103.852216,1.298702],[103.852177,1.298734],[103.85219,1.298749],[103.852127,1.298803],[103.852114,1.298787],[103.852104,1.298796],[103.852047,1.298726]]]}},{"type":"Feature","properties":{"block_id":"9267","blk_no":"264","postal_code":"180264","region_id":"CR","region":"CENTRAL REGION","planning_area_id":"RC","planning_area":"ROCHOR","subzone_id":"RCSZ10","subzone":"VICTORIA","lon":103.8523,"lat":1.299,"property_match":"MATCHED","property_match_confidence":"HIGH","street":"WATERLOO ST","residential":"Y","year_completed":1978,"building_age_2026":48,"max_floor_lvl":18,"total_dwelling_units":126,"small_flat_share_pct":96.83,"rental_share_pct":0.0,"footprint_area_m2":779.0,"estimated_residents_2026":229.9,"estimated_elderly_65plus_2026":84.5,"estimated_elderly_share_pct":36.73,"elderly_exposure_score":78.6,"elderly_exposure_class":"HIGH","estimate_confidence":"HIGH","display_name":"Block 264"},"geometry":{"type":"Polygon","coordinates":[[[103.852543,1.298869],[103.852475,1.298926],[103.852461,1.298909],[103.852423,1.29894],[103.852438,1.298958],[103.852376,1.29901],[103.852361,1.298992],[103.852341,1.299009],[103.852356,1.299027],[103.852292,1.299081],[103.852277,1.299063],[103.852256,1.299082],[103.85227,1.299099],[103.852206,1.299154],[103.852191,1.299136],[103.852154,1.299167],[103.852169,1.299185],[103.852105,1.299239],[103.85209,1.299221],[103.85208,1.29923],[103.852022,1.299161],[103.852478,1.298776],[103.852536,1.298845],[103.852528,1.298852],[103.852543,1.298869]]]}},{"type":"Feature","properties":{"block_id":"2972","blk_no":"269","postal_code":"180269","region_id":"CR","region":"CENTRAL REGION","planning_area_id":"RC","planning_area":"ROCHOR","subzone_id":"RCSZ10","subzone":"VICTORIA","lon":103.8539,"lat":1.3005,"property_match":"MATCHED","property_match_confidence":"HIGH","street":"QUEEN ST","residential":"N","year_completed":1983,"building_age_2026":43,"max_floor_lvl":2,"total_dwelling_units":0,"small_flat_share_pct":null,"rental_share_pct":null,"footprint_area_m2":4937.6,"estimated_residents_2026":0.0,"estimated_elderly_65plus_2026":0.0,"estimated_elderly_share_pct":null,"elderly_exposure_score":null,"elderly_exposure_class":null,"estimate_confidence":"HIGH","display_name":"Block 269"},"geometry":{"type":"Polygon","coordinates":[[[103.853762,1.30088],[103.853587,1.301025],[103.853157,1.30051],[103.853222,1.300456],[103.85321,1.300441],[103.853364,1.300313],[103.853345,1.30029],[103.85352,1.300144],[103.853539,1.300167],[103.853574,1.300138],[103.853555,1.300115],[103.853709,1.299987],[103.854166,1.300544],[103.853918,1.30075],[103.853907,1.300737],[103.853918,1.300728],[103.853902,1.30071],[103.853892,1.300718],[103.853838,1.300653],[103.853859,1.300635],[103.853844,1.300617],[103.853823,1.300635],[103.85377,1.30057],[103.853791,1.300552],[103.853776,1.300534],[103.853755,1.300552],[103.853701,1.300485],[103.853722,1.300468],[103.853707,1.30045],[103.853686,1.300467],[103.853633,1.300402],[103.853654,1.300385],[103.853646,1.300375],[103.853681,1.300346],[103.853661,1.300322],[103.853683,1.300304],[103.853649,1.300262],[103.85333,1.300527],[103.853351,1.300553],[103.853405,1.300508],[103.853438,1.300548],[103.853448,1.30054],[103.853456,1.30055],[103.853477,1.300532],[103.85353,1.300597],[103.853509,1.300614],[103.853524,1.300632],[103.853545,1.300615],[103.853599,1.300682],[103.853578,1.300699],[103.853593,1.300717],[103.853614,1.3007],[103.853667,1.300764],[103.853646,1.300782],[103.853661,1.3008],[103.853682,1.300782],[103.853736,1.300848],[103.853725,1.300857],[103.853741,1.300875],[103.853751,1.300867],[103.853762,1.30088]]]}},{"type":"Feature","properties":{"block_id":"5972","blk_no":"269A","postal_code":"181269","region_id":"CR","region":"CENTRAL REGION","planning_area_id":"RC","planning_area":"ROCHOR","subzone_id":"RCSZ10","subzone":"VICTORIA","lon":103.8538,"lat":1.3005,"property_match":"MATCHED","property_match_confidence":"HIGH","street":"QUEEN ST","residential":"Y","year_completed":1983,"building_age_2026":43,"max_floor_lvl":7,"total_dwelling_units":32,"small_flat_share_pct":87.5,"rental_share_pct":0.0,"footprint_area_m2":712.5,"estimated_residents_2026":62.5,"estimated_elderly_65plus_2026":22.7,"estimated_elderly_share_pct":36.32,"elderly_exposure_score":12.8,"elderly_exposure_class":"VERY LOW","estimate_confidence":"HIGH","display_name":"Block 269A"},"geometry":{"type":"Polygon","coordinates":[[[103.853646,1.300375],[103.853726,1.300309],[103.854019,1.300666],[103.853918,1.30075],[103.853907,1.300737],[103.853918,1.300728],[103.853902,1.30071],[103.853892,1.300718],[103.853838,1.300653],[103.853859,1.300635],[103.853844,1.300617],[103.853823,1.300635],[103.85377,1.30057],[103.853791,1.300552],[103.853776,1.300534],[103.853755,1.300552],[103.853701,1.300485],[103.853722,1.300468],[103.853707,1.30045],[103.853686,1.300467],[103.853633,1.300402],[103.853654,1.300385],[103.853646,1.300375]]]}},{"type":"Feature","properties":{"block_id":"2973","blk_no":"269B","postal_code":"182269","region_id":"CR","region":"CENTRAL REGION","planning_area_id":"RC","planning_area":"ROCHOR","subzone_id":"RCSZ10","subzone":"VICTORIA","lon":103.8535,"lat":1.3004,"property_match":"MATCHED","property_match_confidence":"HIGH","street":"QUEEN ST","residential":"Y","year_completed":1983,"building_age_2026":43,"max_floor_lvl":23,"total_dwelling_units":138,"small_flat_share_pct":31.16,"rental_share_pct":0.0,"footprint_area_m2":1217.4,"estimated_residents_2026":310.8,"estimated_elderly_65plus_2026":108.1,"estimated_elderly_share_pct":34.78,"elderly_exposure_score":90.7,"elderly_exposure_class":"VERY HIGH","estimate_confidence":"HIGH","display_name":"Block 269B"},"geometry":{"type":"Polygon","coordinates":[[[103.853488,1.300236],[103.853526,1.30029],[103.853552,1.300268],[103.853508,1.300219],[103.853553,1.300182],[103.853568,1.3002],[103.853603,1.300171],[103.853584,1.300156],[103.853656,1.300096],[103.853695,1.30015],[103.85372,1.300129],[103.853675,1.30008],[103.853741,1.300026],[103.853819,1.300121],[103.85333,1.300527],[103.853351,1.300553],[103.853405,1.300508],[103.853438,1.300548],[103.85337,1.300605],[103.853357,1.300589],[103.853347,1.300598],[103.85336,1.300615],[103.853291,1.300673],[103.853157,1.30051],[103.853228,1.300451],[103.853264,1.300495],[103.853275,1.300486],[103.853281,1.300493],[103.853293,1.300483],[103.853249,1.300434],[103.853358,1.300343],[103.853397,1.300396],[103.853423,1.300375],[103.853379,1.300326],[103.853488,1.300236]]]}},{"type":"Feature","properties":{"block_id":"4059","blk_no":"269C","postal_code":"183269","region_id":"CR","region":"CENTRAL REGION","planning_area_id":"RC","planning_area":"ROCHOR","subzone_id":"RCSZ10","subzone":"VICTORIA","lon":103.8536,"lat":1.3007,"property_match":"MATCHED","property_match_confidence":"HIGH","street":"QUEEN ST","residential":"Y","year_completed":1983,"building_age_2026":43,"max_floor_lvl":7,"total_dwelling_units":31,"small_flat_share_pct":83.87,"rental_share_pct":0.0,"footprint_area_m2":697.1,"estimated_residents_2026":58.8,"estimated_elderly_65plus_2026":21.3,"estimated_elderly_share_pct":36.29,"elderly_exposure_score":11.6,"elderly_exposure_class":"VERY LOW","estimate_confidence":"HIGH","display_name":"Block 269C"},"geometry":{"type":"Polygon","coordinates":[[[103.853664,1.300961],[103.85337,1.300605],[103.853448,1.30054],[103.853456,1.30055],[103.853477,1.300532],[103.85353,1.300597],[103.853509,1.300614],[103.853524,1.300632],[103.853545,1.300615],[103.853599,1.300682],[103.853578,1.300699],[103.853593,1.300717],[103.853614,1.3007],[103.853667,1.300764],[103.853646,1.300782],[103.853661,1.3008],[103.853682,1.300782],[103.853736,1.300848],[103.853725,1.300857],[103.853741,1.300875],[103.853751,1.300867],[103.853762,1.30088],[103.853664,1.300961]]]}},{"type":"Feature","properties":{"block_id":"10847","blk_no":"270","postal_code":"180270","region_id":"CR","region":"CENTRAL REGION","planning_area_id":"RC","planning_area":"ROCHOR","subzone_id":"RCSZ10","subzone":"VICTORIA","lon":103.8541,"lat":1.301,"property_match":"MATCHED","property_match_confidence":"HIGH","street":"QUEEN ST","residential":"N","year_completed":2009,"building_age_2026":17,"max_floor_lvl":3,"total_dwelling_units":0,"small_flat_share_pct":null,"rental_share_pct":null,"footprint_area_m2":3966.9,"estimated_residents_2026":0.0,"estimated_elderly_65plus_2026":0.0,"estimated_elderly_share_pct":null,"elderly_exposure_score":null,"elderly_exposure_class":null,"estimate_confidence":"HIGH","display_name":"Block 270"},"geometry":{"type":"Polygon","coordinates":[[[103.85414,1.300725],[103.854172,1.300687],[103.854179,1.300696],[103.854245,1.300641],[103.854478,1.300928],[103.854258,1.301204],[103.854221,1.301233],[103.854192,1.301224],[103.854181,1.301337],[103.854168,1.301357],[103.854141,1.301357],[103.854128,1.301343],[103.854133,1.30127],[103.853922,1.301445],[103.853745,1.301229],[103.853735,1.301238],[103.853669,1.301157],[103.853678,1.30115],[103.85366,1.301128],[103.853752,1.30105],[103.853729,1.301062],[103.853719,1.301049],[103.853747,1.30102],[103.85377,1.301001],[103.853787,1.301022],[103.854118,1.300747],[103.854102,1.300727],[103.85412,1.300708],[103.85414,1.300725]]]}},{"type":"Feature","properties":{"block_id":"10846","blk_no":"271","postal_code":"180271","region_id":"CR","region":"CENTRAL REGION","planning_area_id":"RC","planning_area":"ROCHOR","subzone_id":"RCSZ10","subzone":"VICTORIA","lon":103.854,"lat":1.3009,"property_match":"MATCHED","property_match_confidence":"HIGH","street":"QUEEN ST","residential":"Y","year_completed":1978,"building_age_2026":48,"max_floor_lvl":20,"total_dwelling_units":186,"small_flat_share_pct":96.77,"rental_share_pct":0.0,"footprint_area_m2":1032.6,"estimated_residents_2026":339.2,"estimated_elderly_65plus_2026":124.6,"estimated_elderly_share_pct":36.73,"elderly_exposure_score":94.1,"elderly_exposure_class":"VERY HIGH","estimate_confidence":"HIGH","display_name":"Block 271"},"geometry":{"type":"Polygon","coordinates":[[[103.854314,1.300727],[103.854303,1.300736],[103.85431,1.300744],[103.854246,1.300797],[103.854225,1.300793],[103.854182,1.300822],[103.854186,1.300848],[103.854122,1.300902],[103.854116,1.300895],[103.854097,1.30091],[103.854103,1.300918],[103.854039,1.300971],[103.854033,1.300963],[103.854014,1.300979],[103.854021,1.300987],[103.853957,1.30104],[103.853951,1.301033],[103.853932,1.301049],[103.853938,1.301056],[103.853874,1.301109],[103.853868,1.301102],[103.853858,1.30111],[103.853849,1.3011],[103.853829,1.301116],[103.853813,1.301137],[103.853814,1.301159],[103.85375,1.301213],[103.853743,1.301205],[103.853731,1.301215],[103.853666,1.301136],[103.853771,1.301048],[103.853747,1.30102],[103.85377,1.301001],[103.853793,1.301029],[103.854123,1.300753],[103.854102,1.300727],[103.854122,1.30071],[103.854144,1.300736],[103.85425,1.300647],[103.854314,1.300727]]]}}]}