{"type":"FeatureCollection","features":[{"type":"Feature","properties":{"block_id":"11868","blk_no":"5","postal_code":"260005","region_id":"CR","region":"CENTRAL REGION","planning_area_id":"TN","planning_area":"TANGLIN","subzone_id":"TNSZ04","subzone":"TYERSALL","lon":103.8073,"lat":1.3166,"property_match":"MATCHED","property_match_confidence":"HIGH","street":"FARRER RD","residential":"Y","year_completed":1974,"building_age_2026":52,"max_floor_lvl":20,"total_dwelling_units":76,"small_flat_share_pct":0.0,"rental_share_pct":0.0,"footprint_area_m2":608.1,"estimated_residents_2026":256.5,"estimated_elderly_65plus_2026":76.0,"estimated_elderly_share_pct":29.63,"elderly_exposure_score":71.9,"elderly_exposure_class":"HIGH","estimate_confidence":"HIGH","display_name":"Block 5"},"geometry":{"type":"Polygon","coordinates":[[[103.807359,1.316452],[103.807365,1.316469],[103.807433,1.316489],[103.807409,1.316574],[103.80735,1.316557],[103.80734,1.316595],[103.807398,1.316612],[103.807374,1.316697],[103.807306,1.316677],[103.807298,1.316692],[103.807283,1.316692],[103.80727,1.316684],[103.807274,1.31667],[103.807242,1.316661],[103.807238,1.316675],[103.807223,1.316675],[103.80721,1.316667],[103.807211,1.31665],[103.807143,1.316631],[103.807167,1.316545],[103.807226,1.316562],[103.807238,1.316525],[103.807178,1.316508],[103.807202,1.316423],[103.80727,1.316442],[103.807278,1.316427],[103.807293,1.316428],[103.807306,1.316436],[103.807302,1.31645],[103.807334,1.316459],[103.807338,1.316445],[103.807359,1.316452]]]}},{"type":"Feature","properties":{"block_id":"2841","blk_no":"6","postal_code":"260006","region_id":"CR","region":"CENTRAL REGION","planning_area_id":"TN","planning_area":"TANGLIN","subzone_id":"TNSZ04","subzone":"TYERSALL","lon":103.808,"lat":1.3173,"property_match":"MATCHED","property_match_confidence":"HIGH","street":"FARRER RD","residential":"Y","year_completed":1973,"building_age_2026":53,"max_floor_lvl":10,"total_dwelling_units":90,"small_flat_share_pct":17.78,"rental_share_pct":0.0,"footprint_area_m2":1221.2,"estimated_residents_2026":169.1,"estimated_elderly_65plus_2026":31.7,"estimated_elderly_share_pct":18.75,"elderly_exposure_score":19.8,"elderly_exposure_class":"VERY LOW","estimate_confidence":"HIGH","display_name":"Block 6"},"geometry":{"type":"Polygon","coordinates":[[[103.807765,1.316917],[103.807892,1.317058],[103.807867,1.317081],[103.807883,1.317099],[103.807908,1.317076],[103.808289,1.3175],[103.808264,1.317523],[103.80828,1.317541],[103.808305,1.317518],[103.808432,1.317659],[103.808368,1.317718],[103.808334,1.317675],[103.80832,1.317687],[103.808288,1.317658],[103.808262,1.317623],[103.808267,1.317601],[103.808203,1.317529],[103.80818,1.317532],[103.808122,1.317467],[103.808097,1.31749],[103.808059,1.317448],[103.808084,1.317425],[103.807748,1.317058],[103.807717,1.317017],[103.807731,1.317004],[103.807701,1.316975],[103.807765,1.316917]]]}},{"type":"Feature","properties":{"block_id":"11891","blk_no":"6A","postal_code":"261006","region_id":"CR","region":"CENTRAL REGION","planning_area_id":"TN","planning_area":"TANGLIN","subzone_id":"TNSZ04","subzone":"TYERSALL","lon":103.8076,"lat":1.317,"property_match":"MATCHED","property_match_confidence":"HIGH","street":"FARRER RD","residential":"N","year_completed":1998,"building_age_2026":28,"max_floor_lvl":2,"total_dwelling_units":0,"small_flat_share_pct":null,"rental_share_pct":null,"footprint_area_m2":1289.6,"estimated_residents_2026":0.0,"estimated_elderly_65plus_2026":0.0,"estimated_elderly_share_pct":null,"elderly_exposure_score":null,"elderly_exposure_class":null,"estimate_confidence":"HIGH","display_name":"Block 6A"},"geometry":{"type":"Polygon","coordinates":[[[103.807482,1.316763],[103.807529,1.316724],[103.807569,1.316715],[103.807609,1.316722],[103.807644,1.316744],[103.807668,1.316777],[103.807677,1.316817],[103.80767,1.316858],[103.807627,1.316916],[103.807662,1.316949],[103.807649,1.316964],[103.807698,1.317011],[103.807679,1.317031],[103.807851,1.317196],[103.807857,1.317219],[103.807848,1.317236],[103.807825,1.317244],[103.8078,1.317229],[103.807768,1.317263],[103.807349,1.316864],[103.80738,1.316831],[103.807369,1.316804],[103.807384,1.316779],[103.807402,1.316774],[103.807425,1.316783],[103.807462,1.316744],[103.807482,1.316763]]]}}]}