{"type":"FeatureCollection","features":[{"type":"Feature","properties":{"type":"LANDMARK"},"geometry":{"type":"Polygon","coordinates":[[[103.7006148,1.3062557],[103.7007793,1.3062605],[103.7007744,1.3064262],[103.7006101,1.3064212],[103.7006148,1.3062557]]]}},{"type":"Feature","properties":{"type":"LANDMARK"},"geometry":{"type":"Polygon","coordinates":[[[103.7079742,1.3174302],[103.707975,1.3174545],[103.7079721,1.3174705],[103.7079583,1.3174997],[103.7079355,1.3175225],[103.7079063,1.3175361],[103.7078904,1.3175389],[103.7078663,1.3175379],[103.7078361,1.317527],[103.7078113,1.3175063],[103.707795,1.3174785],[103.7077895,1.3174548],[103.7077902,1.3174305],[103.7077971,1.3174072],[103.7078098,1.3173865],[103.7078273,1.3173697],[103.7078485,1.317358],[103.7078719,1.3173522],[103.707888,1.3173518],[103.7078966,1.3172168],[103.7079366,1.3172235],[103.7079748,1.3172371],[103.7080263,1.3172695],[103.7080677,1.3173141],[103.7080964,1.3173679],[103.7081073,1.3174072],[103.7079742,1.3174302]]]}}]}