{"type":"FeatureCollection","features":[{"type":"Feature","properties":{"type":"HIGHER EDUCATIONAL INSTITUTION"},"geometry":{"type":"Polygon","coordinates":[[[103.7727186,1.3317096],[103.7727891,1.3316052],[103.7728526,1.3316487],[103.7727822,1.3317531],[103.7727186,1.3317096]]]}},{"type":"Feature","properties":{"type":"HIGHER EDUCATIONAL INSTITUTION"},"geometry":{"type":"Polygon","coordinates":[[[103.775891,1.3289077],[103.7759027,1.328844],[103.775576,1.3289999],[103.7755493,1.3289434],[103.7754377,1.3289967],[103.7754549,1.329033],[103.7751623,1.3291727],[103.7751543,1.3291557],[103.775149,1.3291582],[103.7751152,1.3290864],[103.7751199,1.3290841],[103.7751117,1.3290665],[103.7751346,1.3290556],[103.7751205,1.3290258],[103.7751494,1.329012],[103.7751107,1.32893],[103.775153,1.3289098],[103.7751423,1.3288871],[103.7753414,1.3287921],[103.7753514,1.3288134],[103.7753712,1.328804],[103.775373,1.3288079],[103.775399,1.3287955],[103.7753962,1.3287896],[103.7754168,1.3287797],[103.7754203,1.3287872],[103.7754614,1.3287676],[103.7754747,1.3287958],[103.7755027,1.3287824],[103.775477,1.3287279],[103.7756798,1.3286312],[103.7756887,1.3286502],[103.7757082,1.3286409],[103.7757118,1.3286486],[103.7757369,1.3286367],[103.7757338,1.3286303],[103.7757567,1.3286194],[103.7757592,1.3286248],[103.7758,1.3286054],[103.7758314,1.3286721],[103.7758901,1.328644],[103.7758859,1.328635],[103.7758814,1.3286371],[103.7758718,1.3286167],[103.775764,1.3285469],[103.7757448,1.328571],[103.7757221,1.3285918],[103.7756964,1.3286086],[103.7756684,1.3286212],[103.7756421,1.3286272],[103.7756153,1.3286291],[103.7755885,1.3286268],[103.7755624,1.3286204],[103.7755375,1.3286101],[103.7755145,1.3285961],[103.7754939,1.3285787],[103.7754762,1.3285583],[103.7754908,1.3285477],[103.7754766,1.3285245],[103.7754665,1.3284991],[103.7754608,1.3284724],[103.7754597,1.3284451],[103.7754632,1.328418],[103.7754725,1.328388],[103.7754851,1.3283592],[103.7755405,1.3282756],[103.7755332,1.3282707],[103.7755635,1.328225],[103.7755688,1.3282285],[103.7755986,1.3281835],[103.7756244,1.3281508],[103.7756545,1.328122],[103.7756883,1.3280978],[103.7757251,1.3280785],[103.7757516,1.3280739],[103.7757785,1.3280738],[103.7758051,1.3280782],[103.7758305,1.328087],[103.7758541,1.3280999],[103.7758753,1.3281166],[103.7758933,1.3281366],[103.7759078,1.3281594],[103.7759184,1.3281843],[103.7759246,1.3282106],[103.7759265,1.3282376],[103.7759238,1.3282646],[103.7760016,1.3283144],[103.7758792,1.328502],[103.7758913,1.3285282],[103.7760438,1.3284547],[103.7760909,1.3285538],[103.7761138,1.3285427],[103.7760779,1.3284672],[103.7761908,1.3284129],[103.7761812,1.3283928],[103.776284,1.3283433],[103.7763357,1.328452],[103.7763649,1.3284379],[103.776369,1.3283972],[103.7763723,1.3283907],[103.7764176,1.3283686],[103.7764284,1.3283714],[103.776432,1.3283801],[103.7764264,1.3284432],[103.7764202,1.3284506],[103.7763982,1.3284606],[103.776494,1.3285384],[103.7765201,1.3285256],[103.7766021,1.3285807],[103.7766259,1.3286351],[103.7765938,1.3286494],[103.7765747,1.3286059],[103.776504,1.3285593],[103.776163,1.3287221],[103.7761975,1.3287952],[103.7761603,1.3288129],[103.7761254,1.328739],[103.7759406,1.3288272],[103.7759267,1.328891],[103.775891,1.3289077]]]}},{"type":"Feature","properties":{"type":"HIGHER EDUCATIONAL INSTITUTION"},"geometry":{"type":"Polygon","coordinates":[[[103.7762575,1.3288509],[103.7763168,1.3289229],[103.7763318,1.3289133],[103.776337,1.3289196],[103.7763569,1.3289029],[103.7763432,1.328884],[103.7763718,1.3288627],[103.7763879,1.3288781],[103.7764115,1.3288635],[103.7764782,1.3289453],[103.7762616,1.3290507],[103.7762963,1.3291306],[103.776163,1.3291951],[103.7762116,1.3292968],[103.7759999,1.3293992],[103.7759515,1.3292979],[103.775819,1.329362],[103.7758692,1.3294669],[103.7755641,1.3296146],[103.7754834,1.3294459],[103.7753468,1.329512],[103.7752256,1.3292626],[103.775259,1.3292469],[103.775243,1.3292123],[103.776148,1.3287869],[103.7761603,1.3288129],[103.776183,1.3288021],[103.7762149,1.32887],[103.7762575,1.3288509]]]}},{"type":"Feature","properties":{"type":"LANDMARK"},"geometry":{"type":"Polygon","coordinates":[[[103.7940827,1.3221926],[103.7940934,1.3221208],[103.7941659,1.3221304],[103.7941528,1.3222022],[103.7941362,1.3221998],[103.7941374,1.3221914],[103.7941017,1.3221842],[103.7940993,1.3221938],[103.7940827,1.3221926]]]}},{"type":"Feature","properties":{"type":"LANDMARK"},"geometry":{"type":"Polygon","coordinates":[[[103.794279,1.3328103],[103.7942424,1.3327047],[103.794599,1.3325794],[103.7946369,1.3326886],[103.794279,1.3328103]]]}},{"type":"Feature","properties":{"type":"LANDMARK"},"geometry":{"type":"Polygon","coordinates":[[[103.7951975,1.3344106],[103.7952657,1.3344426],[103.7952979,1.3343676],[103.7954163,1.3344233],[103.795384,1.3344983],[103.7954543,1.3345314],[103.7954324,1.3345825],[103.7953612,1.334549],[103.7953062,1.3346767],[103.7953732,1.3347083],[103.7953514,1.3347591],[103.7952847,1.3347278],[103.795254,1.334799],[103.7951363,1.3347437],[103.7951673,1.3346718],[103.7951018,1.3346411],[103.795123,1.334592],[103.795187,1.3346221],[103.7952428,1.3344925],[103.7951758,1.334461],[103.7951975,1.3344106]]]}},{"type":"Feature","properties":{"type":"LANDMARK"},"geometry":{"type":"Polygon","coordinates":[[[103.7956646,1.3345144],[103.7958433,1.334601],[103.795812,1.334664],[103.7956333,1.3345773],[103.7956646,1.3345144]]]}},{"type":"Feature","properties":{"type":"LANDMARK"},"geometry":{"type":"Polygon","coordinates":[[[103.7937274,1.3347132],[103.7937102,1.3346789],[103.7936538,1.3347048],[103.7936298,1.3346568],[103.7936881,1.3346264],[103.7936936,1.3346383],[103.793719,1.3346266],[103.7937037,1.3345929],[103.7937235,1.3345836],[103.7937162,1.3345605],[103.7937639,1.3345432],[103.7937823,1.3345869],[103.7938462,1.3345553],[103.7938629,1.3345535],[103.7938728,1.3345585],[103.7938789,1.3345723],[103.7938733,1.3345822],[103.7938628,1.334589],[103.7938818,1.3346308],[103.7938087,1.3346599],[103.7938148,1.3346805],[103.7938135,1.3346917],[103.7938054,1.3347085],[103.7937924,1.3347184],[103.7937714,1.3347183],[103.7937485,1.3347039],[103.7937274,1.3347132]]]}},{"type":"Feature","properties":{"type":"HIGHER EDUCATIONAL INSTITUTION"},"geometry":{"type":"Polygon","coordinates":[[[103.7748413,1.3296078],[103.7748177,1.3294715],[103.7750228,1.3294405],[103.7750208,1.3294271],[103.7752146,1.3293978],[103.7752557,1.3294848],[103.775265,1.3295413],[103.7748413,1.3296078]]]}},{"type":"Feature","properties":{"type":"HIGHER EDUCATIONAL INSTITUTION"},"geometry":{"type":"Polygon","coordinates":[[[103.7753468,1.329512],[103.7754834,1.3294459],[103.7755641,1.3296146],[103.7758692,1.3294669],[103.775819,1.329362],[103.7759515,1.3292979],[103.7759999,1.3293992],[103.7762116,1.3292968],[103.776163,1.3291951],[103.7762963,1.3291306],[103.7763477,1.3292341],[103.7766597,1.329077],[103.7765821,1.3289209],[103.7767071,1.328858],[103.7767886,1.3290221],[103.7768186,1.329007],[103.7768796,1.3291297],[103.7768873,1.3291519],[103.7768976,1.3291638],[103.776911,1.3291719],[103.7769328,1.3292043],[103.7769505,1.3292391],[103.7769636,1.329276],[103.7769756,1.3293296],[103.7769886,1.3293492],[103.7770512,1.3294878],[103.7770228,1.3295008],[103.7770963,1.3296637],[103.7769587,1.3297266],[103.7768883,1.3295706],[103.7765856,1.329709],[103.7766294,1.3298127],[103.7765013,1.3298792],[103.7764468,1.3297726],[103.7763892,1.3298024],[103.7763718,1.3298286],[103.7763468,1.3298474],[103.7763169,1.3298567],[103.7762856,1.3298552],[103.7762331,1.329881],[103.7762828,1.3299839],[103.7761453,1.3300512],[103.776099,1.3299554],[103.7757952,1.3301042],[103.7758726,1.3302644],[103.7757435,1.3303276],[103.7753468,1.329512]]]}},{"type":"Feature","properties":{"type":"HIGHER EDUCATIONAL INSTITUTION"},"geometry":{"type":"Polygon","coordinates":[[[103.7749585,1.3300169],[103.7750847,1.3299972],[103.7751225,1.3302424],[103.7749079,1.3302758],[103.7748699,1.330029],[103.7749107,1.3300227],[103.7749078,1.330004],[103.7749553,1.3299966],[103.7749585,1.3300169]]]}},{"type":"Feature","properties":{"type":"HIGHER EDUCATIONAL INSTITUTION"},"geometry":{"type":"Polygon","coordinates":[[[103.7743164,1.3303751],[103.7746133,1.3303338],[103.7746211,1.3303904],[103.7746139,1.3303914],[103.7746219,1.3304493],[103.7743321,1.3304896],[103.7743164,1.3303751]]]}},{"type":"Feature","properties":{"type":"HIGHER EDUCATIONAL INSTITUTION"},"geometry":{"type":"Polygon","coordinates":[[[103.7747056,1.3304893],[103.7749945,1.3304494],[103.7750104,1.3305658],[103.7747138,1.3306068],[103.7747061,1.3305499],[103.7747137,1.3305488],[103.7747056,1.3304893]]]}},{"type":"Feature","properties":{"type":"HIGHER EDUCATIONAL INSTITUTION"},"geometry":{"type":"Polygon","coordinates":[[[103.774351,1.3308556],[103.7746449,1.3308198],[103.7746431,1.3308017],[103.7745873,1.3308086],[103.774585,1.3307903],[103.7745713,1.330792],[103.7745624,1.3307188],[103.7745956,1.3307147],[103.7745889,1.3306602],[103.7746493,1.3306528],[103.7746526,1.3306792],[103.774673,1.3306767],[103.7746687,1.3306357],[103.7744833,1.3306629],[103.7744876,1.3306927],[103.7742997,1.3307202],[103.7743058,1.3307622],[103.774274,1.3307668],[103.774268,1.3307255],[103.774202,1.3307352],[103.7741979,1.3307069],[103.7741002,1.3307212],[103.7740775,1.330564],[103.7741992,1.3305461],[103.774195,1.3305172],[103.7742541,1.3305085],[103.7742582,1.3305365],[103.7746227,1.330483],[103.7746248,1.3304975],[103.7746482,1.3304941],[103.7746178,1.3302854],[103.7745974,1.3302884],[103.7745999,1.3303054],[103.7742365,1.3303593],[103.7742398,1.3303816],[103.7741789,1.3303906],[103.7741757,1.3303688],[103.774055,1.3303867],[103.7740334,1.3302394],[103.7745982,1.3301555],[103.7746031,1.3301889],[103.774634,1.3301837],[103.7746297,1.3301524],[103.7747016,1.3301423],[103.7747097,1.330201],[103.7747195,1.3301996],[103.7747319,1.3302886],[103.7746691,1.3302975],[103.7746665,1.3302785],[103.7746496,1.3302808],[103.774654,1.3303115],[103.7752175,1.3302297],[103.7752396,1.3303843],[103.7751253,1.3304009],[103.7751283,1.3304221],[103.7750616,1.3304318],[103.7750579,1.330406],[103.7746925,1.330459],[103.7746898,1.3304403],[103.7746762,1.3304422],[103.7746995,1.3306411],[103.7750828,1.3305899],[103.7750792,1.3305623],[103.7751474,1.3305532],[103.7751506,1.3305782],[103.7752674,1.3305627],[103.7752883,1.330723],[103.7747879,1.3307895],[103.7747992,1.3308828],[103.7747124,1.3308935],[103.7747136,1.3309033],[103.7746829,1.3309071],[103.774715,1.3311323],[103.7746591,1.3311352],[103.7746045,1.3311284],[103.7746044,1.3311462],[103.774555,1.3311364],[103.7745081,1.3311181],[103.774465,1.3310919],[103.7744271,1.3310586],[103.7743955,1.3310191],[103.7743764,1.3309859],[103.774392,1.3309745],[103.774368,1.3309238],[103.774351,1.3308556]]]}},{"type":"Feature","properties":{"type":"HIGHER EDUCATIONAL INSTITUTION"},"geometry":{"type":"Polygon","coordinates":[[[103.7762068,1.3308016],[103.7761213,1.3308411],[103.7761125,1.3308217],[103.7760964,1.3308292],[103.7760633,1.3307568],[103.7760805,1.3307489],[103.7760405,1.3306613],[103.776125,1.3306222],[103.7762068,1.3308016]]]}},{"type":"Feature","properties":{"type":"HIGHER EDUCATIONAL INSTITUTION"},"geometry":{"type":"Polygon","coordinates":[[[103.7753477,1.3312738],[103.7752665,1.3310942],[103.7753912,1.331037],[103.7753668,1.330983],[103.7754323,1.3309529],[103.7754574,1.3310083],[103.7755097,1.3309843],[103.7755324,1.3310346],[103.775773,1.3309243],[103.7757331,1.3308361],[103.7758091,1.3308013],[103.7758503,1.3308924],[103.7760304,1.3308098],[103.7760717,1.3309011],[103.7762098,1.3308378],[103.7762456,1.3309169],[103.7761047,1.3309815],[103.7760827,1.330933],[103.7759697,1.3309848],[103.7759806,1.3310087],[103.7758136,1.3310853],[103.7758028,1.3310614],[103.7756101,1.3311497],[103.7755625,1.3310445],[103.7755398,1.3310549],[103.775589,1.3311636],[103.7755755,1.3311697],[103.7755905,1.3312029],[103.7755086,1.3312405],[103.7754935,1.331207],[103.7753477,1.3312738]]]}},{"type":"Feature","properties":{"type":"HIGHER EDUCATIONAL INSTITUTION"},"geometry":{"type":"Polygon","coordinates":[[[103.7744162,1.3311384],[103.7745047,1.3312255],[103.7744656,1.3312658],[103.774377,1.3311786],[103.7744162,1.3311384]]]}},{"type":"Feature","properties":{"type":"HIGHER EDUCATIONAL INSTITUTION"},"geometry":{"type":"Polygon","coordinates":[[[103.7754777,1.3313584],[103.7763392,1.3309532],[103.7764054,1.3311043],[103.775547,1.3315078],[103.7754777,1.3313584]]]}},{"type":"Feature","properties":{"type":"HIGHER EDUCATIONAL INSTITUTION"},"geometry":{"type":"Polygon","coordinates":[[[103.7745416,1.3312006],[103.7747517,1.3311644],[103.7747619,1.3312246],[103.7747958,1.3312188],[103.7748111,1.3313088],[103.7747785,1.3313144],[103.774784,1.3313467],[103.7746527,1.3313694],[103.7746213,1.3313683],[103.7745906,1.3313618],[103.7745614,1.33135],[103.7745339,1.3313327],[103.774476,1.3312819],[103.7745426,1.3312134],[103.7745416,1.3312006]]]}},{"type":"Feature","properties":{"type":"HIGHER EDUCATIONAL INSTITUTION"},"geometry":{"type":"Polygon","coordinates":[[[103.7768933,1.331335],[103.7769562,1.3313495],[103.776933,1.3314513],[103.7768702,1.3314369],[103.7768933,1.331335]]]}},{"type":"Feature","properties":{"type":"HIGHER EDUCATIONAL INSTITUTION"},"geometry":{"type":"Polygon","coordinates":[[[103.7766045,1.3314228],[103.7766425,1.3313553],[103.7766828,1.3313783],[103.7766448,1.3314458],[103.7766045,1.3314228]]]}},{"type":"Feature","properties":{"type":"HIGHER EDUCATIONAL INSTITUTION"},"geometry":{"type":"Polygon","coordinates":[[[103.7766908,1.3314676],[103.7767426,1.3313757],[103.7768027,1.3314099],[103.7767509,1.3315019],[103.7766908,1.3314676]]]}},{"type":"Feature","properties":{"type":"HIGHER EDUCATIONAL INSTITUTION"},"geometry":{"type":"Polygon","coordinates":[[[103.7738409,1.3316176],[103.7741077,1.3315796],[103.7741222,1.331683],[103.7741919,1.3316731],[103.774183,1.3316098],[103.7744571,1.3313359],[103.7744719,1.3313552],[103.7742075,1.3316186],[103.7742181,1.3317118],[103.7741975,1.3317143],[103.7742064,1.3317769],[103.7741255,1.3317884],[103.7741221,1.3317647],[103.7738587,1.3318022],[103.7738625,1.3318289],[103.7737735,1.3318416],[103.7737695,1.3318131],[103.7735896,1.3318387],[103.7735642,1.3316581],[103.7737297,1.3316345],[103.7737256,1.3316054],[103.773837,1.3315895],[103.7738409,1.3316176]]]}},{"type":"Feature","properties":{"type":"HIGHER EDUCATIONAL INSTITUTION"},"geometry":{"type":"Polygon","coordinates":[[[103.7749024,1.3314585],[103.7752133,1.3314215],[103.7752276,1.3315425],[103.7752425,1.3315407],[103.7752311,1.331444],[103.7752994,1.3314358],[103.7753074,1.3315045],[103.7752939,1.3315061],[103.7753021,1.3315763],[103.7752523,1.3315823],[103.7752584,1.3316342],[103.7754038,1.3316169],[103.7754333,1.3318686],[103.7753623,1.331877],[103.775367,1.3319169],[103.7753044,1.3319244],[103.7753087,1.3319614],[103.7749569,1.3320032],[103.7749387,1.3318481],[103.7748364,1.3318602],[103.7748252,1.331765],[103.7748556,1.3317614],[103.7748532,1.3317406],[103.7749127,1.3317335],[103.7749097,1.3317079],[103.7747813,1.3317232],[103.7747779,1.3316947],[103.7747002,1.3317039],[103.7746753,1.3314918],[103.774817,1.3314749],[103.7748125,1.3314367],[103.7748986,1.3314265],[103.7749024,1.3314585]]]}},{"type":"Feature","properties":{"type":"HIGHER EDUCATIONAL INSTITUTION"},"geometry":{"type":"Polygon","coordinates":[[[103.7743177,1.3318298],[103.7743065,1.3317487],[103.7742044,1.3317624],[103.774201,1.3317389],[103.7742275,1.3317353],[103.7742121,1.3316193],[103.7743567,1.3315999],[103.7743644,1.3316579],[103.774426,1.3316497],[103.7744407,1.3317608],[103.7743337,1.3317752],[103.7743405,1.3318266],[103.7743177,1.3318298]]]}},{"type":"Feature","properties":{"type":"HIGHER EDUCATIONAL INSTITUTION"},"geometry":{"type":"Polygon","coordinates":[[[103.7762648,1.3317341],[103.7762699,1.331769],[103.7762944,1.3317636],[103.7763492,1.3317948],[103.7763355,1.331819],[103.7762882,1.3317924],[103.7762737,1.3317944],[103.7762802,1.331838],[103.7762225,1.3318457],[103.7762327,1.3319175],[103.7760671,1.3322095],[103.7755871,1.3319404],[103.7755555,1.3317212],[103.7757247,1.3316985],[103.7757205,1.3316679],[103.7758338,1.3316511],[103.7758389,1.3316833],[103.7761917,1.3316299],[103.7762098,1.3317413],[103.7762648,1.3317341]]]}},{"type":"Feature","properties":{"type":"HIGHER EDUCATIONAL INSTITUTION"},"geometry":{"type":"Polygon","coordinates":[[[103.7738435,1.331891],[103.7739076,1.3320244],[103.7738929,1.3320236],[103.7738799,1.3320146],[103.7738379,1.3319233],[103.7738368,1.3319097],[103.7738435,1.331891]]]}},{"type":"Feature","properties":{"type":"HIGHER EDUCATIONAL INSTITUTION"},"geometry":{"type":"Polygon","coordinates":[[[103.7761138,1.3321271],[103.7761502,1.3321481],[103.7765306,1.3314727],[103.7766334,1.3315313],[103.7766488,1.331504],[103.7767773,1.3315985],[103.7768348,1.3316142],[103.7768215,1.3316377],[103.7770251,1.3317539],[103.77689,1.3319938],[103.7767288,1.3319018],[103.7766789,1.3319905],[103.7767974,1.3320581],[103.7767156,1.3322034],[103.7766145,1.3321458],[103.776565,1.3322336],[103.7766258,1.3322684],[103.7765016,1.3324889],[103.7761819,1.3323065],[103.7761864,1.3322984],[103.77615,1.3322588],[103.7761276,1.3322983],[103.7760829,1.3322726],[103.7761348,1.3321811],[103.7760959,1.3321587],[103.7761138,1.3321271]]]}},{"type":"Feature","properties":{"type":"HDB"},"geometry":{"type":"Polygon","coordinates":[[[103.8054579,1.3158698],[103.8057146,1.3161074],[103.8057224,1.3161004],[103.8057738,1.3161474],[103.8057675,1.3161555],[103.806024,1.3163925],[103.8058156,1.31662],[103.8055573,1.316383],[103.8055499,1.3163911],[103.8055003,1.3163448],[103.8055063,1.3163358],[103.8052495,1.3160977],[103.8054579,1.3158698]]]}},{"type":"Feature","properties":{"type":"HDB"},"geometry":{"type":"Polygon","coordinates":[[[103.8050628,1.3159576],[103.8050466,1.3159575],[103.8050466,1.3159277],[103.8050828,1.3159278],[103.8050827,1.3159121],[103.8051725,1.3159122],[103.8051722,1.3161379],[103.8051907,1.3161379],[103.8051977,1.3161594],[103.8051834,1.3161752],[103.8056885,1.3166416],[103.8056792,1.3166517],[103.805703,1.3166737],[103.8056689,1.316711],[103.8056452,1.3166891],[103.8056285,1.3167074],[103.8056181,1.3166978],[103.805593,1.3167251],[103.8055715,1.3167052],[103.8055842,1.3166916],[103.8055657,1.3166745],[103.8055531,1.3166882],[103.8055317,1.3166684],[103.8055566,1.3166413],[103.8055371,1.3166232],[103.8055122,1.3166504],[103.8054908,1.3166307],[103.8055034,1.316617],[103.8054851,1.3166001],[103.8054725,1.3166138],[103.8054508,1.3165937],[103.8054757,1.3165668],[103.8054361,1.3165302],[103.8054113,1.3165572],[103.8053898,1.3165374],[103.8054024,1.3165238],[103.805384,1.3165067],[103.8053713,1.3165204],[103.8053499,1.3165006],[103.8053747,1.3164736],[103.8053551,1.3164555],[103.8053303,1.3164825],[103.8053091,1.3164629],[103.8053217,1.3164492],[103.8053031,1.316432],[103.8052905,1.3164456],[103.805269,1.3164258],[103.8052939,1.3163987],[103.8052744,1.3163807],[103.8052495,1.3164078],[103.8052279,1.3163879],[103.8052405,1.3163743],[103.8052222,1.3163573],[103.8052095,1.3163709],[103.805188,1.3163511],[103.8052131,1.3163238],[103.8051937,1.3163059],[103.8051686,1.3163332],[103.8051474,1.3163136],[103.80516,1.3162999],[103.8051414,1.3162827],[103.8051287,1.3162963],[103.8051074,1.3162766],[103.8051311,1.3162509],[103.8051221,1.3162425],[103.805111,1.3162546],[103.8050628,1.3162099],[103.8050447,1.3162098],[103.8050448,1.3161287],[103.8050823,1.3161288],[103.8050823,1.3161252],[103.8050463,1.3161251],[103.8050463,1.3160948],[103.8050626,1.3160949],[103.8050626,1.3160695],[103.8050464,1.3160694],[103.8050464,1.3160399],[103.8050831,1.3160401],[103.8050831,1.3160127],[103.8050465,1.3160126],[103.8050465,1.3159831],[103.8050628,1.3159832],[103.8050628,1.3159576]]]}},{"type":"Feature","properties":{"type":"HDB"},"geometry":{"type":"Polygon","coordinates":[[[103.8059058,1.3166589],[103.8061064,1.316439],[103.8064573,1.3167631],[103.8062567,1.316983],[103.8059058,1.3166589]]]}},{"type":"Feature","properties":{"type":"HDB"},"geometry":{"type":"Polygon","coordinates":[[[103.8066955,1.3171296],[103.8067685,1.3171506],[103.8067727,1.317136],[103.8067873,1.3171355],[103.8067927,1.3171418],[103.806798,1.3171433],[103.8067939,1.3171579],[103.8067981,1.3171591],[103.8068048,1.3171356],[103.8068319,1.3171434],[103.8068252,1.3171669],[103.8068294,1.3171681],[103.8068336,1.3171535],[103.8068494,1.3171531],[103.8068533,1.3171591],[103.8068588,1.3171607],[103.8068547,1.3171753],[103.8069275,1.3171962],[103.8069034,1.3172815],[103.8068446,1.3172646],[103.8068339,1.3173022],[103.8068928,1.3173192],[103.8068688,1.3174044],[103.8067957,1.3173832],[103.8067915,1.317398],[103.8067779,1.3173985],[103.8067663,1.3173908],[103.8067705,1.317376],[103.8067662,1.3173747],[103.8067596,1.3173982],[103.8067325,1.3173905],[103.8067391,1.317367],[103.8067349,1.3173658],[103.8067307,1.3173805],[103.8067152,1.317381],[103.8067107,1.3173748],[103.8067054,1.3173732],[103.8067095,1.3173585],[103.8066362,1.3173376],[103.8066605,1.3172525],[103.8067194,1.3172694],[103.8067301,1.3172317],[103.8066712,1.3172148],[103.8066955,1.3171296]]]}},{"type":"Feature","properties":{"type":"HDB"},"geometry":{"type":"Polygon","coordinates":[[[103.8069529,1.3176706],[103.8069835,1.3176795],[103.8069882,1.3176633],[103.8070013,1.3176671],[103.8070005,1.3176701],[103.8070533,1.3176853],[103.8070589,1.3176659],[103.807109,1.3176803],[103.8071034,1.3176998],[103.8071565,1.3177151],[103.8071574,1.317712],[103.8071821,1.3177191],[103.8071812,1.3177222],[103.8072336,1.3177373],[103.8072391,1.3177179],[103.8072892,1.3177324],[103.8072837,1.3177518],[103.8073369,1.3177672],[103.8073377,1.3177643],[103.8073619,1.3177712],[103.8073611,1.3177741],[103.8074144,1.3177895],[103.8074199,1.3177701],[103.80747,1.3177846],[103.8074645,1.317804],[103.8075144,1.3178184],[103.8075199,1.317799],[103.80757,1.3178134],[103.8075653,1.3178299],[103.8075714,1.3178316],[103.8075472,1.3179165],[103.8075071,1.3179018],[103.8075033,1.3179151],[103.8074773,1.3179077],[103.8074812,1.3178943],[103.8073507,1.3178566],[103.8073469,1.31787],[103.8072985,1.317856],[103.8073023,1.3178426],[103.80717,1.3178044],[103.8071662,1.3178178],[103.8071178,1.3178039],[103.8071216,1.3177905],[103.8069907,1.3177527],[103.8069869,1.3177661],[103.806961,1.3177586],[103.8069697,1.3177282],[103.806939,1.3177193],[103.8069529,1.3176706]]]}},{"type":"Feature","properties":{"type":"HDB"},"geometry":{"type":"Polygon","coordinates":[[[103.8084426,1.3186273],[103.8084417,1.3186476],[103.8084379,1.3186511],[103.8084526,1.3186675],[103.8084549,1.3186654],[103.8084893,1.3187037],[103.808487,1.3187058],[103.8085019,1.3187224],[103.8085057,1.318719],[103.808526,1.3187199],[103.808547,1.3187433],[103.8085601,1.3187526],[103.8085656,1.318764],[103.8085867,1.3187874],[103.8085858,1.3188072],[103.8085815,1.3188111],[103.8085967,1.318828],[103.808599,1.3188259],[103.8086284,1.3188633],[103.8086328,1.3188593],[103.8086524,1.3188603],[103.8086734,1.3188836],[103.8086863,1.3188929],[103.8086922,1.3189046],[103.8087099,1.3189242],[103.8086952,1.3189377],[103.8087231,1.3189688],[103.8087253,1.3189667],[103.8087343,1.3189767],[103.8086711,1.3190343],[103.8080209,1.3183113],[103.8080471,1.3182874],[103.8080397,1.3182791],[103.8080143,1.3182629],[103.8080035,1.3183008],[103.80746,1.318144],[103.8074837,1.3180608],[103.8074968,1.3180647],[103.8074959,1.3180677],[103.8075353,1.3180794],[103.8075407,1.3180605],[103.8075656,1.3180676],[103.8075829,1.3180684],[103.8075932,1.3180755],[103.8076232,1.3180841],[103.8076325,1.3181017],[103.8076312,1.3181064],[103.807677,1.3181166],[103.8076763,1.3181194],[103.8076976,1.3181255],[103.8076991,1.3181205],[103.8077164,1.3181108],[103.8077462,1.3181193],[103.8077614,1.3181193],[103.8077736,1.3181272],[103.8078036,1.3181358],[103.8078133,1.3181535],[103.807812,1.3181583],[103.8078578,1.3181684],[103.807857,1.3181712],[103.8078782,1.3181772],[103.8078795,1.3181726],[103.807897,1.3181626],[103.8079278,1.3181714],[103.8079404,1.3181713],[103.807954,1.3181789],[103.8079841,1.3181876],[103.8079936,1.3182052],[103.8079921,1.3182104],[103.8080136,1.3182163],[103.8080144,1.3182134],[103.8080274,1.318217],[103.8080265,1.3182199],[103.8080471,1.3182256],[103.8080479,1.3182227],[103.8080618,1.3182265],[103.8080713,1.3182371],[103.808069,1.3182392],[103.808083,1.3182548],[103.8080853,1.3182527],[103.8080942,1.3182627],[103.8080919,1.3182648],[103.8081067,1.3182813],[103.80811,1.3182783],[103.8081296,1.3182793],[103.8081501,1.3183021],[103.8081622,1.3183093],[103.8081697,1.3183239],[103.8081902,1.3183467],[103.808189,1.3183665],[103.8081857,1.3183696],[103.8082208,1.3184041],[103.8082185,1.3184062],[103.8082335,1.3184229],[103.8082371,1.3184196],[103.8082566,1.3184205],[103.8082775,1.3184438],[103.8082894,1.3184516],[103.8082962,1.3184645],[103.8083172,1.3184879],[103.8083159,1.3185081],[103.8083125,1.3185112],[103.8083462,1.3185441],[103.8083439,1.3185462],[103.8083585,1.3185626],[103.8083623,1.3185591],[103.8083821,1.3185601],[103.8084029,1.3185832],[103.8084143,1.3185902],[103.8084213,1.3186037],[103.8084426,1.3186273]]]}},{"type":"Feature","properties":{"type":"HDB"},"geometry":{"type":"Polygon","coordinates":[[[103.807883,1.3187327],[103.8078734,1.3187155],[103.8078532,1.3186929],[103.8078556,1.3186731],[103.8078404,1.3186561],[103.8078208,1.3186566],[103.807801,1.3186345],[103.807787,1.3186252],[103.8077795,1.3186104],[103.8077622,1.318591],[103.8077755,1.3185789],[103.8077521,1.3185574],[103.8078225,1.3184925],[103.8085091,1.3192612],[103.8085193,1.3192646],[103.8085434,1.3192659],[103.8085432,1.319269],[103.8085612,1.31927],[103.8085614,1.3192669],[103.8089916,1.3192904],[103.8089866,1.3193867],[103.8089548,1.3193819],[103.8089538,1.3194002],[103.8089275,1.3193988],[103.8089136,1.3194021],[103.808897,1.3193971],[103.8088659,1.3193954],[103.808853,1.3193794],[103.8088309,1.3193782],[103.8088165,1.3193927],[103.8087861,1.319391],[103.8087709,1.3193941],[103.8087548,1.3193893],[103.808724,1.3193876],[103.8087111,1.3193717],[103.8086883,1.3193704],[103.8086742,1.3193849],[103.8086441,1.3193833],[103.8086252,1.3193864],[103.8086113,1.3193815],[103.8085812,1.3193799],[103.8085687,1.3193639],[103.8084697,1.3193585],[103.8084306,1.3193149],[103.8084091,1.3193152],[103.8083885,1.3192921],[103.8083757,1.3192832],[103.8083682,1.3192694],[103.8083477,1.3192465],[103.8083503,1.3192255],[103.8083351,1.3192085],[103.8083138,1.3192085],[103.8082936,1.3191859],[103.8082793,1.3191759],[103.8082733,1.3191632],[103.8082524,1.3191398],[103.8082548,1.3191192],[103.8082382,1.3191006],[103.8082174,1.3191006],[103.8081973,1.3190781],[103.8081836,1.3190685],[103.8081762,1.3190545],[103.8081559,1.3190317],[103.8081582,1.3190115],[103.808143,1.3189945],[103.8081225,1.3189944],[103.8081029,1.3189725],[103.8080901,1.3189642],[103.8080805,1.3189474],[103.8080607,1.3189252],[103.8080634,1.3189055],[103.8080487,1.318889],[103.8080288,1.3188894],[103.8080083,1.3188665],[103.807993,1.3188551],[103.8079871,1.3188428],[103.8079668,1.3188201],[103.8079691,1.3188],[103.8079355,1.3187625],[103.8079156,1.3187628],[103.807896,1.3187409],[103.807883,1.3187327]]]}},{"type":"Feature","properties":{"type":"LANDMARK"},"geometry":{"type":"Polygon","coordinates":[[[103.8128896,1.3296576],[103.8129314,1.3295939],[103.8130016,1.3296404],[103.8129557,1.3297105],[103.8129934,1.3297355],[103.8129875,1.3297445],[103.8130451,1.3297827],[103.8129578,1.3299162],[103.8129713,1.3299252],[103.8129569,1.3299473],[103.8129024,1.3299111],[103.8129529,1.3298339],[103.8129825,1.3298535],[103.8130254,1.3297881],[103.8129778,1.3297566],[103.8129727,1.3297645],[103.8129318,1.3297374],[103.8128848,1.3298093],[103.8128183,1.3297652],[103.8128603,1.329701],[103.8128331,1.3296829],[103.8128617,1.3296392],[103.8128896,1.3296576]]]}},{"type":"Feature","properties":{"type":"LANDMARK"},"geometry":{"type":"Polygon","coordinates":[[[103.8126645,1.3300428],[103.8127478,1.3300483],[103.8127419,1.3301394],[103.8127882,1.3301425],[103.8127876,1.330151],[103.8128241,1.3301534],[103.8128187,1.3302373],[103.8128501,1.3302394],[103.8128461,1.3303016],[103.8128662,1.3303029],[103.8128644,1.3303308],[103.8127952,1.3303262],[103.8128056,1.3301655],[103.8127873,1.3301643],[103.8127866,1.3301741],[103.812736,1.3301707],[103.8127304,1.3302565],[103.8126486,1.3302512],[103.8126537,1.3301726],[103.8126209,1.3301704],[103.8126244,1.3301156],[103.8126596,1.3301179],[103.8126645,1.3300428]]]}},{"type":"Feature","properties":{"type":"LANDMARK"},"geometry":{"type":"Polygon","coordinates":[[[103.8126257,1.330539],[103.8127138,1.3305582],[103.8127086,1.3305823],[103.8126987,1.3305802],[103.8126888,1.3306261],[103.8127402,1.3306373],[103.8127374,1.3306505],[103.8127706,1.3306577],[103.8127688,1.3307184],[103.8127886,1.3307229],[103.8127732,1.3307916],[103.8127985,1.3307973],[103.8127923,1.3308251],[103.812769,1.3308198],[103.8127594,1.3308627],[103.8127138,1.3308524],[103.8127454,1.3307111],[103.8127544,1.3307111],[103.8127563,1.3306648],[103.8127339,1.3306594],[103.8127311,1.3306711],[103.8126817,1.3306592],[103.81267,1.3307084],[103.8126793,1.3307106],[103.8126734,1.3307355],[103.8125867,1.3307148],[103.8126007,1.3306554],[103.8125647,1.3306467],[103.8125773,1.3305933],[103.8126124,1.3306006],[103.8126257,1.330539]]]}},{"type":"Feature","properties":{"type":"LANDMARK"},"geometry":{"type":"Polygon","coordinates":[[[103.8124465,1.330965],[103.8125237,1.3310079],[103.8125115,1.3310302],[103.8125039,1.331026],[103.812478,1.331073],[103.8125236,1.3310984],[103.8125207,1.3311037],[103.8125478,1.3311188],[103.8125158,1.3311769],[103.8125492,1.3311955],[103.8125121,1.3312631],[103.8125318,1.331274],[103.8125165,1.3313018],[103.8124973,1.3312911],[103.8124783,1.3313255],[103.812434,1.3313008],[103.8125326,1.3311255],[103.8125154,1.331116],[103.8125095,1.3311268],[103.8124644,1.3311017],[103.8124393,1.3311475],[103.8124444,1.3311504],[103.8124337,1.3311698],[103.8123591,1.3311283],[103.8123888,1.3310743],[103.8123587,1.3310575],[103.8123881,1.331004],[103.8124168,1.3310197],[103.8124465,1.330965]]]}},{"type":"Feature","properties":{"type":"LANDMARK"},"geometry":{"type":"Polygon","coordinates":[[[103.8126548,1.3314912],[103.8127249,1.3314912],[103.8127249,1.3314613],[103.8127033,1.3314314],[103.8127148,1.331423],[103.8126928,1.3313926],[103.8127464,1.3313534],[103.8127379,1.3313417],[103.8127559,1.3313285],[103.8127935,1.3313805],[103.8127242,1.3314313],[103.8127414,1.3314552],[103.8127402,1.331493],[103.8127465,1.3314932],[103.8127459,1.3315139],[103.8127996,1.3315156],[103.8127971,1.3315977],[103.8127205,1.3315953],[103.8127194,1.3316297],[103.8126746,1.3316297],[103.8126746,1.3315889],[103.8125981,1.3315889],[103.8125981,1.3315084],[103.8126548,1.3315084],[103.8126548,1.3314912]]]}},{"type":"Feature","properties":{"type":"LANDMARK"},"geometry":{"type":"Polygon","coordinates":[[[103.8120373,1.3314145],[103.8120951,1.331401],[103.8121031,1.3314355],[103.8121645,1.3314212],[103.8121839,1.3315052],[103.812161,1.3315105],[103.8121592,1.3315026],[103.8121068,1.3315149],[103.8121182,1.3315642],[103.8121107,1.331566],[103.8121189,1.3316013],[103.8120496,1.3316176],[103.8120569,1.3316491],[103.8119826,1.3316665],[103.8119885,1.3316918],[103.8119604,1.3316984],[103.8119544,1.3316724],[103.811917,1.3316812],[103.8119062,1.3316345],[103.8120476,1.3316013],[103.8120496,1.33161],[103.8121052,1.331597],[103.8120985,1.3315682],[103.8120908,1.33157],[103.8120794,1.3315207],[103.8120317,1.331532],[103.8120336,1.3315405],[103.8120066,1.3315468],[103.8119876,1.3314647],[103.8120457,1.331451],[103.8120373,1.3314145]]]}},{"type":"Feature","properties":{"type":"HIGHER EDUCATIONAL INSTITUTION"},"geometry":{"type":"Polygon","coordinates":[[[103.7999547,1.3257035],[103.7999835,1.3257035],[103.8000119,1.3257086],[103.8000389,1.3257186],[103.8000696,1.3257374],[103.8000449,1.3257923],[103.8000806,1.325823],[103.8001145,1.3258657],[103.8001777,1.3258355],[103.800158,1.3258045],[103.8002522,1.3257371],[103.800285,1.3257894],[103.8003082,1.3258467],[103.8003213,1.3259071],[103.8003237,1.3259689],[103.8003175,1.3260201],[103.8002014,1.3259964],[103.8002042,1.3259675],[103.8001434,1.3259666],[103.8001419,1.3259986],[103.800135,1.3260298],[103.8001227,1.3260593],[103.8001056,1.3260863],[103.8000841,1.3261098],[103.8000588,1.3261293],[103.8000306,1.326144],[103.8000002,1.3261535],[103.7999496,1.3261574],[103.7999492,1.3262163],[103.7999964,1.3262208],[103.8000246,1.3262168],[103.8000517,1.3262079],[103.8000768,1.3261945],[103.800157,1.3263472],[103.8000822,1.3263727],[103.8000042,1.3263847],[103.7999252,1.3263828],[103.7998478,1.3263672],[103.7997742,1.3263383],[103.7997068,1.326297],[103.7996475,1.3262446],[103.7995857,1.3261626],[103.7997222,1.3260829],[103.7997585,1.3261227],[103.7998164,1.3261696],[103.7998548,1.3261282],[103.7998258,1.3261051],[103.7998012,1.3260774],[103.7997818,1.3260458],[103.7997681,1.3260113],[103.7997606,1.3259749],[103.7997595,1.3259377],[103.7997648,1.325901],[103.7997818,1.325854],[103.7997246,1.3258226],[103.7997117,1.3258474],[103.7996052,1.3257945],[103.7996412,1.3257326],[103.7996875,1.3256779],[103.7997424,1.3256322],[103.7998079,1.3255952],[103.7998464,1.3257101],[103.7998236,1.325725],[103.7998487,1.3257835],[103.7998822,1.3257702],[103.7999174,1.325763],[103.7999509,1.3257619],[103.7999547,1.3257035]]]}},{"type":"Feature","properties":{"type":"LANDMARK"},"geometry":{"type":"Polygon","coordinates":[[[103.7976056,1.3402059],[103.7974972,1.3397316],[103.7975732,1.3397148],[103.7976834,1.3401854],[103.7976056,1.3402059]]]}},{"type":"Feature","properties":{"type":"LANDMARK"},"geometry":{"type":"Polygon","coordinates":[[[103.7977297,1.340234],[103.7976214,1.3397521],[103.7976937,1.3397391],[103.7978057,1.3402191],[103.7977297,1.340234]]]}},{"type":"Feature","properties":{"type":"LANDMARK"},"geometry":{"type":"Polygon","coordinates":[[[103.7980283,1.3407472],[103.7977661,1.3403377],[103.7978288,1.3402965],[103.7980933,1.3407085],[103.7980283,1.3407472]]]}},{"type":"Feature","properties":{"type":"LANDMARK"},"geometry":{"type":"Polygon","coordinates":[[[103.7978887,1.3407544],[103.7976313,1.34034],[103.7976915,1.3403013],[103.7979513,1.3407157],[103.7978887,1.3407544]]]}},{"type":"Feature","properties":{"type":"LANDMARK"},"geometry":{"type":"Polygon","coordinates":[[[103.7970626,1.3411848],[103.7971229,1.3407499],[103.7972028,1.3407605],[103.797141,1.3411925],[103.7970626,1.3411848]]]}},{"type":"Feature","properties":{"type":"LANDMARK"},"geometry":{"type":"Polygon","coordinates":[[[103.7971802,1.3411986],[103.7972405,1.3407696],[103.7973188,1.3407788],[103.7972601,1.3412062],[103.7971802,1.3411986]]]}},{"type":"Feature","properties":{"type":"LANDMARK"},"geometry":{"type":"Polygon","coordinates":[[[103.7976016,1.3411735],[103.797571,1.3411631],[103.7975584,1.3411286],[103.7975687,1.3411026],[103.7975954,1.3410938],[103.7976193,1.3411013],[103.7976348,1.3411243],[103.7976311,1.341158],[103.7976016,1.3411735]]]}},{"type":"Feature","properties":{"type":"LANDMARK"},"geometry":{"type":"Polygon","coordinates":[[[103.8137895,1.3294227],[103.8138147,1.3293964],[103.8138619,1.3294422],[103.8138385,1.3294666],[103.8139122,1.3295382],[103.8138591,1.3295935],[103.8137854,1.3295218],[103.8137763,1.3295313],[103.8137629,1.3295182],[103.8137508,1.3295308],[103.8137597,1.3295395],[103.8137381,1.329562],[103.8137116,1.3295363],[103.8137314,1.3295157],[103.8137377,1.3295218],[103.8137508,1.3295082],[103.8137364,1.3294942],[103.8137404,1.32949],[103.813665,1.3294167],[103.8137221,1.3293572],[103.8137895,1.3294227]]]}},{"type":"Feature","properties":{"type":"LANDMARK"},"geometry":{"type":"Polygon","coordinates":[[[103.813612,1.3295155],[103.8136999,1.3295979],[103.8136679,1.3296324],[103.8135996,1.3295684],[103.8135877,1.3295812],[103.8135681,1.3295629],[103.813612,1.3295155]]]}},{"type":"Feature","properties":{"type":"LANDMARK"},"geometry":{"type":"Polygon","coordinates":[[[103.8140418,1.3299554],[103.8140645,1.3300291],[103.8141009,1.3300177],[103.8141213,1.3300843],[103.814092,1.3300935],[103.814116,1.3301717],[103.814031,1.3301982],[103.813997,1.3300873],[103.8139825,1.3300919],[103.8139856,1.3301021],[103.8139544,1.3301117],[103.8139516,1.3301024],[103.8139262,1.3301114],[103.8139506,1.3301748],[103.8138984,1.3301942],[103.8138484,1.3300653],[103.8139004,1.3300449],[103.8139228,1.3301027],[103.8139488,1.3300934],[103.8139452,1.3300816],[103.8139755,1.3300721],[103.8139773,1.3300778],[103.8139869,1.3300748],[103.8139582,1.3299814],[103.8140418,1.3299554]]]}},{"type":"Feature","properties":{"type":"LANDMARK"},"geometry":{"type":"Polygon","coordinates":[[[103.8132013,1.3300013],[103.8132838,1.3299622],[103.8133156,1.3300301],[103.8133379,1.3300205],[103.8133549,1.330064],[103.8133275,1.3300749],[103.8133549,1.3301446],[103.8132748,1.3301764],[103.8132562,1.330129],[103.8132332,1.3301381],[103.8132286,1.3301264],[103.8132172,1.330131],[103.813219,1.3301354],[103.8131923,1.330146],[103.8131964,1.3302849],[103.8131361,1.3302867],[103.8131354,1.3302654],[103.8131488,1.330265],[103.8131469,1.3302016],[103.8131776,1.3302006],[103.8131757,1.3301354],[103.8132119,1.3301183],[103.8132146,1.3301242],[103.8132275,1.3301181],[103.8131957,1.3300502],[103.813219,1.3300391],[103.8132013,1.3300013]]]}},{"type":"Feature","properties":{"type":"LANDMARK"},"geometry":{"type":"Polygon","coordinates":[[[103.814125,1.3305009],[103.8142134,1.3304961],[103.8142176,1.3305744],[103.8142494,1.3305735],[103.8142529,1.330645],[103.8142167,1.3306469],[103.8142205,1.3307229],[103.8141369,1.3307271],[103.8141315,1.3306188],[103.8141144,1.3306196],[103.8141153,1.3306296],[103.8140856,1.3306323],[103.8140839,1.3306205],[103.8140731,1.3306241],[103.8140648,1.3308025],[103.8139958,1.3307993],[103.8139967,1.33078],[103.8140109,1.3307807],[103.8140139,1.3307148],[103.8140505,1.3307165],[103.8140556,1.330606],[103.814083,1.3306042],[103.814083,1.3305969],[103.8141127,1.3305933],[103.8141145,1.3306051],[103.8141306,1.3306042],[103.814125,1.3305009]]]}},{"type":"Feature","properties":{"type":"LANDMARK"},"geometry":{"type":"Polygon","coordinates":[[[103.8133358,1.3305708],[103.8134193,1.3305773],[103.8134136,1.3306528],[103.8134483,1.3306554],[103.8134452,1.3306971],[103.8134117,1.3306945],[103.8134061,1.3307681],[103.8133187,1.3307586],[103.813324,1.3307091],[103.8133073,1.3307073],[103.8133086,1.3306959],[103.8132854,1.3306934],[103.8132848,1.3306987],[103.8132596,1.3306959],[103.8132368,1.3307433],[103.8132445,1.330747],[103.8132056,1.3308277],[103.8131488,1.3307999],[103.8131578,1.3307813],[103.8131672,1.3307859],[103.8131966,1.3307249],[103.8132263,1.3307394],[103.8132553,1.3306793],[103.8132865,1.3306817],[103.8132862,1.3306856],[103.8133079,1.3306873],[103.8133134,1.3306146],[103.8133324,1.330616],[103.8133358,1.3305708]]]}},{"type":"Feature","properties":{"type":"LANDMARK"},"geometry":{"type":"Polygon","coordinates":[[[103.814097,1.3310212],[103.81418,1.3310457],[103.8141583,1.3311203],[103.8141919,1.3311302],[103.8141721,1.3311981],[103.8141328,1.3311865],[103.8141107,1.3312623],[103.8140333,1.3312394],[103.8140652,1.3311297],[103.8140506,1.3311254],[103.8140473,1.3311366],[103.8140181,1.331128],[103.8140216,1.3311156],[103.8140028,1.3311101],[103.814018,1.3310139],[103.813981,1.331008],[103.8139908,1.3309455],[103.8139719,1.3309425],[103.8139776,1.3309065],[103.8140406,1.3309165],[103.8140119,1.3310987],[103.8140267,1.3311031],[103.814029,1.3310954],[103.8140579,1.3311039],[103.8140549,1.3311141],[103.8140687,1.3311182],[103.814097,1.3310212]]]}},{"type":"Feature","properties":{"type":"LANDMARK"},"geometry":{"type":"Polygon","coordinates":[[[103.8115439,1.3318051],[103.8115716,1.3318317],[103.8115459,1.331864],[103.8115162,1.3318383],[103.8114671,1.3318906],[103.8114032,1.33183],[103.8114351,1.331796],[103.8114048,1.3317681],[103.8113581,1.3318175],[103.8113254,1.3318087],[103.8113281,1.3319644],[103.8112778,1.3319653],[103.8112765,1.3318951],[103.8112517,1.3318956],[103.8112512,1.3318671],[103.8112768,1.3318667],[103.8112761,1.3317907],[103.8113238,1.3317924],[103.8113247,1.3318008],[103.811356,1.3318069],[103.8114094,1.3317488],[103.8114328,1.3317718],[103.8114854,1.3317156],[103.8115015,1.3317317],[103.8115376,1.3316948],[103.8115957,1.3317503],[103.8115439,1.3318051]]]}},{"type":"Feature","properties":{"type":"LANDMARK"},"geometry":{"type":"Polygon","coordinates":[[[103.8122656,1.3319622],[103.812386,1.3319655],[103.8123868,1.3319344],[103.8124633,1.3319365],[103.812464,1.3319105],[103.8124912,1.3319112],[103.8124905,1.3319373],[103.812564,1.3319393],[103.8125628,1.3319848],[103.8123851,1.33198],[103.8123853,1.3319729],[103.812278,1.33197],[103.8122772,1.3320006],[103.8122843,1.3320008],[103.8122835,1.3320326],[103.8122762,1.3320324],[103.8122758,1.3320488],[103.8123752,1.3320515],[103.8123731,1.3321298],[103.8122907,1.3321276],[103.8122897,1.3321655],[103.8122232,1.3321637],[103.8122243,1.3321243],[103.8121431,1.332122],[103.8121453,1.3320419],[103.8122637,1.3320451],[103.812264,1.3320318],[103.8122537,1.3320315],[103.8122546,1.3319988],[103.8122646,1.331999],[103.8122656,1.3319622]]]}},{"type":"Feature","properties":{"type":"LANDMARK"},"geometry":{"type":"Polygon","coordinates":[[[103.8129204,1.3319646],[103.8129258,1.3320045],[103.8129374,1.3320029],[103.8129416,1.3320342],[103.8129348,1.3320351],[103.8129368,1.3320504],[103.8130336,1.3320371],[103.8130449,1.33212],[103.8129681,1.3321306],[103.812973,1.3321666],[103.8129077,1.3321756],[103.8129027,1.3321388],[103.8128205,1.3321501],[103.8128092,1.3320676],[103.812921,1.3320522],[103.812919,1.3320371],[103.8129123,1.332038],[103.8129083,1.3320082],[103.8129175,1.332007],[103.812912,1.3319659],[103.8128331,1.3319768],[103.8128247,1.3319151],[103.8128527,1.3319113],[103.8128546,1.3319253],[103.8129192,1.3319165],[103.8129256,1.3319639],[103.8129204,1.3319646]]]}},{"type":"Feature","properties":{"type":"LANDMARK"},"geometry":{"type":"Polygon","coordinates":[[[103.8114394,1.332339],[103.8112745,1.3323904],[103.8112591,1.3323406],[103.8113247,1.3323202],[103.8113168,1.3322947],[103.8113416,1.332287],[103.8113488,1.3323106],[103.8115818,1.3322386],[103.8115906,1.3322672],[103.8116016,1.3322638],[103.8116103,1.3322922],[103.8116006,1.3322953],[103.8116054,1.3323107],[103.8116962,1.3322825],[103.811721,1.3323632],[103.8116453,1.3323867],[103.8116575,1.3324234],[103.8115936,1.3324433],[103.8115819,1.3324052],[103.8115115,1.3324271],[103.8114873,1.3323483],[103.8115921,1.3323156],[103.8115875,1.3323008],[103.8115768,1.3323041],[103.8115676,1.3322741],[103.8115768,1.3322712],[103.8115721,1.332256],[103.8114278,1.332301],[103.8114394,1.332339]]]}},{"type":"Feature","properties":{"type":"LANDMARK"},"geometry":{"type":"Polygon","coordinates":[[[103.8131602,1.3311672],[103.8131826,1.3311304],[103.8132576,1.3311767],[103.8132203,1.3312378],[103.8132484,1.3312595],[103.8132205,1.3312993],[103.8131861,1.3312749],[103.8131446,1.3313342],[103.8130794,1.3312879],[103.8131131,1.3312396],[103.8130946,1.3312265],[103.813099,1.3312202],[103.8130816,1.3312078],[103.8130777,1.3312133],[103.8130435,1.331189],[103.8129452,1.3312586],[103.8129122,1.3312113],[103.8129321,1.3311972],[103.8129383,1.3312061],[103.8129909,1.3311688],[103.813011,1.3311976],[103.8130459,1.3311728],[103.8130864,1.3311979],[103.8130839,1.3312021],[103.8131029,1.3312138],[103.8131392,1.3311542],[103.8131602,1.3311672]]]}},{"type":"Feature","properties":{"type":"LANDMARK"},"geometry":{"type":"Polygon","coordinates":[[[103.8138214,1.3315837],[103.8138724,1.3315022],[103.8139421,1.3315464],[103.813901,1.3316122],[103.8139303,1.3316308],[103.8138961,1.3316932],[103.8138577,1.3316719],[103.8138229,1.3317356],[103.8137586,1.3316999],[103.8138142,1.3315982],[103.8138001,1.3315903],[103.8137954,1.3315991],[103.8137667,1.3315832],[103.8137731,1.3315715],[103.8137483,1.3315578],[103.8136263,1.3316624],[103.8135841,1.3316126],[103.8136072,1.3315927],[103.8136168,1.331604],[103.8136653,1.3315624],[103.8136874,1.3315885],[103.8137454,1.3315388],[103.8137792,1.3315601],[103.8137882,1.3315456],[103.8138169,1.3315638],[103.8138093,1.331576],[103.8138214,1.3315837]]]}},{"type":"Feature","properties":{"type":"LANDMARK"},"geometry":{"type":"Polygon","coordinates":[[[103.8134666,1.33189],[103.8135579,1.3318552],[103.8135863,1.3319306],[103.8135125,1.3319587],[103.8135255,1.3319932],[103.8134627,1.3320209],[103.8134474,1.3319858],[103.8133814,1.3320148],[103.8133497,1.3319416],[103.8134529,1.3318963],[103.8134464,1.3318814],[103.8134401,1.3318842],[103.813428,1.3318562],[103.8134365,1.3318525],[103.8134215,1.3318178],[103.8134752,1.3317701],[103.8134503,1.3317417],[103.8134958,1.3317013],[103.8134878,1.3316921],[103.8135116,1.3316709],[103.8135538,1.331719],[103.8134392,1.3318208],[103.8134491,1.3318471],[103.8134573,1.3318439],[103.813468,1.3318724],[103.813461,1.3318751],[103.8134666,1.33189]]]}},{"type":"Feature","properties":{"type":"LANDMARK"},"geometry":{"type":"Polygon","coordinates":[[[103.7956139,1.3346223],[103.7958104,1.3347167],[103.7957687,1.3348014],[103.7955722,1.334707],[103.7956139,1.3346223]]]}},{"type":"Feature","properties":{"type":"LANDMARK"},"geometry":{"type":"Polygon","coordinates":[[[103.7959693,1.3346557],[103.796134,1.3347357],[103.7960953,1.3348119],[103.7959305,1.3347319],[103.7959693,1.3346557]]]}},{"type":"Feature","properties":{"type":"LANDMARK"},"geometry":{"type":"Polygon","coordinates":[[[103.7959179,1.3347799],[103.7960941,1.3348643],[103.796063,1.3349296],[103.7958868,1.3348452],[103.7959179,1.3347799]]]}},{"type":"Feature","properties":{"type":"LANDMARK"},"geometry":{"type":"Polygon","coordinates":[[[103.7933282,1.3379942],[103.793732,1.3370669],[103.793971,1.3371717],[103.7935685,1.3381001],[103.7933282,1.3379942]]]}},{"type":"Feature","properties":{"type":"LANDMARK"},"geometry":{"type":"Polygon","coordinates":[[[103.7927759,1.3393735],[103.7927982,1.3393216],[103.7927675,1.3393083],[103.7927826,1.3392729],[103.7928218,1.3392899],[103.7928265,1.3392791],[103.7927471,1.3392447],[103.7928592,1.338989],[103.7926961,1.3389182],[103.7927847,1.3387116],[103.7929457,1.3387813],[103.7929894,1.3386793],[103.7929159,1.3386474],[103.792938,1.3385957],[103.7929612,1.3386058],[103.7929756,1.338572],[103.793026,1.3385939],[103.7931219,1.3383701],[103.7932156,1.338409],[103.7932198,1.3383991],[103.7931818,1.3383826],[103.7931992,1.338342],[103.7932224,1.3383529],[103.7932482,1.3382923],[103.7932624,1.3382984],[103.7932772,1.3382638],[103.7933469,1.338294],[103.7933381,1.3383146],[103.7933955,1.3383395],[103.7933577,1.3384277],[103.7934432,1.3384649],[103.7930512,1.3393793],[103.7929859,1.3393509],[103.7929448,1.3394469],[103.7927759,1.3393735]]]}},{"type":"Feature","properties":{"type":"LANDMARK"},"geometry":{"type":"Polygon","coordinates":[[[103.7924018,1.3397703],[103.7924001,1.3396028],[103.7924972,1.3395993],[103.7924978,1.3396552],[103.7925231,1.3396543],[103.7925237,1.3397119],[103.7924976,1.3397128],[103.7924982,1.3397669],[103.7924018,1.3397703]]]}},{"type":"Feature","properties":{"type":"LANDMARK"},"geometry":{"type":"Polygon","coordinates":[[[103.791803,1.3411722],[103.7917782,1.3411724],[103.791778,1.3411416],[103.7917499,1.3411418],[103.7917496,1.3410992],[103.7918025,1.3410988],[103.7918023,1.3410633],[103.7917308,1.3410638],[103.7917303,1.3409905],[103.7918018,1.34099],[103.7918016,1.3409591],[103.791863,1.3409587],[103.7918632,1.3409896],[103.7919348,1.3409891],[103.7919352,1.3410409],[103.7919655,1.3410407],[103.791966,1.3411095],[103.7919356,1.3411097],[103.7919361,1.3411713],[103.7918645,1.3411718],[103.7918646,1.3411955],[103.7918032,1.3411959],[103.791803,1.3411722]]]}},{"type":"Feature","properties":{"type":"LANDMARK"},"geometry":{"type":"Polygon","coordinates":[[[103.7978915,1.3413058],[103.7978372,1.3412374],[103.7979849,1.3411241],[103.7980412,1.3411925],[103.7978915,1.3413058]]]}},{"type":"Feature","properties":{"type":"LANDMARK"},"geometry":{"type":"Polygon","coordinates":[[[103.7976312,1.341423],[103.7975982,1.3413448],[103.7977672,1.3412764],[103.7978022,1.3413508],[103.7976312,1.341423]]]}},{"type":"Feature","properties":{"type":"LANDMARK"},"geometry":{"type":"Polygon","coordinates":[[[103.7966292,1.3426039],[103.7965895,1.3425509],[103.7966125,1.3425334],[103.7965919,1.342506],[103.7966412,1.3424685],[103.7966601,1.3424937],[103.7967046,1.34246],[103.7967615,1.3425358],[103.7967272,1.3425618],[103.7967811,1.3427439],[103.7967001,1.3427678],[103.7966499,1.3425882],[103.7966292,1.3426039]]]}},{"type":"Feature","properties":{"type":"LANDMARK"},"geometry":{"type":"Polygon","coordinates":[[[103.797171,1.3430207],[103.7972651,1.3429954],[103.7972852,1.343075],[103.7971546,1.34311],[103.7971271,1.3430007],[103.7971635,1.3429909],[103.797171,1.3430207]]]}},{"type":"Feature","properties":{"type":"HIGHER EDUCATIONAL INSTITUTION"},"geometry":{"type":"Polygon","coordinates":[[[103.7740612,1.332215],[103.7740187,1.3319379],[103.7742078,1.3319085],[103.7741983,1.3318464],[103.7742521,1.331838],[103.7742611,1.3318967],[103.7742367,1.3319005],[103.7742753,1.3321817],[103.7740612,1.332215]]]}},{"type":"Feature","properties":{"type":"HIGHER EDUCATIONAL INSTITUTION"},"geometry":{"type":"Polygon","coordinates":[[[103.7739992,1.3322246],[103.7742753,1.3321817],[103.7742367,1.3319005],[103.7742611,1.3318967],[103.774255,1.3318519],[103.7746793,1.3317936],[103.7747065,1.3319939],[103.774672,1.3319986],[103.774716,1.3323344],[103.774635,1.3323454],[103.7746419,1.3323962],[103.7745372,1.3324105],[103.7745391,1.3324249],[103.7741198,1.332482],[103.7739992,1.3322246]]]}},{"type":"Feature","properties":{"type":"HIGHER EDUCATIONAL INSTITUTION"},"geometry":{"type":"Polygon","coordinates":[[[103.7739274,1.3320716],[103.7741946,1.3326416],[103.7741766,1.3326396],[103.7741647,1.3326317],[103.7739194,1.3321113],[103.7739185,1.3320896],[103.7739274,1.3320716]]]}},{"type":"Feature","properties":{"type":"HIGHER EDUCATIONAL INSTITUTION"},"geometry":{"type":"Polygon","coordinates":[[[103.7756336,1.3321959],[103.7756782,1.3322188],[103.7757181,1.3322492],[103.7757513,1.3322851],[103.7757736,1.3323152],[103.7757903,1.3323487],[103.775801,1.3323846],[103.7758053,1.3324218],[103.7758031,1.3324592],[103.7757945,1.3324957],[103.7757779,1.3325336],[103.7757334,1.3325953],[103.7756789,1.3326483],[103.7756198,1.3326889],[103.7755409,1.3327255],[103.7754473,1.3327493],[103.7753436,1.3327594],[103.775264,1.3327509],[103.775187,1.3327287],[103.775115,1.3326933],[103.7750626,1.3326435],[103.7750281,1.3325985],[103.7750128,1.3325544],[103.7750054,1.3325084],[103.775006,1.3324617],[103.7750157,1.3324125],[103.7750467,1.3323545],[103.7750873,1.3323028],[103.7751237,1.3322687],[103.775185,1.332227],[103.7752741,1.3321899],[103.7753893,1.3321655],[103.7754694,1.3321605],[103.7756336,1.3321959]]]}},{"type":"Feature","properties":{"type":"HIGHER EDUCATIONAL INSTITUTION"},"geometry":{"type":"Polygon","coordinates":[[[103.7753956,1.3329858],[103.7754299,1.3331649],[103.7751556,1.3332145],[103.7751599,1.3332447],[103.7747719,1.3333116],[103.774624,1.333359],[103.7745854,1.3333578],[103.7745474,1.333351],[103.7745107,1.3333388],[103.7744761,1.3333215],[103.7744444,1.3332993],[103.7744161,1.3332727],[103.774101,1.3329017],[103.7741461,1.3328672],[103.7741716,1.3328948],[103.7742013,1.332918],[103.7742343,1.332936],[103.7742697,1.3329484],[103.7743066,1.332955],[103.7743442,1.3329555],[103.7743813,1.3329499],[103.774417,1.3329383],[103.7744892,1.3329024],[103.7745302,1.3328895],[103.7745727,1.3328829],[103.7746157,1.3328827],[103.7746583,1.3328888],[103.7747304,1.3329144],[103.7748043,1.3329342],[103.7748795,1.3329481],[103.7749556,1.332956],[103.7750321,1.3329578],[103.7751084,1.3329535],[103.7756186,1.3328694],[103.7755919,1.3327018],[103.7756341,1.332679],[103.7756749,1.3329398],[103.7753956,1.3329858]]]}},{"type":"Feature","properties":{"type":"HIGHER EDUCATIONAL INSTITUTION"},"geometry":{"type":"Polygon","coordinates":[[[103.7757173,1.3329923],[103.7758612,1.3329783],[103.7759275,1.3329847],[103.7760175,1.3330134],[103.7761425,1.3330772],[103.7762003,1.3331268],[103.7762487,1.3331858],[103.7762784,1.3332361],[103.7763263,1.3333323],[103.7763471,1.3333946],[103.7762204,1.3334358],[103.7761988,1.333365],[103.7761653,1.333299],[103.7761209,1.3332399],[103.7760539,1.3331795],[103.7759124,1.3331159],[103.7757885,1.3331109],[103.7754814,1.3331561],[103.7754671,1.3330337],[103.7757173,1.3329923]]]}},{"type":"Feature","properties":{"type":"HIGHER EDUCATIONAL INSTITUTION"},"geometry":{"type":"Polygon","coordinates":[[[103.7737617,1.3336579],[103.7740211,1.3333235],[103.773985,1.3332956],[103.7739169,1.3333859],[103.7737327,1.3332454],[103.7736824,1.3333122],[103.773745,1.3333599],[103.7735877,1.333569],[103.7734407,1.333457],[103.7735974,1.3332488],[103.773608,1.3332569],[103.7736313,1.333226],[103.7735882,1.3331931],[103.7735816,1.333202],[103.7735664,1.3331904],[103.7735999,1.3331458],[103.7735552,1.3331117],[103.7736674,1.3329626],[103.7739415,1.3331717],[103.7739711,1.3331323],[103.7739901,1.3331468],[103.7739608,1.3331857],[103.7740287,1.3332374],[103.7740132,1.3332584],[103.7740493,1.3332865],[103.7740899,1.3332337],[103.7742961,1.3333955],[103.7739547,1.3338488],[103.7738966,1.3338086],[103.7738093,1.333926],[103.7736484,1.3338009],[103.7737412,1.3336807],[103.7736876,1.3336378],[103.7737036,1.333615],[103.7737617,1.3336579]]]}},{"type":"Feature","properties":{"type":"HIGHER EDUCATIONAL INSTITUTION"},"geometry":{"type":"Polygon","coordinates":[[[103.7765543,1.3337772],[103.776528,1.3335877],[103.776552,1.3335636],[103.7765356,1.3335514],[103.7765985,1.3334662],[103.7766531,1.333507],[103.7765903,1.3335922],[103.776572,1.3335786],[103.7765559,1.3335948],[103.7765827,1.3337743],[103.7765543,1.3337772]]]}},{"type":"Feature","properties":{"type":"HIGHER EDUCATIONAL INSTITUTION"},"geometry":{"type":"Polygon","coordinates":[[[103.7768258,1.3332727],[103.7770953,1.3332364],[103.7770918,1.3332102],[103.7771662,1.3332001],[103.7771697,1.3332264],[103.7773173,1.3332065],[103.7773238,1.3332547],[103.7773646,1.3332516],[103.7773633,1.3332182],[103.7775038,1.3331524],[103.7775034,1.3331821],[103.7773867,1.3332357],[103.7773883,1.3332724],[103.7773266,1.3332774],[103.7773467,1.3334278],[103.7770808,1.3337835],[103.7770026,1.333794],[103.7770055,1.3338159],[103.7769334,1.3338256],[103.7769308,1.3338054],[103.7766441,1.3338466],[103.7766546,1.3339166],[103.7766268,1.3339208],[103.7766541,1.3341125],[103.7766431,1.334114],[103.776654,1.3341912],[103.7766119,1.3341972],[103.7765673,1.3338807],[103.7764967,1.3338907],[103.7764933,1.3338667],[103.7761355,1.3339171],[103.7761387,1.3339405],[103.7760797,1.3339489],[103.7760765,1.3339261],[103.7758932,1.3339519],[103.7758719,1.3337988],[103.7760208,1.3337778],[103.7760171,1.3337513],[103.7761108,1.333738],[103.7761327,1.3337629],[103.7764541,1.3337176],[103.7764521,1.3336957],[103.7764744,1.3336928],[103.7764721,1.3336744],[103.7765035,1.3336704],[103.7765062,1.3336912],[103.7765428,1.3336865],[103.7765543,1.3337772],[103.7766598,1.3337665],[103.7766265,1.3335431],[103.7768258,1.3332727]]]}},{"type":"Feature","properties":{"type":"HIGHER EDUCATIONAL INSTITUTION"},"geometry":{"type":"Polygon","coordinates":[[[103.7751032,1.3342029],[103.7750797,1.3340008],[103.7751572,1.3339896],[103.7751249,1.3337456],[103.7750345,1.3337577],[103.7750396,1.3337955],[103.774583,1.3338568],[103.7745715,1.3337702],[103.7744231,1.3337901],[103.7743985,1.3336046],[103.774569,1.3335817],[103.7745647,1.3335488],[103.7747129,1.3335289],[103.7747174,1.3335629],[103.7750954,1.3335121],[103.7750857,1.3334382],[103.7753429,1.3334037],[103.7753409,1.3333884],[103.7753835,1.3333823],[103.7753793,1.3333527],[103.7754872,1.3333375],[103.7754913,1.3333671],[103.7756664,1.3333423],[103.7756685,1.3333576],[103.7757812,1.3333407],[103.7757937,1.3334303],[103.775877,1.3335003],[103.7759143,1.3337929],[103.7758719,1.3337988],[103.7758445,1.333591],[103.7756563,1.3336159],[103.7757146,1.3340614],[103.7752058,1.3341288],[103.7752129,1.3341899],[103.7751032,1.3342029]]]}},{"type":"Feature","properties":{"type":"HIGHER EDUCATIONAL INSTITUTION"},"geometry":{"type":"Polygon","coordinates":[[[103.7747128,1.333853],[103.7749777,1.3338176],[103.7750504,1.3338846],[103.7749053,1.3340442],[103.7748205,1.3340567],[103.7746492,1.3339311],[103.7747128,1.333853]]]}},{"type":"Feature","properties":{"type":"HIGHER EDUCATIONAL INSTITUTION"},"geometry":{"type":"Polygon","coordinates":[[[103.7765376,1.3338849],[103.7765673,1.3338807],[103.7766119,1.3341972],[103.7765933,1.3341999],[103.7765887,1.3341673],[103.7765777,1.3341689],[103.7765376,1.3338849]]]}},{"type":"Feature","properties":{"type":"HIGHER EDUCATIONAL INSTITUTION"},"geometry":{"type":"Polygon","coordinates":[[[103.7744523,1.3344053],[103.7744689,1.3343815],[103.7741624,1.3341789],[103.774213,1.3341013],[103.7742304,1.3341128],[103.7742909,1.3340201],[103.7742757,1.3340101],[103.7743084,1.3339605],[103.774324,1.3339496],[103.7743428,1.3339478],[103.7743548,1.3339519],[103.7745068,1.3340525],[103.7745143,1.334041],[103.7747955,1.3342269],[103.7747392,1.3343132],[103.7747196,1.3343002],[103.774659,1.3343931],[103.7746788,1.3344062],[103.7746511,1.3344486],[103.77464,1.3344578],[103.7746195,1.334464],[103.7746052,1.3344626],[103.7745735,1.3344424],[103.7745786,1.3344826],[103.7745715,1.3344854],[103.7744548,1.3344099],[103.7744523,1.3344053]]]}},{"type":"Feature","properties":{"type":"HIGHER EDUCATIONAL INSTITUTION"},"geometry":{"type":"Polygon","coordinates":[[[103.776977,1.334067],[103.7771101,1.3340479],[103.7771408,1.3342653],[103.7770979,1.3342715],[103.7771005,1.3342897],[103.7770512,1.3342968],[103.7770556,1.3343279],[103.7766914,1.3343802],[103.776718,1.3345726],[103.7767077,1.334574],[103.7767178,1.3346462],[103.776676,1.3346521],[103.7766267,1.3343023],[103.7765971,1.3343066],[103.776603,1.3343488],[103.7765545,1.3343557],[103.7765488,1.3343149],[103.7765205,1.3343189],[103.7765232,1.3343383],[103.7761837,1.3343868],[103.7761868,1.3344083],[103.7761135,1.3344188],[103.7761103,1.3343961],[103.776048,1.334405],[103.7760417,1.3343604],[103.7759946,1.3343672],[103.7759927,1.3343535],[103.7759463,1.3343601],[103.77592,1.3341736],[103.7761058,1.334147],[103.7761023,1.3341216],[103.7761617,1.3341131],[103.7761653,1.3341387],[103.7765068,1.3340898],[103.7765238,1.3342107],[103.7765399,1.3342084],[103.7765352,1.334175],[103.7765887,1.3341673],[103.7765933,1.3341999],[103.776654,1.3341912],[103.7766431,1.334114],[103.7769137,1.3340753],[103.7769103,1.3340513],[103.7769735,1.3340423],[103.776977,1.334067]]]}},{"type":"Feature","properties":{"type":"HIGHER EDUCATIONAL INSTITUTION"},"geometry":{"type":"Polygon","coordinates":[[[103.7766418,1.3346241],[103.7765971,1.3343066],[103.7766267,1.3343023],[103.776676,1.3346521],[103.7766599,1.3346544],[103.7766554,1.3346222],[103.7766418,1.3346241]]]}},{"type":"Feature","properties":{"type":"HIGHER EDUCATIONAL INSTITUTION"},"geometry":{"type":"Polygon","coordinates":[[[103.775411,1.3349542],[103.7753581,1.3349618],[103.7753398,1.3348724],[103.7752813,1.3348777],[103.7750941,1.3347441],[103.7750237,1.3347588],[103.7749772,1.3347267],[103.7749735,1.3347104],[103.7749878,1.3346852],[103.7749865,1.3346692],[103.7749095,1.3346144],[103.7748989,1.334593],[103.7748909,1.3345355],[103.7749268,1.3344767],[103.7749507,1.3343805],[103.7749693,1.3343778],[103.7749493,1.3342254],[103.7751032,1.3342029],[103.7753585,1.3341728],[103.7753809,1.3342201],[103.7754474,1.3341987],[103.775697,1.3341934],[103.7757076,1.3341961],[103.7757355,1.334307],[103.7757342,1.3343233],[103.7757257,1.3343371],[103.7757168,1.3343435],[103.775701,1.3343471],[103.7755731,1.3343408],[103.7755609,1.3343495],[103.7755241,1.3344021],[103.7755232,1.3344124],[103.775527,1.3344219],[103.7755576,1.3346705],[103.7755573,1.334689],[103.7755465,1.3347143],[103.7755257,1.334732],[103.7753861,1.3347783],[103.775411,1.3349542]]]}},{"type":"Feature","properties":{"type":"HIGHER EDUCATIONAL INSTITUTION"},"geometry":{"type":"Polygon","coordinates":[[[103.7772033,1.3346836],[103.7772071,1.3347105],[103.7771625,1.3347168],[103.7771658,1.3347404],[103.7771226,1.3347465],[103.7771264,1.3347738],[103.7770627,1.3347828],[103.7770665,1.3348103],[103.7769918,1.3348209],[103.7769889,1.3348002],[103.7767012,1.3348409],[103.7766917,1.3347978],[103.7766637,1.3347902],[103.7766658,1.3348147],[103.7766031,1.3348224],[103.7765993,1.3347907],[103.7762472,1.334834],[103.7762508,1.334864],[103.7761718,1.3348737],[103.7761691,1.3348518],[103.776111,1.3348589],[103.7761047,1.3348071],[103.7760498,1.3348139],[103.7760475,1.3347949],[103.7760046,1.3348002],[103.7759839,1.3346294],[103.7761715,1.3346028],[103.7761681,1.3345783],[103.7762259,1.3345701],[103.7762292,1.3345942],[103.7765694,1.334546],[103.7765859,1.334664],[103.7766027,1.3346616],[103.7765984,1.3346303],[103.7766554,1.3346222],[103.7766599,1.3346544],[103.7767178,1.3346462],[103.7767077,1.334574],[103.7769768,1.3345359],[103.7769741,1.3345165],[103.7770398,1.3345072],[103.7770426,1.3345278],[103.7772164,1.3345032],[103.7772409,1.3346782],[103.7772033,1.3346836]]]}},{"type":"Feature","properties":{"type":"HIGHER EDUCATIONAL INSTITUTION"},"geometry":{"type":"Polygon","coordinates":[[[103.7753861,1.3347783],[103.7757855,1.3347248],[103.7758104,1.3349144],[103.7757983,1.334916],[103.7758077,1.3349876],[103.7757038,1.3350015],[103.7757084,1.3350366],[103.7756809,1.3350403],[103.775676,1.3350037],[103.7754229,1.3350381],[103.7753861,1.3347783]]]}},{"type":"Feature","properties":{"type":"HIGHER EDUCATIONAL INSTITUTION"},"geometry":{"type":"Polygon","coordinates":[[[103.7757067,1.3352131],[103.7756961,1.3351324],[103.7756855,1.3351338],[103.7756733,1.3350413],[103.7757335,1.3350333],[103.7757445,1.3351276],[103.7757363,1.3351275],[103.7757475,1.3352108],[103.7757067,1.3352131]]]}},{"type":"Feature","properties":{"type":"HIGHER EDUCATIONAL INSTITUTION"},"geometry":{"type":"Polygon","coordinates":[[[103.7772136,1.3363639],[103.7771229,1.3363762],[103.7771189,1.336346],[103.7770832,1.3363187],[103.7770675,1.3362018],[103.7770422,1.3361823],[103.7770133,1.3362204],[103.7769887,1.3362015],[103.7770175,1.3361634],[103.7769922,1.336144],[103.7768745,1.33616],[103.7768597,1.3361486],[103.7768444,1.3361506],[103.7767832,1.3361041],[103.7767818,1.3360888],[103.7767722,1.3360815],[103.7767687,1.3360573],[103.7767334,1.3360303],[103.7766953,1.336077],[103.7765278,1.335949],[103.7765162,1.3358522],[103.7764636,1.3358611],[103.7764541,1.3358039],[103.7763968,1.3358116],[103.776389,1.3357535],[103.7763338,1.335761],[103.7763183,1.3356451],[103.7764771,1.3354367],[103.7765105,1.3354314],[103.7765091,1.3354226],[103.7765381,1.335418],[103.7765205,1.3353068],[103.7765844,1.3352221],[103.7764876,1.3351481],[103.7764352,1.3352175],[103.7763912,1.3352175],[103.776302,1.335334],[103.7762453,1.3353417],[103.7762283,1.3353645],[103.776093,1.3353748],[103.7760948,1.3353989],[103.7760148,1.335405],[103.7760136,1.3353889],[103.775844,1.3354018],[103.7758434,1.3353809],[103.7757927,1.3353824],[103.7757873,1.3353421],[103.7757652,1.3353428],[103.7757445,1.3351888],[103.7758082,1.3351869],[103.7758073,1.3352051],[103.7764878,1.3351291],[103.7765628,1.3350274],[103.7765946,1.3350512],[103.7766996,1.3349352],[103.7767079,1.3349204],[103.7767136,1.3348993],[103.7767071,1.3348401],[103.7767496,1.3348341],[103.7767564,1.3348968],[103.7767476,1.3349255],[103.776685,1.3349999],[103.7766265,1.3350772],[103.7766785,1.3351171],[103.7766861,1.335107],[103.7767702,1.3350962],[103.7767831,1.3351109],[103.7772507,1.3350455],[103.7772718,1.3350826],[103.7772301,1.3351137],[103.7771916,1.3351487],[103.7771568,1.3351874],[103.7771258,1.3352293],[103.7770535,1.3352395],[103.7771014,1.3355831],[103.7771214,1.3355804],[103.7772136,1.3363639]]]}},{"type":"Feature","properties":{"type":"HIGHER EDUCATIONAL INSTITUTION"},"geometry":{"type":"Polygon","coordinates":[[[103.7724003,1.3324911],[103.7726523,1.3321618],[103.7726246,1.3321403],[103.7726724,1.3320778],[103.7727001,1.3320993],[103.772708,1.332089],[103.772517,1.3319409],[103.7726899,1.331715],[103.7728837,1.3318653],[103.7729051,1.3318373],[103.7729744,1.331891],[103.772953,1.331919],[103.7733637,1.3322375],[103.7733837,1.3322114],[103.7734565,1.3322678],[103.7734351,1.3322957],[103.7736968,1.3324987],[103.7735237,1.3327248],[103.7733297,1.3325747],[103.7729684,1.3330469],[103.7728951,1.3330571],[103.7729061,1.3331373],[103.772178,1.3332387],[103.7721526,1.3330414],[103.7721328,1.333044],[103.7721221,1.3329608],[103.772413,1.3329229],[103.7723942,1.3327773],[103.7716929,1.3328688],[103.7716686,1.3326802],[103.7716516,1.3326824],[103.771641,1.3326005],[103.7719284,1.332563],[103.7719083,1.3324065],[103.7712574,1.3324915],[103.7712472,1.3324119],[103.7712717,1.3324087],[103.7712466,1.3322135],[103.7719357,1.3321235],[103.7721023,1.332257],[103.7721848,1.3322475],[103.7721742,1.3321554],[103.7723324,1.3321371],[103.7724221,1.332208],[103.7724379,1.3323717],[103.7723577,1.3323796],[103.7723659,1.3324645],[103.7724003,1.3324911]]]}},{"type":"Feature","properties":{"type":"HIGHER EDUCATIONAL INSTITUTION"},"geometry":{"type":"Polygon","coordinates":[[[103.7713391,1.3326502],[103.7715709,1.3326258],[103.7715967,1.332874],[103.7715655,1.3328773],[103.7715728,1.3329472],[103.7715139,1.3329534],[103.7715066,1.3328835],[103.7714217,1.3328924],[103.7714145,1.3328225],[103.7712654,1.3328382],[103.7712584,1.3327712],[103.7711755,1.33278],[103.7711676,1.3327042],[103.7710955,1.3327118],[103.7710849,1.3326099],[103.7711541,1.3326026],[103.7711456,1.3325208],[103.7712532,1.3325094],[103.7712612,1.3325861],[103.7713317,1.3325787],[103.7713391,1.3326502]]]}},{"type":"Feature","properties":{"type":"HIGHER EDUCATIONAL INSTITUTION"},"geometry":{"type":"Polygon","coordinates":[[[103.7733372,1.3326855],[103.773603,1.3328964],[103.7735707,1.3329089],[103.773318,1.3327097],[103.7733372,1.3326855]]]}},{"type":"Feature","properties":{"type":"HDB"},"geometry":{"type":"Polygon","coordinates":[[[103.7727629,1.3378651],[103.7727076,1.3373749],[103.7728408,1.3372065],[103.7729252,1.3372741],[103.7728232,1.337403],[103.7728055,1.3373894],[103.7727935,1.3374046],[103.77279,1.3374048],[103.7727929,1.3374308],[103.7728218,1.3374251],[103.7728757,1.3379023],[103.7728312,1.3379073],[103.7728132,1.3379301],[103.7728096,1.3379277],[103.7728031,1.3379359],[103.7728015,1.3379347],[103.7727775,1.3379679],[103.7727809,1.3379708],[103.772763,1.3379936],[103.772768,1.3380384],[103.772393,1.3380813],[103.7723914,1.3380732],[103.7723825,1.3380743],[103.7723867,1.3381113],[103.7723963,1.3381102],[103.7724062,1.3381981],[103.7723089,1.3382092],[103.772298,1.3381125],[103.7723148,1.3381103],[103.7723101,1.3380687],[103.7722933,1.3380707],[103.7722814,1.3379652],[103.7723546,1.3379569],[103.7723568,1.3379762],[103.7727067,1.3379362],[103.7727629,1.3378651]]]}},{"type":"Feature","properties":{"type":"HDB"},"geometry":{"type":"Polygon","coordinates":[[[103.7729796,1.3373199],[103.7730354,1.3373624],[103.7730338,1.3373649],[103.7730824,1.3374038],[103.7730734,1.3374152],[103.7730928,1.3374307],[103.7731022,1.3374189],[103.773151,1.3374579],[103.7731524,1.3374562],[103.7731593,1.3374617],[103.7731582,1.3374635],[103.7732537,1.33754],[103.773255,1.3375383],[103.7732619,1.3375439],[103.7732601,1.337546],[103.7733087,1.337585],[103.7733572,1.3376546],[103.7733816,1.3378705],[103.7733781,1.3378714],[103.7733851,1.337933],[103.7733549,1.3379365],[103.7733578,1.3379625],[103.7733895,1.3379589],[103.7733965,1.3380208],[103.7733985,1.3380206],[103.7733995,1.3380297],[103.7733966,1.3380301],[103.7734037,1.338093],[103.7733073,1.3381041],[103.7733048,1.3380798],[103.7732823,1.3380824],[103.7732876,1.3380795],[103.7732457,1.3377076],[103.7732195,1.3376602],[103.7729279,1.3374266],[103.7729252,1.3374299],[103.7729236,1.3374285],[103.7729371,1.3374114],[103.7729184,1.3373965],[103.7729796,1.3373199]]]}},{"type":"Feature","properties":{"type":"HDB"},"geometry":{"type":"Polygon","coordinates":[[[103.7718048,1.338152],[103.7717701,1.3379534],[103.7721145,1.3379141],[103.772158,1.3383005],[103.7721463,1.3383019],[103.7721505,1.3383478],[103.7719046,1.3383758],[103.7718969,1.3383074],[103.7718817,1.3383092],[103.7718789,1.3382846],[103.7718932,1.338283],[103.771882,1.3381835],[103.7719071,1.3381806],[103.7719026,1.3381408],[103.7718048,1.338152]]]}},{"type":"Feature","properties":{"type":"HDB"},"geometry":{"type":"Polygon","coordinates":[[[103.7733694,1.3382888],[103.7733813,1.3382874],[103.7733816,1.3382897],[103.773421,1.3382832],[103.7734189,1.3382642],[103.7737942,1.3382213],[103.773796,1.3382298],[103.7738052,1.3382288],[103.7738011,1.3381921],[103.7737911,1.3381933],[103.773781,1.3381045],[103.7738783,1.3380933],[103.7738892,1.3381895],[103.7738728,1.3381928],[103.7738774,1.3382332],[103.7738939,1.3382313],[103.7739059,1.3383373],[103.7738327,1.3383457],[103.7738305,1.3383264],[103.7734322,1.3383719],[103.773432,1.3383756],[103.7733798,1.3383816],[103.7733784,1.3383781],[103.7731895,1.3383997],[103.7731773,1.3382919],[103.7733674,1.3382701],[103.7733694,1.3382888]]]}},{"type":"Feature","properties":{"type":"HDB"},"geometry":{"type":"Polygon","coordinates":[[[103.7730434,1.3383072],[103.7730556,1.338415],[103.7728667,1.3384366],[103.7728661,1.3384404],[103.7728139,1.3384464],[103.7728129,1.3384428],[103.7724146,1.3384884],[103.7724168,1.3385077],[103.7723436,1.3385161],[103.7723316,1.3384102],[103.7723481,1.3384083],[103.7723436,1.3383678],[103.7723269,1.3383683],[103.772316,1.3382722],[103.7724133,1.338261],[103.7724234,1.3383498],[103.7724134,1.338351],[103.7724175,1.3383876],[103.7724266,1.3383866],[103.7724265,1.3383778],[103.7728018,1.3383349],[103.772804,1.3383538],[103.7728439,1.3383512],[103.7728436,1.3383489],[103.7728556,1.3383476],[103.7728533,1.338329],[103.7730434,1.3383072]]]}},{"type":"Feature","properties":{"type":"HDB"},"geometry":{"type":"Polygon","coordinates":[[[103.772844,1.3387541],[103.7720394,1.3388462],[103.7720383,1.3388389],[103.7720261,1.3388408],[103.7720313,1.338874],[103.7720436,1.3388725],[103.7720575,1.3389612],[103.7719608,1.3389766],[103.7719227,1.3387341],[103.7719954,1.3387225],[103.7719985,1.3387416],[103.7728559,1.3386435],[103.7728538,1.3386242],[103.772927,1.3386158],[103.772939,1.3387221],[103.7729229,1.3387244],[103.7729272,1.3387632],[103.7729434,1.3387619],[103.7729545,1.3388598],[103.7728572,1.3388709],[103.7728471,1.3387819],[103.7728577,1.3387807],[103.7728539,1.3387474],[103.7728434,1.3387486],[103.772844,1.3387541]]]}},{"type":"Feature","properties":{"type":"HDB"},"geometry":{"type":"Polygon","coordinates":[[[103.7723389,1.3390576],[103.7723403,1.3390678],[103.7723647,1.339065],[103.7723636,1.3390548],[103.7727393,1.3390118],[103.7727421,1.3390328],[103.7727926,1.3390271],[103.7727903,1.339006],[103.7729806,1.3389842],[103.7729929,1.3390929],[103.7721613,1.3391881],[103.772149,1.3390794],[103.7723389,1.3390576]]]}},{"type":"Feature","properties":{"type":"HIGHER EDUCATIONAL INSTITUTION"},"geometry":{"type":"Polygon","coordinates":[[[103.7773683,1.3364025],[103.7772521,1.3354549],[103.7772971,1.3353643],[103.7773646,1.3352775],[103.7774809,1.3352095],[103.7775746,1.3351945],[103.7776797,1.3352058],[103.7777809,1.3352549],[103.7778747,1.3353606],[103.7779235,1.3354587],[103.778021,1.3362741],[103.7780097,1.3363609],[103.7779647,1.3364515],[103.7778934,1.3365384],[103.7777734,1.3365988],[103.7776646,1.3366063],[103.7775484,1.3365799],[103.7774396,1.3365044],[103.7773683,1.3364025]]]}},{"type":"Feature","properties":{"type":"HIGHER EDUCATIONAL INSTITUTION"},"geometry":{"type":"Polygon","coordinates":[[[103.7772746,1.335202],[103.7773646,1.3351491],[103.7774846,1.3350963],[103.7776084,1.3350925],[103.7777734,1.3351341],[103.7778897,1.3352322],[103.777991,1.3353643],[103.778111,1.3363987],[103.7780585,1.3365233],[103.7779497,1.3366478],[103.7778184,1.3367233],[103.7776946,1.3367422],[103.7775521,1.336712],[103.7774096,1.3366101],[103.7774133,1.3366629],[103.7772971,1.3366327],[103.7771171,1.3352246],[103.7772746,1.335202]],[[103.7772521,1.3354549],[103.7773683,1.3364025],[103.7774171,1.336478],[103.7775484,1.3365799],[103.7776646,1.3366063],[103.7777734,1.3365988],[103.7778934,1.3365384],[103.7779647,1.3364515],[103.7780097,1.3363609],[103.778021,1.3362741],[103.7779235,1.3354587],[103.7778747,1.3353606],[103.7777809,1.3352549],[103.7776797,1.3352058],[103.7775746,1.3351945],[103.7774809,1.3352095],[103.7773646,1.3352775],[103.7772971,1.3353643],[103.7772521,1.3354549]]]}},{"type":"Feature","properties":{"type":"HDB"},"geometry":{"type":"Polygon","coordinates":[[[103.7752175,1.337294],[103.7752333,1.3373215],[103.7752481,1.3373257],[103.7752474,1.337328],[103.7752833,1.3373362],[103.7753108,1.337321],[103.7754167,1.3374058],[103.7753529,1.3374865],[103.7753334,1.3374705],[103.7753217,1.3374853],[103.7753231,1.3374811],[103.7752576,1.3374287],[103.7752058,1.3374137],[103.7751022,1.3374256],[103.7751007,1.3374318],[103.7751,1.3374258],[103.7748145,1.3374585],[103.7748263,1.3375627],[103.7747917,1.3375666],[103.7747895,1.337553],[103.7747369,1.337559],[103.7747384,1.3375727],[103.7746946,1.3375782],[103.7746843,1.3374869],[103.7747276,1.3374815],[103.7747281,1.3374857],[103.7747533,1.3374828],[103.7747481,1.3374361],[103.7747224,1.337439],[103.7747229,1.3374437],[103.77468,1.3374486],[103.7746696,1.3373563],[103.7747111,1.3373515],[103.7747147,1.3373679],[103.7747674,1.3373619],[103.7747656,1.3373457],[103.7748012,1.3373417],[103.7748041,1.3373582],[103.7748281,1.3373555],[103.7748269,1.3373387],[103.7752175,1.337294]]]}},{"type":"Feature","properties":{"type":"HDB"},"geometry":{"type":"Polygon","coordinates":[[[103.7747409,1.337761],[103.7752408,1.3377038],[103.775288,1.3376775],[103.7754386,1.3374871],[103.7754357,1.3374823],[103.7754533,1.3374963],[103.7754686,1.3374774],[103.775544,1.3375378],[103.7755059,1.337586],[103.7755082,1.3375878],[103.7755022,1.3375954],[103.7754993,1.3375931],[103.7754603,1.3376424],[103.7754361,1.337623],[103.7754209,1.3376421],[103.7754444,1.3376619],[103.7754067,1.3377096],[103.7754095,1.3377126],[103.775404,1.3377195],[103.7754007,1.3377169],[103.7753601,1.3377682],[103.7753356,1.3377611],[103.7753233,1.3377652],[103.7752888,1.337786],[103.7752804,1.3378114],[103.7752172,1.3378186],[103.7752179,1.3378247],[103.775209,1.3378258],[103.7752086,1.3378207],[103.7750865,1.3378347],[103.7750871,1.3378397],[103.7750784,1.3378407],[103.7750779,1.3378366],[103.7749557,1.3378506],[103.7749561,1.3378547],[103.7749475,1.3378557],[103.7749468,1.3378521],[103.7748852,1.3378592],[103.7748814,1.3378258],[103.7748565,1.3378287],[103.7748603,1.3378626],[103.7747994,1.3378696],[103.7747998,1.3378726],[103.7747286,1.337879],[103.7747175,1.3377806],[103.7747408,1.3377781],[103.7747382,1.337755],[103.7747404,1.3377548],[103.7747409,1.337761]]]}},{"type":"Feature","properties":{"type":"HDB"},"geometry":{"type":"Polygon","coordinates":[[[103.7740898,1.3378971],[103.7740904,1.3378991],[103.7744115,1.3378616],[103.7744153,1.3378948],[103.7744395,1.3378921],[103.7744358,1.3378591],[103.7745069,1.3378494],[103.7745072,1.3378519],[103.7745697,1.3378448],[103.7745806,1.3379413],[103.7745566,1.3379441],[103.7745585,1.3379602],[103.7734854,1.338083],[103.7734836,1.3380672],[103.7734599,1.3380699],[103.7734489,1.3379732],[103.7735189,1.3379624],[103.7735191,1.3379644],[103.7735815,1.3379581],[103.7735851,1.3379894],[103.773609,1.3379867],[103.7736053,1.3379545],[103.7740898,1.3378971]]]}},{"type":"Feature","properties":{"type":"HDB"},"geometry":{"type":"Polygon","coordinates":[[[103.7741542,1.3380618],[103.7741643,1.3381513],[103.7741559,1.3381522],[103.77416,1.3381886],[103.7741684,1.3381876],[103.7741674,1.3381786],[103.7748767,1.3380974],[103.7748777,1.3381065],[103.7748869,1.3381055],[103.7748828,1.338069],[103.7748736,1.33807],[103.7748635,1.3379806],[103.7749608,1.3379695],[103.7749719,1.3380673],[103.7749546,1.3380701],[103.7749591,1.3381101],[103.7749765,1.3381081],[103.7749884,1.3382134],[103.7749152,1.3382218],[103.774913,1.3382025],[103.774608,1.3382374],[103.7746098,1.3382457],[103.7745561,1.3382518],[103.7745552,1.3382434],[103.7741555,1.3382892],[103.7741576,1.3383085],[103.7740844,1.3383168],[103.7740725,1.3382114],[103.7740913,1.3382091],[103.7740869,1.3381702],[103.7740681,1.338172],[103.7740569,1.3380729],[103.7741542,1.3380618]]]}},{"type":"Feature","properties":{"type":"HDB"},"geometry":{"type":"Polygon","coordinates":[[[103.7741204,1.338636],[103.7741391,1.3386335],[103.7741348,1.3385946],[103.774116,1.3385967],[103.7741041,1.3384912],[103.7741773,1.3384828],[103.7741795,1.3385021],[103.7745792,1.3384564],[103.7745783,1.338448],[103.7746319,1.3384418],[103.774632,1.3384503],[103.774937,1.3384154],[103.7749348,1.3383961],[103.775008,1.3383878],[103.7750199,1.3384931],[103.7750025,1.3384951],[103.775007,1.3385351],[103.7750245,1.3385339],[103.7750355,1.3386317],[103.7749382,1.3386428],[103.7749281,1.3385534],[103.7749373,1.3385524],[103.7749332,1.3385158],[103.774924,1.3385169],[103.774925,1.338526],[103.7742158,1.3386072],[103.7742147,1.3385982],[103.7742063,1.3385991],[103.7742104,1.3386355],[103.7742188,1.3386345],[103.7742289,1.338724],[103.7741316,1.3387351],[103.7741204,1.338636]]]}},{"type":"Feature","properties":{"type":"HDB"},"geometry":{"type":"Polygon","coordinates":[[[103.7748803,1.338758],[103.7750115,1.3387425],[103.7750153,1.3387766],[103.7750409,1.3387736],[103.7750372,1.3387405],[103.7750987,1.3387335],[103.7750986,1.3387313],[103.7751074,1.3387302],[103.7751076,1.3387322],[103.7752291,1.3387183],[103.7752288,1.3387164],[103.7752376,1.3387153],[103.7752379,1.3387187],[103.7753597,1.3387048],[103.7753593,1.3387014],[103.7753682,1.3387004],[103.7753686,1.3387045],[103.7754325,1.3386972],[103.775446,1.3387212],[103.7754841,1.3387339],[103.7754965,1.3387364],[103.7755221,1.3387217],[103.7755721,1.3387617],[103.7755733,1.3387602],[103.7755801,1.3387657],[103.775579,1.3387674],[103.7756281,1.3388067],[103.7755658,1.3388855],[103.775547,1.3388702],[103.7755344,1.3388862],[103.7755327,1.3388849],[103.7755362,1.3388807],[103.7754703,1.3388279],[103.7754185,1.338813],[103.7749192,1.3388701],[103.77492,1.3388769],[103.7749175,1.3388771],[103.774915,1.3388546],[103.7748915,1.3388574],[103.7748803,1.338758]]]}},{"type":"Feature","properties":{"type":"HDB"},"geometry":{"type":"Polygon","coordinates":[[[103.774402,1.3387588],[103.7744631,1.3393006],[103.7741988,1.3393308],[103.7741377,1.338789],[103.774402,1.3387588]]]}},{"type":"Feature","properties":{"type":"HDB"},"geometry":{"type":"Polygon","coordinates":[[[103.7749516,1.3391628],[103.7754515,1.3391056],[103.7754987,1.3390793],[103.7756493,1.3388888],[103.7756465,1.338884],[103.775664,1.3388981],[103.7756793,1.3388792],[103.7757547,1.3389396],[103.7757166,1.3389877],[103.7757189,1.3389895],[103.7757129,1.3389972],[103.77571,1.3389949],[103.775671,1.3390442],[103.7756468,1.3390247],[103.7756316,1.3390439],[103.7756551,1.3390637],[103.7756174,1.3391113],[103.7756202,1.3391143],[103.7756147,1.3391213],[103.7756114,1.3391187],[103.7755708,1.33917],[103.7755463,1.3391629],[103.775534,1.339167],[103.7754995,1.3391878],[103.7754911,1.3392132],[103.7754279,1.3392204],[103.7754286,1.3392265],[103.7754197,1.3392275],[103.7754193,1.3392225],[103.7752972,1.3392365],[103.7752978,1.3392415],[103.7752891,1.3392425],[103.7752886,1.3392384],[103.7751664,1.3392524],[103.7751668,1.3392565],[103.7751582,1.3392575],[103.7751575,1.3392539],[103.7750959,1.339261],[103.7750921,1.3392276],[103.7750672,1.3392305],[103.775071,1.3392643],[103.7750101,1.3392713],[103.7750105,1.3392744],[103.7749393,1.3392808],[103.7749282,1.3391824],[103.7749515,1.3391799],[103.7749489,1.3391568],[103.7749511,1.3391565],[103.7749516,1.3391628]]]}},{"type":"Feature","properties":{"type":"HDB"},"geometry":{"type":"Polygon","coordinates":[[[103.7743098,1.339441],[103.7743199,1.3395305],[103.7743115,1.3395314],[103.7743156,1.3395678],[103.774324,1.3395668],[103.774323,1.3395578],[103.7750323,1.3394766],[103.7750333,1.3394858],[103.7750425,1.3394847],[103.7750384,1.3394482],[103.7750292,1.3394492],[103.7750191,1.3393598],[103.7751164,1.3393487],[103.7751275,1.3394465],[103.7751102,1.3394493],[103.7751147,1.3394893],[103.7751321,1.3394873],[103.775144,1.3395926],[103.7750708,1.339601],[103.7750686,1.3395817],[103.7747636,1.3396166],[103.7747654,1.3396249],[103.7747118,1.3396311],[103.7747108,1.3396226],[103.7743111,1.3396684],[103.7743133,1.3396877],[103.7742401,1.3396961],[103.7742281,1.3395906],[103.7742469,1.3395883],[103.7742425,1.3395494],[103.7742237,1.3395512],[103.7742125,1.3394521],[103.7743098,1.339441]]]}},{"type":"Feature","properties":{"type":"HDB"},"geometry":{"type":"Polygon","coordinates":[[[103.7736745,1.3400285],[103.7736746,1.3400314],[103.7735634,1.3400353],[103.7735617,1.3399877],[103.7735815,1.3399871],[103.7735789,1.3399107],[103.7737281,1.3399059],[103.7737289,1.3399283],[103.7737396,1.3399279],[103.7737395,1.3399245],[103.773769,1.3399234],[103.7737691,1.3399268],[103.7737799,1.3399264],[103.7737791,1.3399038],[103.7740223,1.3398954],[103.7740227,1.3399176],[103.7740342,1.3399172],[103.7740341,1.3399145],[103.7740633,1.3399135],[103.7740634,1.3399163],[103.7740737,1.339916],[103.774073,1.3398936],[103.7742201,1.3398869],[103.7742245,1.3400115],[103.7736745,1.3400285]]]}},{"type":"Feature","properties":{"type":"HDB"},"geometry":{"type":"Polygon","coordinates":[[[103.7720195,1.3394783],[103.7720383,1.3394753],[103.7720345,1.3394513],[103.7720157,1.3394543],[103.7719741,1.3391897],[103.7719927,1.3391868],[103.7719888,1.3391621],[103.7719706,1.339165],[103.7719486,1.3390309],[103.7720463,1.3390154],[103.7720502,1.3390402],[103.7720667,1.3390374],[103.7721503,1.3395699],[103.7721341,1.3395725],[103.7721372,1.3395928],[103.7720393,1.3396084],[103.7720195,1.3394783]]]}},{"type":"Feature","properties":{"type":"HDB"},"geometry":{"type":"Polygon","coordinates":[[[103.7723752,1.3393793],[103.7723766,1.3393895],[103.772401,1.3393867],[103.7723999,1.3393765],[103.7727756,1.3393335],[103.7727784,1.3393545],[103.7728289,1.3393487],[103.7728266,1.3393276],[103.7730169,1.3393059],[103.7730292,1.3394146],[103.7721976,1.3395097],[103.7721853,1.339401],[103.7723752,1.3393793]]]}},{"type":"Feature","properties":{"type":"HDB"},"geometry":{"type":"Polygon","coordinates":[[[103.7721877,1.3397567],[103.7729189,1.339673],[103.7729198,1.3396812],[103.7729282,1.3396802],[103.7729241,1.3396445],[103.7729122,1.3396459],[103.7729022,1.3395565],[103.7729995,1.3395454],[103.7730104,1.3396426],[103.7729929,1.339644],[103.7729973,1.3396838],[103.7730149,1.3396817],[103.773027,1.3397893],[103.7729538,1.3397977],[103.7729516,1.3397784],[103.772555,1.3398238],[103.7725549,1.3398262],[103.7724995,1.3398325],[103.7724991,1.3398302],[103.7721931,1.3398652],[103.7721961,1.3398844],[103.7721233,1.339896],[103.7721066,1.3397899],[103.7721236,1.3397873],[103.7721174,1.3397478],[103.7721005,1.3397506],[103.7720852,1.3396535],[103.772182,1.3396381],[103.7721959,1.339727],[103.7721829,1.3397291],[103.7721877,1.3397567]]]}},{"type":"Feature","properties":{"type":"HDB"},"geometry":{"type":"Polygon","coordinates":[[[103.7729076,1.3400555],[103.7728209,1.3400654],[103.7727966,1.3398507],[103.7729011,1.3398387],[103.7729095,1.339913],[103.7728589,1.3399183],[103.7728622,1.3399475],[103.7728858,1.3399448],[103.7728896,1.3399786],[103.7729012,1.3399773],[103.7728994,1.3399616],[103.7729303,1.3399589],[103.7729302,1.3399549],[103.7729431,1.3399544],[103.7729424,1.339933],[103.7731853,1.3399246],[103.7731861,1.3399458],[103.7731965,1.3399454],[103.7731964,1.3399424],[103.7732257,1.3399414],[103.7732258,1.3399446],[103.7732362,1.3399442],[103.7732355,1.3399228],[103.7733217,1.3399198],[103.7733227,1.3399434],[103.7733464,1.3399426],[103.7733456,1.339919],[103.7734943,1.339914],[103.7734969,1.3399903],[103.7735167,1.3399896],[103.7735183,1.3400372],[103.7734071,1.3400411],[103.773407,1.3400381],[103.7731312,1.3400477],[103.7731308,1.3400503],[103.7729076,1.3400555]]]}},{"type":"Feature","properties":{"type":"LANDMARK"},"geometry":{"type":"Polygon","coordinates":[[[103.7810993,1.334149],[103.781172,1.334149],[103.781172,1.3344116],[103.7810993,1.3344116],[103.7810993,1.334149]]]}},{"type":"Feature","properties":{"type":"LANDMARK"},"geometry":{"type":"Polygon","coordinates":[[[103.7814811,1.334635],[103.7814832,1.3346022],[103.7814584,1.3346019],[103.7814606,1.3345653],[103.7815278,1.3345657],[103.7815245,1.3346056],[103.7815118,1.3346054],[103.7815092,1.334637],[103.7815803,1.3346397],[103.7815759,1.3347146],[103.7815445,1.3347141],[103.781542,1.3347285],[103.7814324,1.334723],[103.7814315,1.3347064],[103.7813968,1.3347064],[103.7814028,1.334631],[103.7814811,1.334635]]]}}]}