{"type":"FeatureCollection","features":[{"type":"Feature","properties":{"type":"LANDMARK"},"geometry":{"type":"Polygon","coordinates":[[[103.8319845,1.3418938],[103.8319164,1.3418719],[103.831942,1.3417931],[103.8318797,1.3417731],[103.8318632,1.3418256],[103.8317952,1.3418038],[103.8318114,1.341752],[103.8316709,1.3417061],[103.8316538,1.3417584],[103.8315856,1.3417363],[103.8316106,1.3416587],[103.831548,1.3416382],[103.8315404,1.3416642],[103.8313595,1.3416051],[103.8313649,1.3415888],[103.8315036,1.3416347],[103.8315119,1.3416081],[103.8316322,1.3416469],[103.8316154,1.3416998],[103.8316514,1.3417112],[103.8316596,1.3416848],[103.8317122,1.3417017],[103.8317205,1.3416755],[103.8317469,1.3416839],[103.831764,1.3416309],[103.8317271,1.3416189],[103.8317538,1.3415345],[103.8318428,1.341563],[103.8318161,1.3416474],[103.8317795,1.3416357],[103.8317626,1.3416892],[103.8317885,1.3416978],[103.8317803,1.3417238],[103.8318325,1.3417404],[103.8318164,1.3417932],[103.8318525,1.3418044],[103.8318774,1.3417258],[103.8319715,1.3417559],[103.8319464,1.3418348],[103.8319824,1.341846],[103.831999,1.341794],[103.8320639,1.3418148],[103.8320588,1.3418309],[103.83201,1.3418151],[103.8319845,1.3418938]]]}},{"type":"Feature","properties":{"type":"LANDMARK"},"geometry":{"type":"Polygon","coordinates":[[[103.8305855,1.3431017],[103.8305762,1.3430983],[103.8305662,1.3430991],[103.8305688,1.3429214],[103.8305889,1.3429212],[103.8305855,1.3431017]]]}},{"type":"Feature","properties":{"type":"LANDMARK"},"geometry":{"type":"Polygon","coordinates":[[[103.8305662,1.3430991],[103.8305838,1.3431007],[103.8305952,1.3431142],[103.830594,1.3431319],[103.8305878,1.3431397],[103.830579,1.3431443],[103.8305615,1.343142],[103.8305506,1.343128],[103.8305525,1.3431103],[103.8305662,1.3430991]]]}},{"type":"Feature","properties":{"type":"LANDMARK"},"geometry":{"type":"Polygon","coordinates":[[[103.8257632,1.3701147],[103.8257423,1.3701174],[103.8257257,1.3701128],[103.8257087,1.3700996],[103.8257002,1.3700845],[103.8256976,1.3700631],[103.8257023,1.3700464],[103.8257157,1.3700295],[103.8257307,1.3700211],[103.8257477,1.3700184],[103.8257686,1.3700236],[103.8257824,1.3700339],[103.8257934,1.3700525],[103.8257959,1.3700696],[103.8257905,1.3700906],[103.8257805,1.370104],[103.8257632,1.3701147]]]}},{"type":"Feature","properties":{"type":"LANDMARK"},"geometry":{"type":"Polygon","coordinates":[[[103.8257859,1.3700979],[103.8257894,1.3701026],[103.8259504,1.370318],[103.8259183,1.3703204],[103.8257616,1.3701152],[103.8257734,1.3701096],[103.8257859,1.3700979]]]}},{"type":"Feature","properties":{"type":"LANDMARK"},"geometry":{"type":"Polygon","coordinates":[[[103.8110224,1.3410987],[103.8110095,1.3410909],[103.8109809,1.3410818],[103.810951,1.3410819],[103.8109364,1.3410854],[103.8109218,1.3410762],[103.8108893,1.3410653],[103.8108637,1.3410653],[103.8108393,1.3410731],[103.8108283,1.3410798],[103.8108262,1.3410414],[103.8108215,1.3410228],[103.8107932,1.3409706],[103.8107932,1.3409333],[103.8107873,1.3408965],[103.8107755,1.3408611],[103.8107582,1.3408282],[103.8107595,1.3407724],[103.8107481,1.3407332],[103.8107386,1.3407151],[103.8107652,1.3407125],[103.8107911,1.340706],[103.8108158,1.3406957],[103.8108387,1.3406819],[103.8108812,1.3406776],[103.8109208,1.3406616],[103.8109639,1.3406573],[103.811004,1.3406409],[103.8110469,1.3406369],[103.8110867,1.3406204],[103.8111149,1.3406176],[103.8111425,1.3406108],[103.8111687,1.3406001],[103.8112077,1.3406007],[103.8112744,1.340585],[103.8112929,1.340664],[103.8113067,1.3406901],[103.8113056,1.3407215],[103.8113258,1.3408034],[103.8113431,1.3408337],[103.8113444,1.340904],[103.8113483,1.3409187],[103.8113621,1.3409458],[103.8113493,1.3409444],[103.8113366,1.3409468],[103.8113083,1.3409658],[103.8112937,1.3409812],[103.8112721,1.3410178],[103.8111751,1.341044],[103.8111206,1.3410722],[103.8110224,1.3410987]]]}},{"type":"Feature","properties":{"type":"LANDMARK"},"geometry":{"type":"Polygon","coordinates":[[[103.8112389,1.3413166],[103.8111794,1.3413316],[103.8111764,1.3413193],[103.8111167,1.3413344],[103.8111118,1.341315],[103.8110604,1.341328],[103.811044,1.3412624],[103.8110336,1.3412643],[103.8110231,1.3412625],[103.8110101,1.3412534],[103.8110048,1.3412442],[103.8109846,1.3411603],[103.8109894,1.3411496],[103.810997,1.3411451],[103.8110059,1.3411451],[103.8110151,1.3411514],[103.8110351,1.3411463],[103.8110224,1.3410987],[103.8111206,1.3410722],[103.8111751,1.341044],[103.8112329,1.3410284],[103.8112679,1.3411599],[103.8112041,1.3411771],[103.8112389,1.3413166]]]}},{"type":"Feature","properties":{"type":"LANDMARK"},"geometry":{"type":"Polygon","coordinates":[[[103.8112041,1.3411771],[103.8112679,1.3411599],[103.811274,1.3411828],[103.8112858,1.3411798],[103.8113184,1.3413103],[103.8112422,1.3413296],[103.8112041,1.3411771]]]}},{"type":"Feature","properties":{"type":"LANDMARK"},"geometry":{"type":"Polygon","coordinates":[[[103.8113687,1.3412974],[103.8115441,1.3412546],[103.8115571,1.3413087],[103.8114913,1.3413247],[103.8114958,1.3413435],[103.8113862,1.3413702],[103.8113687,1.3412974]]]}},{"type":"Feature","properties":{"type":"LANDMARK"},"geometry":{"type":"Polygon","coordinates":[[[103.810877,1.3416314],[103.8107261,1.3416381],[103.8107255,1.3416236],[103.8106045,1.3416295],[103.810604,1.3416078],[103.8105146,1.341612],[103.8104823,1.3416008],[103.8104681,1.3415912],[103.8104458,1.3415653],[103.8104383,1.3415498],[103.8104332,1.3415301],[103.8102635,1.3415352],[103.8102605,1.3414574],[103.8102406,1.3414592],[103.8102434,1.3414085],[103.8102549,1.3413592],[103.8102748,1.3413126],[103.8102919,1.3412844],[103.8103109,1.3412926],[103.8103271,1.341269],[103.8103127,1.3412608],[103.8103541,1.3412171],[103.810401,1.3411821],[103.8104064,1.3411876],[103.8104623,1.3411596],[103.8104596,1.3411523],[103.8105605,1.3411316],[103.8105623,1.341147],[103.810582,1.3411455],[103.8105826,1.3411241],[103.8105921,1.3411079],[103.8106096,1.3411017],[103.8106232,1.3411055],[103.8106304,1.3411117],[103.8106362,1.3411246],[103.8106327,1.3411498],[103.810657,1.3411562],[103.8106579,1.3411471],[103.810713,1.3411661],[103.8107639,1.3411945],[103.8108066,1.3412288],[103.8107982,1.3412381],[103.8108314,1.3412734],[103.8108597,1.3413172],[103.8108486,1.3413234],[103.8108714,1.3414206],[103.8109553,1.3414111],[103.810972,1.3414167],[103.8109843,1.3414305],[103.8109879,1.3414423],[103.8109853,1.3414605],[103.8109786,1.3414709],[103.8109688,1.3414783],[103.810881,1.3414899],[103.8108834,1.3415108],[103.8109085,1.3415084],[103.8109156,1.3415128],[103.8109182,1.3415208],[103.8109152,1.3415286],[103.8109099,1.3415321],[103.8108728,1.3415365],[103.8108734,1.3415502],[103.8109138,1.3415484],[103.8109156,1.341589],[103.8108752,1.3415908],[103.810877,1.3416314]]]}},{"type":"Feature","properties":{"type":"LANDMARK"},"geometry":{"type":"Polygon","coordinates":[[[103.8113522,1.3413995],[103.8113549,1.341419],[103.8113536,1.3414331],[103.811344,1.3414597],[103.811326,1.3414813],[103.8113017,1.3414954],[103.8112881,1.341499],[103.8112601,1.341499],[103.8112338,1.3414894],[103.8112222,1.3414813],[103.8112042,1.3414597],[103.8111946,1.3414331],[103.8111934,1.341419],[103.8111983,1.3413912],[103.8112123,1.3413668],[103.8112338,1.3413487],[103.8112601,1.341339],[103.8112881,1.341339],[103.8113145,1.3413487],[103.811336,1.3413668],[103.811344,1.3413784],[103.8113522,1.3413995]]]}},{"type":"Feature","properties":{"type":"LANDMARK"},"geometry":{"type":"Polygon","coordinates":[[[103.8182381,1.3572961],[103.818307,1.3572941],[103.8183074,1.3573096],[103.8185389,1.3573017],[103.8185406,1.3573666],[103.8183522,1.3573732],[103.8183528,1.3573944],[103.8181333,1.3574006],[103.8181302,1.3572881],[103.8182378,1.357285],[103.8182381,1.3572961]]]}},{"type":"Feature","properties":{"type":"LANDMARK"},"geometry":{"type":"Polygon","coordinates":[[[103.8180278,1.3574211],[103.8185456,1.3574099],[103.8185474,1.3575107],[103.8180297,1.3575219],[103.8180278,1.3574211]]]}},{"type":"Feature","properties":{"type":"LANDMARK"},"geometry":{"type":"Polygon","coordinates":[[[103.8180223,1.3575877],[103.818477,1.3575794],[103.8184804,1.3578044],[103.8180217,1.3578115],[103.8180223,1.3575877]]]}},{"type":"Feature","properties":{"type":"LANDMARK"},"geometry":{"type":"Polygon","coordinates":[[[103.8186545,1.358057],[103.818565,1.3580572],[103.8185638,1.3574984],[103.8186579,1.3574982],[103.8186578,1.3574803],[103.818782,1.3574799],[103.8187822,1.3575629],[103.8188246,1.3575628],[103.818825,1.3577699],[103.81887,1.3577697],[103.81887,1.3578101],[103.818884,1.35781],[103.8188845,1.3580081],[103.8188689,1.3580081],[103.8188692,1.3581581],[103.8189508,1.3581579],[103.8189511,1.3582747],[103.8186551,1.3582811],[103.8186545,1.358057]]]}},{"type":"Feature","properties":{"type":"LANDMARK"},"geometry":{"type":"Polygon","coordinates":[[[103.8182469,1.3578495],[103.8184809,1.3578456],[103.8184833,1.3579941],[103.8182492,1.3579979],[103.8182469,1.3578495]]]}},{"type":"Feature","properties":{"type":"LANDMARK"},"geometry":{"type":"Polygon","coordinates":[[[103.8178824,1.357975],[103.8182156,1.3582307],[103.8181766,1.3582792],[103.8178568,1.3580258],[103.8174147,1.3578162],[103.8174427,1.3577649],[103.8178824,1.357975]]]}},{"type":"Feature","properties":{"type":"LANDMARK"},"geometry":{"type":"Polygon","coordinates":[[[103.8183507,1.3580157],[103.8184835,1.3580136],[103.8184846,1.3580891],[103.8184987,1.3580888],[103.8184992,1.3581225],[103.8184851,1.3581227],[103.8184859,1.3581752],[103.8184811,1.3581866],[103.818466,1.3582059],[103.8184453,1.3582188],[103.8184214,1.3582238],[103.8183972,1.3582203],[103.818386,1.3582155],[103.8183668,1.3582003],[103.8183531,1.3581773],[103.8183523,1.3581247],[103.8183399,1.3581249],[103.8183394,1.3580913],[103.8183518,1.3580911],[103.8183507,1.3580157]]]}},{"type":"Feature","properties":{"type":"LANDMARK"},"geometry":{"type":"Polygon","coordinates":[[[103.8114216,1.3416579],[103.8113775,1.3416883],[103.8113406,1.3416298],[103.8113854,1.3415981],[103.8114216,1.3416579]]]}},{"type":"Feature","properties":{"type":"LANDMARK"},"geometry":{"type":"Polygon","coordinates":[[[103.8108619,1.3416321],[103.810877,1.3416314],[103.8108752,1.3415908],[103.8108842,1.3415904],[103.8108856,1.3416449],[103.8109189,1.3416838],[103.8109508,1.3416561],[103.8109929,1.3416493],[103.8110482,1.3416118],[103.8111314,1.341736],[103.8110779,1.3417724],[103.8110102,1.3416722],[103.8109632,1.3416762],[103.8109299,1.3417067],[103.8109353,1.3417208],[103.8108991,1.341735],[103.8108846,1.3416975],[103.8108938,1.3416939],[103.8108635,1.3416533],[103.8108619,1.3416321]]]}},{"type":"Feature","properties":{"type":"LANDMARK"},"geometry":{"type":"Polygon","coordinates":[[[103.8117735,1.3414691],[103.8117281,1.3415189],[103.8116877,1.3415729],[103.8116527,1.3416305],[103.8116234,1.3416914],[103.8116001,1.3417547],[103.8115831,1.3418201],[103.8115724,1.3418868],[103.8115667,1.3420233],[103.8115357,1.3420213],[103.8115465,1.3418804],[103.8115565,1.3418111],[103.8115735,1.3417433],[103.8115974,1.3416775],[103.8116278,1.3416146],[103.8116644,1.3415551],[103.811707,1.3414998],[103.811834,1.3413707],[103.8118462,1.3413815],[103.8118664,1.3413671],[103.81189,1.3413943],[103.8117875,1.3414843],[103.8117735,1.3414691]]]}},{"type":"Feature","properties":{"type":"LANDMARK"},"geometry":{"type":"Polygon","coordinates":[[[103.8111132,1.3418219],[103.8111602,1.3418998],[103.8109989,1.3419965],[103.8109514,1.3419222],[103.8111132,1.3418219]]]}},{"type":"Feature","properties":{"type":"LANDMARK"},"geometry":{"type":"Polygon","coordinates":[[[103.8112311,1.3421132],[103.8113751,1.3420266],[103.8114231,1.3420284],[103.8114878,1.3419873],[103.8115157,1.3419162],[103.8114977,1.3418421],[103.811484,1.3418286],[103.8114887,1.3418225],[103.8115059,1.3418395],[103.8115247,1.3419167],[103.8114957,1.3419904],[103.8114241,1.3420358],[103.8113783,1.3420341],[103.8112358,1.3421203],[103.8112311,1.3421132]]]}},{"type":"Feature","properties":{"type":"LANDMARK"},"geometry":{"type":"Polygon","coordinates":[[[103.8108079,1.3420282],[103.8109361,1.341941],[103.8109534,1.3419666],[103.8109831,1.3419464],[103.8109865,1.3419516],[103.8110198,1.3419289],[103.8110325,1.3419478],[103.8110597,1.3419293],[103.8110434,1.341905],[103.8111226,1.3418511],[103.8110744,1.3417747],[103.8111345,1.3417339],[103.8111739,1.3417926],[103.8112287,1.3417554],[103.8112648,1.3417134],[103.8112768,1.3417239],[103.8112966,1.3417008],[103.8113488,1.3417489],[103.8113902,1.3417034],[103.8114102,1.3416889],[103.8114481,1.3416829],[103.8114854,1.3416984],[103.811512,1.3417302],[103.8115157,1.3417719],[103.8115004,1.3418067],[103.811484,1.3418286],[103.8114977,1.3418421],[103.8115157,1.3419162],[103.8114878,1.3419873],[103.8114231,1.3420284],[103.8113751,1.3420266],[103.8112313,1.3421135],[103.8112098,1.3420793],[103.8111731,1.3421016],[103.811157,1.3420965],[103.81114,1.3420832],[103.8111049,1.3421053],[103.811133,1.3421535],[103.8110905,1.342182],[103.811018,1.3422236],[103.8110224,1.3422312],[103.8109554,1.3422723],[103.8108079,1.3420282]]]}},{"type":"Feature","properties":{"type":"LANDMARK"},"geometry":{"type":"Polygon","coordinates":[[[103.810614,1.3419122],[103.8107387,1.3418999],[103.8107396,1.3419082],[103.8107304,1.3419092],[103.810736,1.3419619],[103.8107582,1.3419596],[103.8107662,1.3420351],[103.8107489,1.3420369],[103.8107518,1.3420641],[103.8107662,1.3420626],[103.810768,1.3420796],[103.8106331,1.3420929],[103.810614,1.3419122]]]}},{"type":"Feature","properties":{"type":"LANDMARK"},"geometry":{"type":"Polygon","coordinates":[[[103.811164,1.3421072],[103.8112098,1.3420793],[103.8112311,1.3421132],[103.8111405,1.3421709],[103.8111377,1.3421666],[103.8110973,1.3421923],[103.8110953,1.3421874],[103.8110224,1.3422312],[103.811018,1.3422236],[103.8110905,1.342182],[103.8111611,1.3421347],[103.8111513,1.3421203],[103.8111658,1.34211],[103.811164,1.3421072]]]}},{"type":"Feature","properties":{"type":"LANDMARK"},"geometry":{"type":"Polygon","coordinates":[[[103.8065896,1.4008014],[103.8065486,1.4007784],[103.8065297,1.4007431],[103.806528,1.4007135],[103.8065396,1.4006826],[103.8065523,1.400667],[103.8065867,1.4006488],[103.8066347,1.4006515],[103.8066479,1.4006579],[103.806676,1.4006892],[103.8066842,1.4007249],[103.8066756,1.4007609],[103.8066315,1.4007992],[103.8065896,1.4008014]]]}},{"type":"Feature","properties":{"type":"LANDMARK"},"geometry":{"type":"Polygon","coordinates":[[[103.819431,1.36001],[103.8194332,1.3599986],[103.8192981,1.3597807],[103.8192366,1.3598194],[103.8191772,1.3597235],[103.8190266,1.3598181],[103.8186832,1.3592644],[103.8185631,1.3593423],[103.8184074,1.3591013],[103.8184882,1.3590484],[103.8184352,1.3589598],[103.8184137,1.3589728],[103.8183171,1.3588182],[103.8184079,1.3587608],[103.8183878,1.3587285],[103.8184478,1.3586905],[103.8183339,1.3585082],[103.8183974,1.358468],[103.8183817,1.3584428],[103.8184429,1.358404],[103.8184321,1.3583866],[103.8185967,1.3582824],[103.8187019,1.3582801],[103.8187024,1.3583013],[103.8186026,1.3583035],[103.8184656,1.3583902],[103.8187293,1.3588127],[103.8187076,1.3588265],[103.8187552,1.3589028],[103.81887,1.3588302],[103.8188793,1.3588451],[103.8189022,1.3588337],[103.8189188,1.3588448],[103.8190142,1.35889],[103.8190125,1.3589983],[103.8192048,1.3593055],[103.8192796,1.3592581],[103.8194904,1.3595947],[103.8192884,1.3597202],[103.819454,1.3599746],[103.8195205,1.3599336],[103.8195277,1.3599507],[103.819431,1.36001]]]}},{"type":"Feature","properties":{"type":"LANDMARK"},"geometry":{"type":"Polygon","coordinates":[[[103.819561,1.3600156],[103.8195138,1.3599222],[103.8197004,1.3598099],[103.8196761,1.3597705],[103.8197104,1.3597383],[103.8197521,1.3597229],[103.8197765,1.3597635],[103.819872,1.3597053],[103.819932,1.3597881],[103.8199675,1.3598647],[103.8196408,1.3600634],[103.8196321,1.3600486],[103.8195993,1.3600681],[103.819561,1.3600156]]]}},{"type":"Feature","properties":{"type":"LANDMARK"},"geometry":{"type":"Polygon","coordinates":[[[103.819561,1.3600156],[103.8195993,1.3600681],[103.8196321,1.3600486],[103.8196408,1.3600634],[103.8196506,1.3600575],[103.8196922,1.3601261],[103.8195598,1.3602056],[103.8194771,1.3600659],[103.819561,1.3600156]]]}},{"type":"Feature","properties":{"type":"LANDMARK"},"geometry":{"type":"Polygon","coordinates":[[[103.8196195,1.3605033],[103.819596,1.3604992],[103.8195852,1.3604941],[103.8195669,1.3604787],[103.819555,1.3604579],[103.8195509,1.3604343],[103.8195519,1.3604223],[103.8195601,1.3603997],[103.8195754,1.3603813],[103.819596,1.3603693],[103.8196195,1.3603652],[103.819643,1.3603693],[103.8196636,1.3603813],[103.8196721,1.3603898],[103.819684,1.3604106],[103.8196881,1.3604343],[103.819684,1.3604579],[103.8196721,1.3604787],[103.8196538,1.3604941],[103.819643,1.3604992],[103.8196195,1.3605033]]]}}]}