{"type":"FeatureCollection","features":[{"type":"Feature","properties":{"type":"LANDMARK"},"geometry":{"type":"Polygon","coordinates":[[[103.9829123,1.3356281],[103.982905,1.3356154],[103.9829025,1.335601],[103.982905,1.3355866],[103.9829175,1.3355687],[103.98293,1.3355614],[103.9829444,1.3355589],[103.9829653,1.3355645],[103.9829764,1.3355739],[103.9829837,1.3355866],[103.9829862,1.335601],[103.9829806,1.3356221],[103.9829713,1.3356333],[103.9829587,1.3356406],[103.9829444,1.3356432],[103.98293,1.3356406],[103.9829123,1.3356281]]]}},{"type":"Feature","properties":{"type":"LANDMARK"},"geometry":{"type":"Polygon","coordinates":[[[103.982214,1.3362568],[103.9822016,1.3362389],[103.9821991,1.3362245],[103.9822016,1.3362101],[103.9822089,1.3361974],[103.98222,1.336188],[103.9822409,1.3361824],[103.9822552,1.3361849],[103.9822678,1.3361922],[103.9822772,1.3362034],[103.9822828,1.3362245],[103.9822803,1.3362389],[103.982273,1.3362516],[103.9822619,1.336261],[103.9822409,1.3362666],[103.9822266,1.3362641],[103.982214,1.3362568]]]}},{"type":"Feature","properties":{"type":"LANDMARK"},"geometry":{"type":"Polygon","coordinates":[[[103.9821639,1.3377966],[103.982483,1.3385549],[103.9824031,1.338589],[103.9823831,1.3385415],[103.9817526,1.3388103],[103.9816846,1.3386488],[103.9823249,1.3383759],[103.9820937,1.3378266],[103.9821639,1.3377966]]]}},{"type":"Feature","properties":{"type":"LANDMARK"},"geometry":{"type":"Polygon","coordinates":[[[103.9818502,1.3390409],[103.9824788,1.338773],[103.9824395,1.3386798],[103.9825254,1.3386432],[103.9826019,1.3388249],[103.9818875,1.3391294],[103.9818502,1.3390409]]]}},{"type":"Feature","properties":{"type":"LANDMARK"},"geometry":{"type":"Polygon","coordinates":[[[103.9823256,1.3361575],[103.9823155,1.3361619],[103.9823313,1.3361887],[103.9823358,1.3362037],[103.9823374,1.3362348],[103.9823344,1.3362502],[103.9823213,1.3362785],[103.9822999,1.3363011],[103.9822868,1.3363095],[103.9822574,1.3363194],[103.9822256,1.3363193],[103.982195,1.3363084],[103.9821697,1.3362878],[103.9821527,1.3362598],[103.9821459,1.3362278],[103.9821502,1.3361953],[103.982165,1.3361661],[103.9821886,1.3361436],[103.9822029,1.3361357],[103.9822972,1.3360955],[103.982161,1.3357718],[103.9827643,1.3355146],[103.9827852,1.3355642],[103.982915,1.3355088],[103.9829477,1.3355039],[103.9829802,1.3355105],[103.9830085,1.3355277],[103.98302,1.3355398],[103.9830361,1.3355689],[103.9830402,1.3355851],[103.9830414,1.3356018],[103.9830353,1.3356345],[103.9830185,1.3356632],[103.982993,1.3356845],[103.9829619,1.3356958],[103.9829453,1.3356972],[103.9829151,1.3356923],[103.982901,1.3356863],[103.982888,1.3356781],[103.9828667,1.335656],[103.9828589,1.3356427],[103.9828501,1.3356132],[103.9827785,1.3356438],[103.9828578,1.3358323],[103.9828866,1.33582],[103.9828675,1.3357746],[103.9830725,1.3356872],[103.9834492,1.3365822],[103.9835318,1.3365484],[103.9830457,1.335386],[103.9831964,1.3353222],[103.983192,1.3353115],[103.9832286,1.3352959],[103.9858856,1.3416371],[103.9860966,1.3415477],[103.9861501,1.3416756],[103.986336,1.3415969],[103.986797,1.3417337],[103.9868038,1.3417499],[103.9868545,1.3417284],[103.9868868,1.3418057],[103.9868485,1.3418219],[103.9868285,1.3417741],[103.9868152,1.3417798],[103.9868441,1.3418491],[103.9868039,1.3418661],[103.986796,1.3418473],[103.9867845,1.3418522],[103.9867726,1.3418238],[103.9867848,1.3418187],[103.9867629,1.3417662],[103.9863384,1.3416402],[103.9861659,1.3417133],[103.9862041,1.3418047],[103.9859374,1.3419178],[103.9860084,1.3420877],[103.9861347,1.3420342],[103.9861668,1.3421109],[103.9861238,1.3421291],[103.9861035,1.3420807],[103.9860933,1.342085],[103.9861221,1.342154],[103.9860803,1.3421717],[103.9860735,1.3421555],[103.9860602,1.3421612],[103.9860486,1.3421335],[103.9860606,1.3421285],[103.9860568,1.3421195],[103.9859922,1.3421469],[103.9859025,1.3419325],[103.9852976,1.3421888],[103.985368,1.3423573],[103.9854068,1.3423408],[103.9854395,1.3424192],[103.985402,1.3424351],[103.9853813,1.3423855],[103.9853679,1.3423912],[103.9853825,1.3424262],[103.9853395,1.3424444],[103.9853323,1.342427],[103.9853204,1.342432],[103.9853099,1.342407],[103.9853209,1.3424024],[103.9852958,1.3423424],[103.9853145,1.3423345],[103.9852602,1.3422047],[103.9848982,1.3423581],[103.9848724,1.3422965],[103.9847675,1.3423412],[103.9846194,1.3426445],[103.9846302,1.3426703],[103.9846836,1.3426477],[103.9847149,1.3427224],[103.9846742,1.3427397],[103.9846548,1.3426933],[103.9846418,1.3426989],[103.9846546,1.3427296],[103.9846118,1.3427477],[103.9846045,1.3427305],[103.9845919,1.3427358],[103.9845808,1.3427092],[103.9845951,1.3427032],[103.9845706,1.3426445],[103.9847325,1.3423129],[103.9848571,1.3422598],[103.984855,1.342255],[103.9858545,1.3418289],[103.9850408,1.339895],[103.9844568,1.3401439],[103.9844095,1.3400317],[103.9838413,1.3402739],[103.9837781,1.3401237],[103.9837555,1.3401333],[103.983702,1.3400063],[103.983725,1.3399965],[103.983666,1.3398563],[103.9842374,1.3396128],[103.9841439,1.3393905],[103.9834064,1.3397048],[103.9833035,1.3394601],[103.9831564,1.3395228],[103.9821992,1.3372481],[103.982344,1.3371864],[103.9822901,1.3370584],[103.9823587,1.3370292],[103.9823163,1.3369285],[103.9824004,1.3368927],[103.9823681,1.3368159],[103.9823033,1.3368435],[103.9821498,1.3364787],[103.982145,1.3364807],[103.982117,1.3364142],[103.9823854,1.3362997],[103.9823256,1.3361575]]]}},{"type":"Feature","properties":{"type":"LANDMARK"},"geometry":{"type":"Polygon","coordinates":[[[103.9823256,1.3361575],[103.9823155,1.3361619],[103.9823313,1.3361887],[103.9823358,1.3362037],[103.9823374,1.3362348],[103.9823344,1.3362502],[103.9823213,1.3362785],[103.9822999,1.3363011],[103.9822868,1.3363095],[103.9822574,1.3363194],[103.9822256,1.3363193],[103.982195,1.3363084],[103.9821697,1.3362878],[103.9821527,1.3362598],[103.9821459,1.3362278],[103.9821502,1.3361953],[103.982165,1.3361661],[103.9821886,1.3361436],[103.9822029,1.3361357],[103.9822972,1.3360955],[103.982161,1.3357718],[103.9827643,1.3355146],[103.9827852,1.3355642],[103.982915,1.3355088],[103.9829477,1.3355039],[103.9829802,1.3355105],[103.9830085,1.3355277],[103.98302,1.3355398],[103.9830361,1.3355689],[103.9830402,1.3355851],[103.9830414,1.3356018],[103.9830353,1.3356345],[103.9830185,1.3356632],[103.982993,1.3356845],[103.9829619,1.3356958],[103.9829453,1.3356972],[103.9829151,1.3356923],[103.982901,1.3356863],[103.982888,1.3356781],[103.9828667,1.335656],[103.9828589,1.3356427],[103.9828501,1.3356132],[103.9827785,1.3356438],[103.9828578,1.3358323],[103.9828866,1.33582],[103.9828675,1.3357746],[103.9830725,1.3356872],[103.9834492,1.3365822],[103.9835318,1.3365484],[103.9830457,1.335386],[103.9831964,1.3353222],[103.983192,1.3353115],[103.9832286,1.3352959],[103.9858856,1.3416371],[103.9860966,1.3415477],[103.9861501,1.3416756],[103.986336,1.3415969],[103.986797,1.3417337],[103.9868038,1.3417499],[103.9868545,1.3417284],[103.9868868,1.3418057],[103.9868485,1.3418219],[103.9868285,1.3417741],[103.9868152,1.3417798],[103.9868441,1.3418491],[103.9868039,1.3418661],[103.986796,1.3418473],[103.9867845,1.3418522],[103.9867726,1.3418238],[103.9867848,1.3418187],[103.9867629,1.3417662],[103.9863384,1.3416402],[103.9861659,1.3417133],[103.9862041,1.3418047],[103.9859374,1.3419178],[103.9860084,1.3420877],[103.9861347,1.3420342],[103.9861668,1.3421109],[103.9861238,1.3421291],[103.9861035,1.3420807],[103.9860933,1.342085],[103.9861221,1.342154],[103.9860803,1.3421717],[103.9860735,1.3421555],[103.9860602,1.3421612],[103.9860486,1.3421335],[103.9860606,1.3421285],[103.9860568,1.3421195],[103.9859922,1.3421469],[103.9859025,1.3419325],[103.9852976,1.3421888],[103.985368,1.3423573],[103.9854068,1.3423408],[103.9854395,1.3424192],[103.985402,1.3424351],[103.9853813,1.3423855],[103.9853679,1.3423912],[103.9853825,1.3424262],[103.9853395,1.3424444],[103.9853323,1.342427],[103.9853204,1.342432],[103.9853099,1.342407],[103.9853209,1.3424024],[103.9852958,1.3423424],[103.9853145,1.3423345],[103.9852602,1.3422047],[103.9848982,1.3423581],[103.9848724,1.3422965],[103.9847675,1.3423412],[103.9846194,1.3426445],[103.9846302,1.3426703],[103.9846836,1.3426477],[103.9847149,1.3427224],[103.9846742,1.3427397],[103.9846548,1.3426933],[103.9846418,1.3426989],[103.9846546,1.3427296],[103.9846118,1.3427477],[103.9846045,1.3427305],[103.9845919,1.3427358],[103.9845808,1.3427092],[103.9845951,1.3427032],[103.9845706,1.3426445],[103.9847325,1.3423129],[103.9848571,1.3422598],[103.984855,1.342255],[103.9858545,1.3418289],[103.9850408,1.339895],[103.9844568,1.3401439],[103.9844095,1.3400317],[103.9838413,1.3402739],[103.9837781,1.3401237],[103.9837555,1.3401333],[103.983702,1.3400063],[103.983725,1.3399965],[103.983666,1.3398563],[103.9842374,1.3396128],[103.9841439,1.3393905],[103.9834064,1.3397048],[103.9833035,1.3394601],[103.9831564,1.3395228],[103.9821992,1.3372481],[103.982344,1.3371864],[103.9822901,1.3370584],[103.9823587,1.3370292],[103.9823163,1.3369285],[103.9824004,1.3368927],[103.9823681,1.3368159],[103.9823033,1.3368435],[103.9821498,1.3364787],[103.982145,1.3364807],[103.982117,1.3364142],[103.9823854,1.3362997],[103.9823256,1.3361575]]]}},{"type":"Feature","properties":{"type":"LANDMARK"},"geometry":{"type":"Polygon","coordinates":[[[103.981706,1.3392068],[103.9826311,1.3388125],[103.9829871,1.3396586],[103.982062,1.3400529],[103.981706,1.3392068]]]}},{"type":"Feature","properties":{"type":"LANDMARK"},"geometry":{"type":"Polygon","coordinates":[[[103.9825624,1.3402051],[103.9827104,1.340142],[103.9827499,1.3402357],[103.9826123,1.3402943],[103.9826173,1.3403062],[103.9832561,1.3400339],[103.9834837,1.3405746],[103.9834867,1.3405919],[103.9834842,1.3406035],[103.983474,1.3406179],[103.9834641,1.3406241],[103.9826652,1.3409647],[103.9824541,1.3404505],[103.9824488,1.3404149],[103.9824493,1.3403789],[103.9824555,1.3403435],[103.9824673,1.3403095],[103.9824844,1.3402779],[103.9825064,1.3402495],[103.9825326,1.340225],[103.9825624,1.3402051]]]}},{"type":"Feature","properties":{"type":"LANDMARK"},"geometry":{"type":"Polygon","coordinates":[[[103.9850984,1.3406637],[103.9851992,1.3409026],[103.985169,1.3409155],[103.9850682,1.3406766],[103.9850984,1.3406637]]]}},{"type":"Feature","properties":{"type":"LANDMARK"},"geometry":{"type":"Polygon","coordinates":[[[103.9854209,1.3416512],[103.9854612,1.3417441],[103.9851842,1.3418657],[103.9851084,1.3416911],[103.9845768,1.3419183],[103.9842689,1.3411884],[103.9842234,1.3412078],[103.984176,1.3410955],[103.9842215,1.341076],[103.9841548,1.3409179],[103.9849884,1.3405617],[103.9850285,1.3406569],[103.985055,1.3406455],[103.985169,1.3409155],[103.9851448,1.3409259],[103.9854462,1.3416404],[103.9854209,1.3416512]]]}},{"type":"Feature","properties":{"type":"LANDMARK"},"geometry":{"type":"Polygon","coordinates":[[[103.9843417,1.3413609],[103.9842629,1.3413945],[103.9842385,1.3413366],[103.9843171,1.3413026],[103.9843417,1.3413609]]]}},{"type":"Feature","properties":{"type":"LANDMARK"},"geometry":{"type":"Polygon","coordinates":[[[103.9829392,1.3413414],[103.9832183,1.3412212],[103.9833006,1.3414135],[103.9830239,1.3415344],[103.9829392,1.3413414]]]}},{"type":"Feature","properties":{"type":"LANDMARK"},"geometry":{"type":"Polygon","coordinates":[[[103.9841957,1.3415421],[103.9842378,1.3416418],[103.9841232,1.3416908],[103.9840811,1.3415911],[103.9841957,1.3415421]]]}},{"type":"Feature","properties":{"type":"LANDMARK"},"geometry":{"type":"Polygon","coordinates":[[[103.9838359,1.342233],[103.9837672,1.3421353],[103.9837189,1.3420316],[103.9836893,1.341921],[103.9836792,1.3418069],[103.9836689,1.3418086],[103.9836481,1.3418064],[103.9836293,1.3417971],[103.9836176,1.3417858],[103.9833477,1.3419005],[103.9833105,1.3418126],[103.9835762,1.3416977],[103.9835786,1.3416767],[103.9835924,1.3416563],[103.9834141,1.3412338],[103.9839414,1.3410083],[103.9841287,1.3414519],[103.9843417,1.3413609],[103.9843841,1.3414615],[103.9840811,1.3415911],[103.9842719,1.342043],[103.9838359,1.342233]]]}},{"type":"Feature","properties":{"type":"LANDMARK"},"geometry":{"type":"Polygon","coordinates":[[[103.9854417,1.3416992],[103.985421,1.3416514],[103.9854739,1.3416286],[103.9854944,1.3416761],[103.9854417,1.3416992]]]}},{"type":"Feature","properties":{"type":"LANDMARK"},"geometry":{"type":"Polygon","coordinates":[[[103.9832956,1.3417772],[103.9833841,1.3417389],[103.9833991,1.3417743],[103.9833105,1.3418126],[103.9832956,1.3417772]]]}},{"type":"Feature","properties":{"type":"LANDMARK"},"geometry":{"type":"Polygon","coordinates":[[[103.9851321,1.3417456],[103.9848154,1.341881],[103.9847923,1.3418262],[103.9851084,1.3416911],[103.9851321,1.3417456]]]}},{"type":"Feature","properties":{"type":"LANDMARK"},"geometry":{"type":"Polygon","coordinates":[[[103.983226,1.3418632],[103.9833155,1.3418244],[103.9833423,1.3418877],[103.9832527,1.3419264],[103.983226,1.3418632]]]}},{"type":"Feature","properties":{"type":"LANDMARK"},"geometry":{"type":"Polygon","coordinates":[[[103.9833477,1.3419005],[103.9834366,1.3418627],[103.9834547,1.3419053],[103.983366,1.3419437],[103.9833477,1.3419005]]]}},{"type":"Feature","properties":{"type":"LANDMARK"},"geometry":{"type":"Polygon","coordinates":[[[103.9846055,1.3419604],[103.9845362,1.34199],[103.9845201,1.3419519],[103.9845885,1.3419227],[103.9845849,1.3419148],[103.9847923,1.3418262],[103.9848199,1.3418917],[103.9848006,1.3419],[103.9848487,1.3420141],[103.9846618,1.342094],[103.9846055,1.3419604]]]}},{"type":"Feature","properties":{"type":"LANDMARK"},"geometry":{"type":"Polygon","coordinates":[[[103.9842782,1.3422085],[103.9842298,1.342094],[103.9844897,1.3419829],[103.984538,1.3420975],[103.9842782,1.3422085]]]}},{"type":"Feature","properties":{"type":"LANDMARK"},"geometry":{"type":"Polygon","coordinates":[[[103.9846209,1.3421285],[103.9846632,1.3422299],[103.9845831,1.3422637],[103.9845791,1.3422539],[103.9845672,1.3422589],[103.9845513,1.3422209],[103.9845632,1.3422159],[103.9845409,1.3421623],[103.9846209,1.3421285]]]}},{"type":"Feature","properties":{"type":"LANDMARK"},"geometry":{"type":"Polygon","coordinates":[[[103.9844621,1.3422729],[103.9845014,1.3422562],[103.9845134,1.3422845],[103.9844742,1.3423014],[103.9844621,1.3422729]]]}},{"type":"Feature","properties":{"type":"LANDMARK"},"geometry":{"type":"Polygon","coordinates":[[[103.9834881,1.34263],[103.9839943,1.3424138],[103.9840172,1.3424679],[103.983511,1.3426841],[103.9835057,1.3426717],[103.9834825,1.3426815],[103.9834675,1.342646],[103.9834907,1.3426361],[103.9834881,1.34263]]]}},{"type":"Feature","properties":{"type":"LANDMARK"},"geometry":{"type":"Polygon","coordinates":[[[103.9838267,1.3438894],[103.9838596,1.3437806],[103.9839394,1.343805],[103.9839065,1.3439138],[103.9838267,1.3438894]]]}},{"type":"Feature","properties":{"type":"LANDMARK"},"geometry":{"type":"Polygon","coordinates":[[[103.9838422,1.3439241],[103.9838985,1.3439413],[103.9838964,1.3439483],[103.9839329,1.3439594],[103.9839209,1.3439991],[103.9839402,1.344005],[103.9839251,1.3440549],[103.9839058,1.344049],[103.9838908,1.3440989],[103.9838441,1.3440846],[103.9838416,1.3440931],[103.9838054,1.344082],[103.983808,1.3440735],[103.9837608,1.3440591],[103.9837758,1.3440094],[103.9837578,1.3440038],[103.9837729,1.343954],[103.9837915,1.3439597],[103.9838036,1.3439199],[103.9838401,1.3439311],[103.9838422,1.3439241]]]}},{"type":"Feature","properties":{"type":"LANDMARK"},"geometry":{"type":"Polygon","coordinates":[[[103.9862307,1.3475854],[103.9862406,1.3475811],[103.9862862,1.3476878],[103.9862599,1.3476992],[103.98643,1.3480965],[103.9864607,1.3480832],[103.986567,1.3483317],[103.9865193,1.3483524],[103.986705,1.3487863],[103.9865423,1.3488568],[103.9865272,1.3488217],[103.9859541,1.3490702],[103.9859551,1.3490745],[103.9858322,1.3491278],[103.9855313,1.348422],[103.9855281,1.3484219],[103.9854699,1.348286],[103.9856206,1.3482207],[103.9856241,1.3482289],[103.9861893,1.3479839],[103.9860914,1.3477551],[103.9859342,1.3478232],[103.9858964,1.3477348],[103.9860633,1.3476624],[103.985889,1.3472551],[103.986058,1.3471818],[103.9862307,1.3475854]]]}},{"type":"Feature","properties":{"type":"LANDMARK"},"geometry":{"type":"Polygon","coordinates":[[[103.9864495,1.3491284],[103.9865592,1.349082],[103.9865957,1.3491695],[103.9866105,1.3491632],[103.986594,1.3491236],[103.9868261,1.3490254],[103.9868137,1.3489957],[103.9868701,1.3489719],[103.9868735,1.3489798],[103.9869375,1.3489527],[103.9869329,1.3489419],[103.9870073,1.3489104],[103.9870566,1.3490284],[103.9870648,1.349025],[103.987077,1.3490543],[103.9873776,1.3489264],[103.9873919,1.3489606],[103.987312,1.349026],[103.9871026,1.3491151],[103.9873877,1.3497975],[103.9872985,1.3498352],[103.9872762,1.3497818],[103.987284,1.3497785],[103.9870685,1.349263],[103.9870035,1.3492905],[103.986982,1.3492391],[103.9868676,1.3492875],[103.9868771,1.3493104],[103.986981,1.3492665],[103.986995,1.3493001],[103.9865837,1.3494742],[103.986544,1.3493791],[103.9863621,1.349456],[103.9863519,1.3494316],[103.9863579,1.3494291],[103.9863526,1.3494163],[103.9863427,1.3494205],[103.986315,1.3493542],[103.9863235,1.3493507],[103.9863181,1.3493378],[103.9863133,1.3493398],[103.9863028,1.3493146],[103.9864389,1.3492571],[103.9864142,1.3491979],[103.9864688,1.3491748],[103.9864495,1.3491284]],[[103.9867537,1.3493362],[103.9867631,1.3493586],[103.9868193,1.3493347],[103.9868099,1.3493123],[103.9867537,1.3493362]]]}},{"type":"Feature","properties":{"type":"LANDMARK"},"geometry":{"type":"Polygon","coordinates":[[[103.9868327,1.3495521],[103.9869892,1.349485],[103.9869927,1.3494932],[103.9870023,1.3494891],[103.9870257,1.3495445],[103.9871187,1.3495046],[103.9871445,1.3495655],[103.9871743,1.3495528],[103.9872207,1.3496624],[103.9872065,1.3496684],[103.9872407,1.3497491],[103.987267,1.3497379],[103.987284,1.3497785],[103.987255,1.3497909],[103.9873786,1.3500833],[103.9871197,1.3501942],[103.9871101,1.3501716],[103.9871022,1.350175],[103.9870837,1.3501313],[103.9870939,1.3501269],[103.9870871,1.350111],[103.9870601,1.3501226],[103.9870269,1.3500442],[103.9869224,1.350089],[103.9869004,1.350037],[103.9870046,1.3499924],[103.9868972,1.3497384],[103.9868441,1.3497612],[103.9867819,1.3496141],[103.9868393,1.3495895],[103.9868279,1.3495624],[103.9868357,1.3495591],[103.9868327,1.3495521]]]}},{"type":"Feature","properties":{"type":"LANDMARK"},"geometry":{"type":"Polygon","coordinates":[[[103.9873514,1.3515126],[103.9868988,1.3517072],[103.9865486,1.350882],[103.9866372,1.350844],[103.9866143,1.3507901],[103.9869354,1.350652],[103.9869563,1.3507012],[103.9869992,1.3506827],[103.9873514,1.3515126]]]}},{"type":"Feature","properties":{"type":"LANDMARK"},"geometry":{"type":"Polygon","coordinates":[[[103.9849584,1.3522853],[103.9845693,1.3513642],[103.9846199,1.3513426],[103.9845096,1.3510816],[103.9846841,1.3510069],[103.9844719,1.3505045],[103.9848831,1.3503286],[103.9852044,1.3510892],[103.9852656,1.3512607],[103.9855851,1.3520171],[103.9849584,1.3522853]]]}},{"type":"Feature","properties":{"type":"LANDMARK"},"geometry":{"type":"Polygon","coordinates":[[[103.9891458,1.3536846],[103.990609,1.3530437],[103.9909335,1.3504003],[103.9909899,1.3503744],[103.9910866,1.3503614],[103.9911511,1.3503711],[103.9912076,1.3503857],[103.9912366,1.3504084],[103.9912543,1.3504344],[103.9909309,1.3531499],[103.9894408,1.3538048],[103.9894707,1.3538721],[103.9893895,1.3539086],[103.9894206,1.3539828],[103.9892889,1.3540377],[103.9891458,1.3536846]]]}},{"type":"Feature","properties":{"type":"LANDMARK"},"geometry":{"type":"Polygon","coordinates":[[[103.9873026,1.3520499],[103.9876229,1.3519074],[103.9875865,1.3518227],[103.9875598,1.3518374],[103.987545,1.3518413],[103.9875298,1.3518427],[103.9874997,1.351838],[103.9874727,1.3518237],[103.9874613,1.3518134],[103.9874443,1.3517879],[103.9874391,1.3517734],[103.9874362,1.3517428],[103.9874433,1.3517129],[103.9874596,1.3516869],[103.9874707,1.3516763],[103.9874973,1.3516612],[103.9875273,1.3516556],[103.9875575,1.3516601],[103.9875944,1.3516778],[103.9876248,1.3517053],[103.9876368,1.3517221],[103.9877043,1.3518794],[103.9877648,1.3518531],[103.9880378,1.3525105],[103.9880506,1.3525052],[103.988088,1.352596],[103.9880802,1.3525993],[103.9882994,1.3531314],[103.9883124,1.353126],[103.9883505,1.3532185],[103.9883391,1.3532233],[103.9884332,1.3534519],[103.9884458,1.3534466],[103.9884805,1.3535307],[103.9884231,1.3535547],[103.9884173,1.3535406],[103.9879966,1.3537161],[103.9879589,1.3536248],[103.9879729,1.3536189],[103.9878821,1.3533986],[103.987869,1.3534041],[103.9878406,1.3533351],[103.9878535,1.3533297],[103.9877533,1.3530865],[103.9877363,1.3530936],[103.9877074,1.3530234],[103.9877222,1.3530172],[103.9876231,1.3527765],[103.9876066,1.3527835],[103.9875775,1.352713],[103.9875914,1.3527071],[103.9874911,1.3524636],[103.9874774,1.3524693],[103.9874428,1.3523904],[103.987454,1.3523853],[103.9873026,1.3520499]]]}},{"type":"Feature","properties":{"type":"LANDMARK"},"geometry":{"type":"Polygon","coordinates":[[[103.988016,1.353708],[103.9882918,1.353593],[103.9884174,1.3538936],[103.9881399,1.3540107],[103.988016,1.353708]]]}},{"type":"Feature","properties":{"type":"LANDMARK"},"geometry":{"type":"Polygon","coordinates":[[[103.9884189,1.3537527],[103.9887286,1.353622],[103.988568,1.3532323],[103.9885212,1.3532519],[103.9884477,1.3530734],[103.9884652,1.3530661],[103.9880937,1.3521643],[103.9880842,1.3521683],[103.9880132,1.351996],[103.9880296,1.3519892],[103.9878377,1.3515235],[103.9878055,1.351537],[103.9877672,1.351444],[103.9877862,1.3514361],[103.9877704,1.3513977],[103.9877876,1.3513906],[103.987718,1.3512216],[103.9876114,1.3512661],[103.9875703,1.3511663],[103.9876912,1.3511158],[103.9873779,1.3503552],[103.9875844,1.350269],[103.9889596,1.3536069],[103.9890913,1.3535503],[103.9893125,1.354096],[103.9900618,1.3559127],[103.9901801,1.3561736],[103.9900899,1.3562206],[103.99117,1.3586548],[103.99115,1.3586671],[103.9909702,1.3587421],[103.9909971,1.3588081],[103.9909563,1.3588232],[103.9909286,1.3587574],[103.9909324,1.3587555],[103.9907736,1.3584009],[103.9907539,1.3584098],[103.9906756,1.3582349],[103.9906887,1.358229],[103.9903918,1.3575661],[103.9903807,1.3575711],[103.9903055,1.3574032],[103.9903231,1.3573952],[103.990125,1.3569529],[103.9901163,1.3569569],[103.9900414,1.3567897],[103.9900554,1.3567834],[103.9900235,1.3567123],[103.9899838,1.3567267],[103.9899971,1.3567591],[103.9899403,1.3567809],[103.9899281,1.3567514],[103.989836,1.3567902],[103.9897391,1.3565576],[103.9896414,1.3565988],[103.9895624,1.3564096],[103.9891435,1.3565868],[103.9890964,1.3564738],[103.9889188,1.3565488],[103.9889809,1.356698],[103.9889646,1.3567049],[103.9889712,1.3567207],[103.988874,1.3567617],[103.9888085,1.3566047],[103.9888208,1.3565995],[103.9878553,1.3542828],[103.9878344,1.3542916],[103.987778,1.3541564],[103.9877917,1.3541506],[103.9877827,1.354129],[103.9878711,1.3540917],[103.9878799,1.3541127],[103.987889,1.3541088],[103.987945,1.3542432],[103.9881169,1.3541707],[103.9880636,1.3540429],[103.9884686,1.3538719],[103.9884189,1.3537527]]]}},{"type":"Feature","properties":{"type":"LANDMARK"},"geometry":{"type":"Polygon","coordinates":[[[103.98604,1.3545981],[103.9861421,1.3545558],[103.9861058,1.354467],[103.9862159,1.3544214],[103.9863808,1.3548248],[103.9869225,1.3545976],[103.9879547,1.3570912],[103.9876485,1.3572195],[103.9876783,1.3572931],[103.9875326,1.3573528],[103.9876193,1.3575669],[103.9874915,1.3576193],[103.9877068,1.3581512],[103.9874894,1.3582404],[103.9877073,1.3587694],[103.9874341,1.3588834],[103.987437,1.3588905],[103.9874114,1.3589012],[103.9874725,1.3590495],[103.9875048,1.359036],[103.987671,1.3594394],[103.9876426,1.3594513],[103.9877228,1.3596461],[103.9877574,1.3596317],[103.9878398,1.3598317],[103.9878094,1.3598443],[103.9878966,1.3600561],[103.9876682,1.3601514],[103.9870025,1.3585358],[103.9869504,1.3585572],[103.985876,1.3584084],[103.9857673,1.3581398],[103.986393,1.3578833],[103.9863455,1.3577658],[103.9861202,1.3578603],[103.9850881,1.3553667],[103.9852865,1.3552836],[103.985223,1.3551283],[103.9845787,1.3553952],[103.9844661,1.3551198],[103.9851293,1.3543159],[103.9851159,1.3542832],[103.9851642,1.3542632],[103.9849722,1.3537696],[103.9834679,1.3503034],[103.9834867,1.3502656],[103.9833787,1.3502097],[103.9833693,1.3502317],[103.9823845,1.3497315],[103.9824011,1.3493656],[103.9825991,1.3493685],[103.9828684,1.3494259],[103.983381,1.3496662],[103.9835146,1.3497475],[103.9835762,1.3498218],[103.9836016,1.3498027],[103.9839692,1.3500154],[103.9840428,1.349983],[103.9841824,1.3503047],[103.9839857,1.3503912],[103.9840293,1.3504916],[103.9838844,1.3505553],[103.9841598,1.3511898],[103.9841341,1.3512011],[103.9842169,1.3513919],[103.984239,1.3513822],[103.9844161,1.3517904],[103.9843882,1.3518027],[103.9844718,1.3519953],[103.9844956,1.3519848],[103.9846723,1.3523919],[103.9846528,1.3524005],[103.985203,1.3536681],[103.9855358,1.3535332],[103.9857408,1.3540346],[103.9856779,1.3540606],[103.9857601,1.3542615],[103.9858818,1.354211],[103.98604,1.3545981]]]}},{"type":"Feature","properties":{"type":"LANDMARK"},"geometry":{"type":"Polygon","coordinates":[[[103.9903742,1.3560251],[103.9918742,1.3553996],[103.994048,1.3570452],[103.9940436,1.3571321],[103.9939846,1.3572213],[103.9939408,1.3572752],[103.9938304,1.3573215],[103.9920169,1.3559482],[103.991989,1.3559714],[103.9917315,1.3557109],[103.9901592,1.3563763],[103.9900899,1.3562206],[103.9901801,1.3561736],[103.9900911,1.3559772],[103.9902397,1.3559179],[103.9902543,1.3559518],[103.9903248,1.355921],[103.9903742,1.3560251]]]}},{"type":"Feature","properties":{"type":"LANDMARK"},"geometry":{"type":"Polygon","coordinates":[[[103.9892867,1.359034],[103.989345,1.3590223],[103.9894024,1.3590321],[103.9894491,1.3590653],[103.9894806,1.3591111],[103.9894923,1.3591731],[103.9894843,1.3592297],[103.9894017,1.3591956],[103.9894062,1.3591741],[103.9894017,1.3591516],[103.9893891,1.359131],[103.9893702,1.3591193],[103.9893469,1.3591148],[103.9893227,1.3591202],[103.9893057,1.3591337],[103.9892895,1.3591526],[103.9892869,1.3591706],[103.9892914,1.3591993],[103.9893067,1.3592173],[103.9893237,1.3592263],[103.9892861,1.3593171],[103.9892386,1.3592866],[103.9892044,1.3592381],[103.9891918,1.3591716],[103.9892016,1.3591221],[103.9892356,1.3590727],[103.9892867,1.359034]]]}},{"type":"Feature","properties":{"type":"LANDMARK"},"geometry":{"type":"Polygon","coordinates":[[[103.9893328,1.3593891],[103.9895068,1.359315],[103.9895135,1.3593625],[103.9893656,1.3594246],[103.9893328,1.3593891]]]}},{"type":"Feature","properties":{"type":"LANDMARK"},"geometry":{"type":"Polygon","coordinates":[[[103.9894974,1.3612664],[103.9892834,1.36136],[103.9892435,1.3611629],[103.9892696,1.3611289],[103.9892134,1.3609992],[103.9893243,1.3609505],[103.9892781,1.3608438],[103.9892245,1.3608233],[103.9891737,1.3607991],[103.9891262,1.3607714],[103.9890822,1.3607404],[103.9890419,1.3607062],[103.9890055,1.360669],[103.9889732,1.360629],[103.9889453,1.3605865],[103.9887671,1.3606549],[103.9887192,1.3606665],[103.9886701,1.3606719],[103.9886208,1.3606708],[103.9885641,1.3606617],[103.9885089,1.3606457],[103.9884561,1.3606228],[103.9884065,1.3605936],[103.9883608,1.3605584],[103.9883279,1.3605273],[103.9882988,1.3604925],[103.9882749,1.3604558],[103.9882553,1.3604166],[103.9881424,1.3601518],[103.9881829,1.3601343],[103.9882864,1.3603773],[103.988317,1.3604344],[103.9883537,1.3604878],[103.9883878,1.3605256],[103.9884227,1.3605533],[103.9884601,1.3605776],[103.9885025,1.3605943],[103.9885777,1.3606126],[103.9886093,1.360616],[103.9886526,1.3606163],[103.9886957,1.3606115],[103.9887379,1.3606018],[103.9887787,1.3605873],[103.9889151,1.3605265],[103.988893,1.3604625],[103.9888794,1.3603956],[103.9888744,1.3603266],[103.988878,1.3602559],[103.9888214,1.3602432],[103.988835,1.3601817],[103.9882775,1.3600566],[103.9881911,1.3598473],[103.988197,1.3598449],[103.9881756,1.3597931],[103.9881849,1.3597892],[103.9881797,1.3597765],[103.9881578,1.3597856],[103.987921,1.3592119],[103.9879388,1.3592044],[103.9875336,1.3582227],[103.9875864,1.3582006],[103.988022,1.3592559],[103.9881074,1.3594565],[103.9880917,1.3594632],[103.9882445,1.3598227],[103.9882648,1.3598142],[103.9883421,1.3600016],[103.9889058,1.3601281],[103.9889421,1.360037],[103.9889651,1.3599921],[103.9890207,1.3599046],[103.989088,1.3598213],[103.989166,1.3597434],[103.9892535,1.3596723],[103.9893489,1.3596091],[103.9894509,1.3595548],[103.9895578,1.3595103],[103.9896125,1.3594919],[103.9897235,1.3594633],[103.989835,1.359446],[103.9898903,1.3594416],[103.9899992,1.3594416],[103.9901042,1.3594531],[103.9902036,1.3594761],[103.9902507,1.3594917],[103.9903387,1.359531],[103.9903768,1.3594663],[103.990365,1.3594592],[103.9905253,1.3591868],[103.9898507,1.3587658],[103.9894201,1.3577549],[103.9896372,1.3576591],[103.9896541,1.3576991],[103.9895009,1.3577649],[103.9896586,1.3581268],[103.9898079,1.358061],[103.989821,1.3580919],[103.9898091,1.3580971],[103.9898161,1.3581137],[103.9896794,1.358174],[103.9899025,1.3586856],[103.9900718,1.3587913],[103.9900798,1.3588276],[103.9902947,1.3589468],[103.9902908,1.358954],[103.990638,1.3591465],[103.9903929,1.3595633],[103.9904571,1.3596125],[103.9905124,1.3596686],[103.9905582,1.3597311],[103.990594,1.3597995],[103.9907893,1.3597133],[103.9908288,1.3596889],[103.9908649,1.3596596],[103.9908969,1.3596258],[103.9909243,1.3595881],[103.9909466,1.3595472],[103.9909634,1.3595037],[103.9909701,1.3594652],[103.9909718,1.3594262],[103.9909683,1.3593873],[103.9909597,1.3593492],[103.9909463,1.3593125],[103.9909934,1.3592905],[103.9910065,1.3593337],[103.9910146,1.3593782],[103.9910175,1.3594233],[103.9910152,1.3594684],[103.9910076,1.359513],[103.9909923,1.3595567],[103.9909718,1.3595981],[103.9909465,1.3596368],[103.9909167,1.3596722],[103.990883,1.3597037],[103.9908457,1.3597309],[103.9908055,1.3597534],[103.9906094,1.3598399],[103.9906295,1.3599226],[103.9906361,1.3600091],[103.9906292,1.3600979],[103.9906088,1.3601878],[103.990748,1.36051],[103.9908625,1.3604599],[103.9909571,1.3606212],[103.9907537,1.3607105],[103.9907783,1.3607673],[103.9895198,1.3613182],[103.9894974,1.3612664]],[[103.9897296,1.3601089],[103.9897448,1.3601062],[103.9897637,1.3600929],[103.9897714,1.3600794],[103.9897741,1.3600641],[103.9897714,1.3600488],[103.9897637,1.3600353],[103.9897448,1.360022],[103.9897296,1.3600193],[103.9897144,1.360022],[103.989701,1.3600298],[103.9896911,1.3600417],[103.9896851,1.3600641],[103.9896878,1.3600794],[103.9896955,1.3600929],[103.9897144,1.3601062],[103.9897296,1.3601089]]]}},{"type":"Feature","properties":{"type":"LANDMARK"},"geometry":{"type":"Polygon","coordinates":[[[103.9893244,1.3614038],[103.9909645,1.3606858],[103.9912706,1.3614045],[103.9919212,1.3611221],[103.9909702,1.3587421],[103.99115,1.3586671],[103.9923224,1.3615142],[103.9922388,1.3615491],[103.9930295,1.3634694],[103.9927222,1.3635976],[103.9919422,1.3617034],[103.9892474,1.3628273],[103.9900294,1.3647264],[103.9897271,1.3648525],[103.9889342,1.362927],[103.9888562,1.3629596],[103.9876682,1.3601514],[103.9878966,1.3600561],[103.9888993,1.3624093],[103.9895442,1.3621347],[103.9892883,1.3615316],[103.9893647,1.3614987],[103.9893244,1.3614038]]]}},{"type":"Feature","properties":{"type":"LANDMARK"},"geometry":{"type":"Polygon","coordinates":[[[103.9897292,1.3626263],[103.9914493,1.3619089],[103.9914681,1.3619541],[103.9897484,1.3626722],[103.9897292,1.3626263]]]}},{"type":"Feature","properties":{"type":"LANDMARK"},"geometry":{"type":"Polygon","coordinates":[[[103.9931123,1.3636325],[103.9932203,1.3636633],[103.9932819,1.3636567],[103.9945308,1.3646159],[103.9944817,1.3647085],[103.994539,1.3647537],[103.9943988,1.3649465],[103.9943367,1.3649141],[103.9942754,1.3649943],[103.9930723,1.3640931],[103.993108,1.3640025],[103.9930857,1.3639444],[103.9929694,1.3639444],[103.9928396,1.3638949],[103.9927951,1.3637736],[103.9927222,1.3635976],[103.9930295,1.3634694],[103.993072,1.3635788],[103.9931123,1.3636325]]]}},{"type":"Feature","properties":{"type":"LANDMARK"},"geometry":{"type":"Polygon","coordinates":[[[103.9897271,1.3648525],[103.9900294,1.3647264],[103.9901899,1.3651474],[103.9900914,1.3652149],[103.99013,1.3652867],[103.9902115,1.3652894],[103.9900328,1.3667877],[103.9899362,1.3667859],[103.9899308,1.3668294],[103.9899024,1.3668349],[103.9899079,1.3668601],[103.9898381,1.3668641],[103.9897617,1.3668572],[103.9896827,1.3668333],[103.9896853,1.3667978],[103.9896633,1.3667932],[103.989667,1.3667589],[103.989631,1.3667555],[103.9896302,1.3667387],[103.9895769,1.3667273],[103.989709,1.3655648],[103.9897669,1.3655675],[103.9898363,1.3650213],[103.9897271,1.3648525]]]}},{"type":"Feature","properties":{"type":"HDB"},"geometry":{"type":"Polygon","coordinates":[[[103.9886017,1.3879785],[103.9885782,1.3880556],[103.9885625,1.3880508],[103.9885609,1.3880558],[103.9885706,1.3880588],[103.9885641,1.3880802],[103.9885544,1.3880772],[103.9885183,1.3881959],[103.98837,1.3881502],[103.9883841,1.388104],[103.9883515,1.388094],[103.9883602,1.3880656],[103.9883532,1.3880634],[103.9883511,1.3880702],[103.9881891,1.3880202],[103.9881832,1.3880393],[103.9880236,1.3879901],[103.9880315,1.3879641],[103.9879961,1.3879532],[103.9880263,1.387854],[103.9880319,1.3878507],[103.9880469,1.3878013],[103.9885876,1.3879682],[103.988586,1.3879737],[103.9886017,1.3879785]]]}},{"type":"Feature","properties":{"type":"HDB"},"geometry":{"type":"Polygon","coordinates":[[[103.9875531,1.3885367],[103.9875973,1.3876791],[103.9877119,1.3876848],[103.9877111,1.3876983],[103.9877517,1.3877001],[103.9877473,1.3877879],[103.9877227,1.3877866],[103.9877215,1.3878094],[103.9877463,1.3878107],[103.9877415,1.387898],[103.9877169,1.3878967],[103.9877157,1.3879194],[103.9877403,1.3879207],[103.9877353,1.3880089],[103.9876938,1.3880066],[103.987691,1.3880562],[103.9877332,1.3880586],[103.9877287,1.3881459],[103.9877041,1.3881446],[103.987703,1.3881674],[103.9877276,1.3881687],[103.987723,1.3882559],[103.9876984,1.3882545],[103.9876971,1.3882773],[103.9877217,1.3882787],[103.9877208,1.3883269],[103.9877173,1.3883659],[103.9876927,1.3883645],[103.9876915,1.3883877],[103.9877161,1.3883888],[103.9877113,1.3884765],[103.9876715,1.3884746],[103.9876681,1.3885289],[103.9877242,1.388546],[103.9877332,1.3885186],[103.9877673,1.388529],[103.9877765,1.3884993],[103.9877894,1.3885032],[103.987801,1.388464],[103.987848,1.3884767],[103.9878846,1.38849],[103.9878721,1.3885286],[103.9878936,1.3885352],[103.9879062,1.3884963],[103.9879894,1.3885217],[103.9879768,1.3885606],[103.9879984,1.3885672],[103.9880109,1.3885283],[103.9880942,1.3885538],[103.9880826,1.3885933],[103.9881297,1.3886078],[103.9881419,1.3885686],[103.9882251,1.3885943],[103.9882125,1.3886332],[103.9882341,1.3886398],[103.9882466,1.3886008],[103.9883299,1.3886263],[103.9883173,1.3886653],[103.9883387,1.3886719],[103.9883513,1.3886329],[103.9884346,1.3886588],[103.988422,1.3886977],[103.9884437,1.3887043],[103.9884562,1.3886654],[103.9885393,1.388691],[103.9885271,1.38873],[103.9885403,1.3887339],[103.9885344,1.3887536],[103.9885588,1.3887608],[103.9885319,1.3888516],[103.9876384,1.388577],[103.9876452,1.3885542],[103.9875958,1.3885386],[103.9875531,1.3885367]]]}},{"type":"Feature","properties":{"type":"HDB"},"geometry":{"type":"Polygon","coordinates":[[[103.9869715,1.3878391],[103.9870863,1.3878455],[103.9870501,1.3885244],[103.9866467,1.3898579],[103.9865367,1.3898243],[103.98654,1.3898114],[103.9865016,1.3897997],[103.9865592,1.38961],[103.9865984,1.3896221],[103.9866254,1.3895332],[103.9866097,1.3895284],[103.9866053,1.3895428],[103.9865818,1.3895356],[103.9867351,1.3890299],[103.9867589,1.3890372],[103.9867544,1.3890517],[103.9867701,1.3890566],[103.9867967,1.388967],[103.9867577,1.3889555],[103.9868792,1.3885546],[103.9869194,1.3885673],[103.9869373,1.3885042],[103.9869417,1.3884206],[103.9869255,1.3884198],[103.9869247,1.3884348],[103.9869005,1.3884337],[103.9869164,1.3881255],[103.986941,1.3881268],[103.9869402,1.3881419],[103.9869565,1.3881428],[103.9869613,1.3880499],[103.9869201,1.3880482],[103.9869302,1.3878502],[103.9869706,1.3878524],[103.9869715,1.3878391]]]}},{"type":"Feature","properties":{"type":"HDB"},"geometry":{"type":"Polygon","coordinates":[[[103.987489,1.3887418],[103.9875801,1.3887697],[103.9875871,1.3887468],[103.9880354,1.3888848],[103.9880069,1.3889749],[103.9879827,1.3889678],[103.9879767,1.3889874],[103.9879499,1.388979],[103.987945,1.3889948],[103.9879592,1.3889992],[103.9879522,1.3890225],[103.9876592,1.3889327],[103.9876663,1.3889092],[103.9876804,1.3889135],[103.9876852,1.3888977],[103.9876581,1.3888897],[103.9876756,1.3888317],[103.9875896,1.3888049],[103.9875741,1.3888554],[103.9875898,1.3888603],[103.9875943,1.3888458],[103.9876178,1.3888528],[103.9874246,1.3894909],[103.987401,1.3894838],[103.9874052,1.3894693],[103.9873895,1.3894647],[103.987382,1.3894918],[103.987272,1.3894575],[103.987489,1.3887418]]]}},{"type":"Feature","properties":{"type":"HDB"},"geometry":{"type":"Polygon","coordinates":[[[103.9881093,1.3889001],[103.988487,1.3890162],[103.9883717,1.3893966],[103.9879937,1.3892802],[103.9881093,1.3889001]]]}},{"type":"Feature","properties":{"type":"LANDMARK"},"geometry":{"type":"Polygon","coordinates":[[[103.9749838,1.3894175],[103.9750427,1.3892899],[103.975101,1.3893169],[103.9751183,1.3892797],[103.975194,1.3893155],[103.975177,1.3893525],[103.9752454,1.3893842],[103.9753122,1.3892431],[103.9752968,1.3892351],[103.9753378,1.3891462],[103.9754776,1.3892122],[103.9754363,1.3893008],[103.9754224,1.3892937],[103.9753593,1.3894365],[103.9754256,1.3894674],[103.9754431,1.3894304],[103.9755181,1.3894652],[103.9755019,1.389503],[103.9755597,1.3895306],[103.9755154,1.3896286],[103.9755195,1.3896305],[103.9755052,1.3896608],[103.9754748,1.3896461],[103.9754769,1.3896413],[103.9753719,1.3895932],[103.9753613,1.3896148],[103.9753235,1.389597],[103.9753261,1.3895922],[103.9751475,1.3895073],[103.9751442,1.3895137],[103.9751066,1.3894955],[103.975118,1.3894741],[103.9750124,1.3894238],[103.975009,1.3894291],[103.9749838,1.3894175]]]}},{"type":"Feature","properties":{"type":"HDB"},"geometry":{"type":"Polygon","coordinates":[[[103.98784,1.3897862],[103.9879555,1.389406],[103.9883332,1.3895222],[103.9882178,1.389902],[103.98784,1.3897862]]]}}]}