{"type":"FeatureCollection","features":[{"type":"Feature","properties":{"type":"LANDMARK"},"geometry":{"type":"Polygon","coordinates":[[[103.8589233,1.2863396],[103.8589549,1.2862862],[103.8589047,1.2862627],[103.8589021,1.2862161],[103.8589033,1.2861759],[103.8589051,1.286156],[103.8589574,1.2861322],[103.8589342,1.2860869],[103.8589444,1.2860699],[103.8589672,1.2860367],[103.8589968,1.2860008],[103.8590489,1.2860099],[103.859058,1.2859645],[103.8591069,1.2859447],[103.8591517,1.2859333],[103.8591581,1.2859322],[103.8591718,1.2859426],[103.8591954,1.2858954],[103.8592276,1.2858401],[103.8592525,1.2858065],[103.8592724,1.285788],[103.8593251,1.285802],[103.8593758,1.2858223],[103.8593805,1.2858446],[103.8593817,1.2858741],[103.8593751,1.28595],[103.8594264,1.2859238],[103.8594637,1.2859085],[103.859502,1.2858978],[103.8595345,1.2858954],[103.8595682,1.2859372],[103.8595969,1.2859825],[103.8595873,1.2860074],[103.8595676,1.2860389],[103.8595399,1.2860726],[103.8595066,1.2861067],[103.8595541,1.2861143],[103.85959,1.2861237],[103.8596181,1.2861357],[103.8596371,1.2861505],[103.8596423,1.2861576],[103.8596452,1.2861985],[103.8596418,1.2862666],[103.8596277,1.2862818],[103.8596003,1.2862963],[103.8595565,1.2863087],[103.8595149,1.2863146],[103.8595441,1.2863439],[103.8595626,1.2863672],[103.8595735,1.2863876],[103.859576,1.2864049],[103.8595611,1.2864343],[103.8595393,1.2864672],[103.8595156,1.286497],[103.8594928,1.2865201],[103.8594779,1.2865234],[103.8594581,1.2865208],[103.8594289,1.2865104],[103.8593985,1.2864952],[103.8594034,1.2865423],[103.8594007,1.2865588],[103.8593941,1.2865692],[103.8593554,1.2865884],[103.8593072,1.2866061],[103.8592577,1.2866174],[103.8592291,1.2866196],[103.8592137,1.2866075],[103.8591977,1.2865832],[103.8591637,1.2865017],[103.8591458,1.2865204],[103.8590888,1.2865036],[103.8590456,1.2864872],[103.8590406,1.2864139],[103.8589851,1.2864258],[103.8589233,1.2863396]]]}},{"type":"Feature","properties":{"type":"LANDMARK"},"geometry":{"type":"Polygon","coordinates":[[[103.8598698,1.2878075],[103.8600883,1.2878274],[103.8599721,1.2882405],[103.8598161,1.2879984],[103.8598698,1.2878075]]]}},{"type":"Feature","properties":{"type":"LANDMARK"},"geometry":{"type":"Polygon","coordinates":[[[103.8577386,1.2895476],[103.85783,1.2893518],[103.8577664,1.2892968],[103.8577067,1.2892369],[103.8577292,1.2892157],[103.8577047,1.2891883],[103.8578001,1.2891044],[103.8578216,1.2891284],[103.8578923,1.2890615],[103.8579562,1.2891246],[103.8579983,1.2891597],[103.8580425,1.2891923],[103.8581304,1.289249],[103.8583845,1.289085],[103.8584181,1.2890944],[103.8584974,1.2891065],[103.8585775,1.2891089],[103.8586574,1.2891015],[103.8587358,1.2890846],[103.8588117,1.2890583],[103.8588838,1.2890231],[103.8589512,1.2889793],[103.8590129,1.2889278],[103.859068,1.2888691],[103.8591157,1.2888042],[103.8591554,1.288734],[103.8591863,1.2886596],[103.8592081,1.2885819],[103.8592132,1.2885491],[103.8594651,1.2883863],[103.8594525,1.2882783],[103.8594413,1.2882244],[103.8594093,1.288119],[103.859365,1.2880183],[103.8593384,1.2879701],[103.8592822,1.2878865],[103.8593677,1.2878215],[103.8593552,1.2878052],[103.8594082,1.2877632],[103.8594281,1.2877895],[103.859492,1.2877419],[103.8595383,1.2878097],[103.8595715,1.2878656],[103.8595799,1.2878665],[103.8595773,1.287849],[103.8597267,1.2878269],[103.8597572,1.288036],[103.8598534,1.2876939],[103.8601292,1.2877121],[103.8601369,1.2876846],[103.8601524,1.2876891],[103.8601457,1.2877132],[103.8601655,1.2877145],[103.8599045,1.2886428],[103.8599814,1.2887628],[103.859979,1.2887906],[103.8600229,1.2888595],[103.8602137,1.2890184],[103.8602169,1.2890186],[103.8601349,1.289137],[103.8602495,1.289318],[103.8602531,1.2893336],[103.8602603,1.2894586],[103.8598463,1.2894863],[103.8577288,1.2896073],[103.8577533,1.2895545],[103.8577386,1.2895476]]]}},{"type":"Feature","properties":{"type":"LANDMARK"},"geometry":{"type":"Polygon","coordinates":[[[103.8577067,1.2892369],[103.8577249,1.289211],[103.8577047,1.2891883],[103.8578001,1.2891044],[103.8578216,1.2891284],[103.8578923,1.2890615],[103.8579562,1.2891246],[103.8579983,1.2891597],[103.8580425,1.2891923],[103.8581304,1.289249],[103.8583845,1.289085],[103.8584181,1.2890944],[103.8584974,1.2891065],[103.8585775,1.2891089],[103.8586574,1.2891015],[103.8587358,1.2890846],[103.8588117,1.2890583],[103.8588838,1.2890231],[103.8589512,1.2889793],[103.8590129,1.2889278],[103.859068,1.2888691],[103.8591157,1.2888042],[103.8591554,1.288734],[103.8591863,1.2886596],[103.8592081,1.2885819],[103.8592132,1.2885491],[103.8594651,1.2883863],[103.8594525,1.2882783],[103.8594413,1.2882244],[103.8594093,1.288119],[103.859365,1.2880183],[103.8593384,1.2879701],[103.8592822,1.2878865],[103.8593677,1.2878215],[103.8593552,1.2878052],[103.8594082,1.2877632],[103.8594281,1.2877895],[103.859492,1.2877419],[103.8595478,1.2878249],[103.8595973,1.2879145],[103.8596249,1.2879741],[103.8596512,1.2880408],[103.859678,1.2881256],[103.8597056,1.2882526],[103.8597178,1.2883597],[103.85972,1.2884802],[103.8597158,1.2885451],[103.8597118,1.2885818],[103.8596629,1.2886139],[103.8596372,1.2887344],[103.8596006,1.2888464],[103.8595525,1.2889539],[103.8594935,1.2890558],[103.8595409,1.289064],[103.8595,1.2891247],[103.8594548,1.2891836],[103.8595007,1.2892219],[103.859423,1.2893081],[103.8593389,1.2893854],[103.8592501,1.289453],[103.859156,1.289512],[103.8591234,1.2894536],[103.8590531,1.2894902],[103.8589792,1.2895224],[103.8589629,1.2894806],[103.8588917,1.289506],[103.8588183,1.2895265],[103.8587433,1.289542],[103.8586672,1.2895523],[103.8585675,1.2895578],[103.8584655,1.289554],[103.858365,1.289541],[103.8582671,1.289519],[103.8582111,1.2895554],[103.8581419,1.2895315],[103.858068,1.2895002],[103.8579964,1.2894638],[103.8579275,1.2894225],[103.8578617,1.2893765],[103.8577984,1.2893255],[103.8577256,1.2892568],[103.8577067,1.2892369]]]}},{"type":"Feature","properties":{"type":"LANDMARK"},"geometry":{"type":"Polygon","coordinates":[[[103.8573181,1.2892939],[103.857416,1.289286],[103.8574193,1.2893281],[103.8573215,1.289336],[103.8573181,1.2892939]]]}},{"type":"Feature","properties":{"type":"LANDMARK"},"geometry":{"type":"Polygon","coordinates":[[[103.8563507,1.2892262],[103.8563497,1.289188],[103.8563539,1.2891657],[103.8563618,1.2891444],[103.8563733,1.2891248],[103.856388,1.2891076],[103.8564055,1.2890932],[103.8564252,1.289082],[103.8564465,1.2890745],[103.8564688,1.2890708],[103.8564914,1.289071],[103.8565136,1.2890752],[103.8565347,1.2890832],[103.8565541,1.2890948],[103.8565713,1.2891096],[103.8565856,1.2891272],[103.8565967,1.289147],[103.8566042,1.2891684],[103.8566079,1.2891909],[103.8567389,1.2891803],[103.8567696,1.2895674],[103.8566043,1.2895807],[103.8566049,1.2895891],[103.8565601,1.2895927],[103.8565343,1.2892665],[103.8565211,1.2892675],[103.8565188,1.289239],[103.8565301,1.2892381],[103.8565285,1.2892183],[103.856594,1.289213],[103.85659,1.2891783],[103.8565844,1.2891594],[103.8565637,1.2891258],[103.8565494,1.2891123],[103.8565149,1.2890936],[103.8564957,1.2890891],[103.8564565,1.2890903],[103.8564377,1.289096],[103.8564044,1.2891168],[103.8563801,1.2891478],[103.8563679,1.2891853],[103.8563691,1.2892247],[103.8563507,1.2892262]]]}},{"type":"Feature","properties":{"type":"LANDMARK"},"geometry":{"type":"Polygon","coordinates":[[[103.8564526,1.2892409],[103.8564706,1.2892393],[103.8564678,1.289267],[103.8564699,1.2892894],[103.8564758,1.2893111],[103.8564592,1.2893127],[103.8564616,1.2893476],[103.8564774,1.2893477],[103.8564773,1.2893907],[103.8564834,1.2894196],[103.8564674,1.289422],[103.8564706,1.2894625],[103.8564553,1.2894637],[103.8564342,1.2892021],[103.8564499,1.289201],[103.8564526,1.2892409]]]}},{"type":"Feature","properties":{"type":"LANDMARK"},"geometry":{"type":"Polygon","coordinates":[[[103.8569442,1.2892463],[103.8572093,1.2892271],[103.8572363,1.2896062],[103.8569713,1.2896253],[103.8569442,1.2892463]]]}},{"type":"Feature","properties":{"type":"LANDMARK"},"geometry":{"type":"Polygon","coordinates":[[[103.8557928,1.2892777],[103.855895,1.2892721],[103.8559642,1.2893446],[103.8559397,1.2893685],[103.8559231,1.2894018],[103.8559187,1.2894388],[103.8559273,1.289475],[103.8559476,1.2895061],[103.8559615,1.2895185],[103.8559945,1.2895353],[103.8560313,1.2895396],[103.8560673,1.289531],[103.8560836,1.2895221],[103.8561105,1.2894966],[103.8561272,1.2894633],[103.8561315,1.2894263],[103.8561229,1.2893901],[103.8561026,1.289359],[103.8560729,1.2893367],[103.8561331,1.2892438],[103.8563691,1.2892247],[103.8563679,1.2891853],[103.8563801,1.2891478],[103.8563909,1.2891312],[103.8564201,1.2891049],[103.8564377,1.289096],[103.8564761,1.289088],[103.8565149,1.2890936],[103.8565494,1.2891123],[103.8565755,1.2891417],[103.8565844,1.2891594],[103.8565919,1.2891907],[103.856594,1.289213],[103.8565234,1.2892184],[103.8565221,1.2891926],[103.856512,1.2891719],[103.8565,1.2891621],[103.8564777,1.2891566],[103.8564626,1.2891596],[103.8564494,1.2891676],[103.8564366,1.2891868],[103.8564342,1.2892021],[103.8564699,1.2896461],[103.8564635,1.2896466],[103.856465,1.2896658],[103.8564048,1.2896707],[103.8564065,1.2896928],[103.8563727,1.2896955],[103.8563843,1.2897585],[103.8563848,1.2898226],[103.8563742,1.2898859],[103.8563517,1.2899487],[103.8563321,1.2899854],[103.8562943,1.2900369],[103.8562481,1.2900811],[103.856195,1.2901165],[103.8561366,1.290142],[103.8560747,1.290157],[103.8560198,1.2901611],[103.8559713,1.2901458],[103.8559229,1.2902896],[103.8557971,1.2902451],[103.8558455,1.2900521],[103.8558392,1.2900014],[103.8558244,1.2899525],[103.8558013,1.289907],[103.8557707,1.2898662],[103.8557335,1.2898314],[103.8556909,1.2898036],[103.8556442,1.2897836],[103.8555947,1.2897722],[103.855544,1.2897695],[103.8554936,1.2897758],[103.855445,1.2897908],[103.8553985,1.2898148],[103.8553522,1.2897106],[103.8554108,1.2896789],[103.8554498,1.2896462],[103.8554825,1.2896072],[103.8555081,1.289563],[103.8555256,1.289515],[103.8555346,1.2894647],[103.8555348,1.2894136],[103.8555261,1.2893633],[103.8555089,1.2893152],[103.8554837,1.2892708],[103.8554512,1.2892316],[103.8554124,1.2891986],[103.8553087,1.2891512],[103.8553244,1.2891257],[103.855287,1.289101],[103.8553346,1.2890501],[103.8553631,1.2890839],[103.8553994,1.2890569],[103.8554398,1.2890368],[103.855483,1.289024],[103.8555279,1.2890189],[103.8555729,1.2890218],[103.8556167,1.2890325],[103.855658,1.2890506],[103.8556955,1.2890758],[103.8557282,1.2891071],[103.8557549,1.2891436],[103.855775,1.2891842],[103.8557877,1.2892278],[103.8557928,1.2892777]]]}},{"type":"Feature","properties":{"type":"LANDMARK"},"geometry":{"type":"Polygon","coordinates":[[[103.8564048,1.2896707],[103.856465,1.2896658],[103.8564668,1.2896879],[103.8564065,1.2896928],[103.8564048,1.2896707]]]}},{"type":"Feature","properties":{"type":"LANDMARK"},"geometry":{"type":"Polygon","coordinates":[[[103.8534606,1.2872017],[103.853398,1.287123],[103.8534705,1.2869726],[103.8535428,1.2869737],[103.8535378,1.2872032],[103.8534606,1.2872017]]]}},{"type":"Feature","properties":{"type":"LANDMARK"},"geometry":{"type":"Polygon","coordinates":[[[103.8521898,1.2889745],[103.8520906,1.2890327],[103.852074,1.2890885],[103.8520894,1.2891128],[103.8519081,1.2892178],[103.8519133,1.2892263],[103.8518894,1.2892412],[103.8518802,1.2892263],[103.8518685,1.2892337],[103.8518512,1.2892056],[103.85184,1.2892126],[103.8518308,1.2891976],[103.8518262,1.2892005],[103.8517951,1.2891501],[103.8518039,1.2891446],[103.8517967,1.289133],[103.8518094,1.289125],[103.8517914,1.2890958],[103.8519389,1.2890037],[103.8519585,1.2890355],[103.8519741,1.2889822],[103.851927,1.2888978],[103.8519638,1.288877],[103.8519519,1.2888557],[103.8521141,1.2887639],[103.8521244,1.2887824],[103.852162,1.2887612],[103.8522094,1.288846],[103.8522654,1.2888629],[103.8522416,1.2888204],[103.8523887,1.2887369],[103.8524095,1.288774],[103.8524232,1.2887662],[103.8524312,1.2887805],[103.8524398,1.2887756],[103.852469,1.2888277],[103.8524591,1.2888333],[103.852467,1.2888475],[103.8524553,1.2888542],[103.852472,1.2888841],[103.8524561,1.2888931],[103.8524641,1.2889074],[103.8524369,1.2889228],[103.8524319,1.2889139],[103.8522542,1.2890147],[103.85224,1.2889893],[103.8521898,1.2889745]]]}},{"type":"Feature","properties":{"type":"LANDMARK"},"geometry":{"type":"Polygon","coordinates":[[[103.8551036,1.2890575],[103.8554124,1.2891986],[103.8554512,1.2892316],[103.8554837,1.2892708],[103.8555089,1.2893152],[103.8555261,1.2893633],[103.8555348,1.2894136],[103.8555346,1.2894647],[103.8555256,1.289515],[103.8555081,1.289563],[103.8554825,1.2896072],[103.8554498,1.2896462],[103.8554108,1.2896789],[103.8553522,1.2897106],[103.8553985,1.2898148],[103.855445,1.2897908],[103.8554936,1.2897758],[103.855544,1.2897695],[103.8555947,1.2897722],[103.8556442,1.2897836],[103.8556909,1.2898036],[103.8557335,1.2898314],[103.8557707,1.2898662],[103.8558013,1.289907],[103.8558244,1.2899525],[103.8558392,1.2900014],[103.8558455,1.2900521],[103.8557646,1.2903748],[103.8558007,1.2903798],[103.8557859,1.2904419],[103.8557516,1.2904291],[103.8557318,1.290488],[103.8557082,1.290531],[103.8556775,1.2905692],[103.8556407,1.2906015],[103.8555988,1.2906269],[103.8555533,1.2906445],[103.8555054,1.290654],[103.8554566,1.2906549],[103.8554172,1.2906493],[103.8553705,1.2906349],[103.855327,1.2906125],[103.8552881,1.2905829],[103.8552548,1.2905469],[103.8552283,1.2905057],[103.8552092,1.2904604],[103.8551983,1.2904125],[103.8551958,1.2903635],[103.8552032,1.2903086],[103.8552148,1.2902631],[103.8551447,1.2901176],[103.8550332,1.2899655],[103.8549771,1.2898416],[103.8549433,1.2897097],[103.8548708,1.2895635],[103.854831,1.2895357],[103.8547965,1.2895014],[103.8547685,1.2894616],[103.8547478,1.2894175],[103.854735,1.2893705],[103.8547306,1.2893219],[103.8547364,1.2892633],[103.8547504,1.2892166],[103.8547723,1.289173],[103.8548013,1.289134],[103.8548366,1.2891006],[103.8548772,1.2890739],[103.8549217,1.2890546],[103.8549689,1.2890435],[103.8550172,1.2890408],[103.8550654,1.2890465],[103.8551036,1.2890575]]]}},{"type":"Feature","properties":{"type":"LANDMARK"},"geometry":{"type":"Polygon","coordinates":[[[103.8512725,1.2938109],[103.8516318,1.2935678],[103.8516579,1.2934212],[103.8515198,1.2931923],[103.8516232,1.2931308],[103.8516547,1.2931396],[103.8518309,1.2934368],[103.8517959,1.2934643],[103.8518049,1.2934932],[103.8518056,1.2935084],[103.8518018,1.2935308],[103.8517882,1.2935579],[103.8517782,1.2935692],[103.8517599,1.2935827],[103.8517807,1.2936356],[103.8513459,1.293942],[103.851235,1.2940079],[103.851202,1.2940019],[103.8511352,1.2938998],[103.8512725,1.2938109]]]}},{"type":"Feature","properties":{"type":"LANDMARK"},"geometry":{"type":"Polygon","coordinates":[[[103.8548694,1.2939507],[103.8549105,1.2939229],[103.8548998,1.2939056],[103.8550157,1.2938332],[103.8550382,1.2938646],[103.8550436,1.2938602],[103.8553582,1.29438],[103.8552111,1.2944729],[103.8551478,1.2943703],[103.8551317,1.2943778],[103.8550028,1.2941682],[103.8549916,1.2941735],[103.8549541,1.2941134],[103.8549642,1.2941055],[103.8548694,1.2939507]]]}},{"type":"Feature","properties":{"type":"LANDMARK"},"geometry":{"type":"Polygon","coordinates":[[[103.8515896,1.2950358],[103.8514443,1.2951349],[103.8515274,1.2952457],[103.851464,1.2952825],[103.8513314,1.2951198],[103.8519051,1.2947563],[103.8519386,1.2948114],[103.8516186,1.2950209],[103.8515896,1.2950358]]]}},{"type":"Feature","properties":{"type":"LANDMARK"},"geometry":{"type":"Polygon","coordinates":[[[103.8522056,1.2953312],[103.8525213,1.2951105],[103.8526197,1.2952521],[103.8526801,1.2952073],[103.8525823,1.295068],[103.8525661,1.2950793],[103.8525031,1.2949885],[103.8525202,1.2949791],[103.8524397,1.2948661],[103.8524225,1.2948801],[103.8523647,1.2947978],[103.8523803,1.2947856],[103.8522743,1.2946385],[103.8525434,1.2944691],[103.8529882,1.2950957],[103.8519693,1.2958312],[103.8519076,1.2957694],[103.8521174,1.2956195],[103.8521317,1.2956389],[103.8521449,1.2956278],[103.8520809,1.2955437],[103.8521554,1.2954887],[103.8522185,1.2955726],[103.8522553,1.295548],[103.8522403,1.2955256],[103.8523097,1.2954743],[103.8522056,1.2953312]]]}},{"type":"Feature","properties":{"type":"HDB"},"geometry":{"type":"Polygon","coordinates":[[[103.8538313,1.2969377],[103.8537646,1.2969912],[103.8537503,1.2969731],[103.8537194,1.2969979],[103.8536663,1.2969309],[103.8537204,1.2968875],[103.8537135,1.2968788],[103.8540317,1.2966235],[103.8540386,1.2966322],[103.8540947,1.2965882],[103.8541478,1.2966552],[103.854114,1.2966814],[103.8541283,1.2966995],[103.8540593,1.2967548],[103.854045,1.2967368],[103.8539441,1.2968177],[103.8539584,1.2968357],[103.8538922,1.2968889],[103.8538778,1.2968708],[103.853817,1.2969196],[103.8538313,1.2969377]]]}},{"type":"Feature","properties":{"type":"HDB"},"geometry":{"type":"Polygon","coordinates":[[[103.8532909,1.2972209],[103.8530374,1.2969007],[103.8530931,1.2968543],[103.8530305,1.29678],[103.8531157,1.2967121],[103.8531529,1.2967593],[103.8538114,1.296231],[103.8542305,1.2967595],[103.8535167,1.297332],[103.853514,1.2973477],[103.8535073,1.2973622],[103.8534908,1.2973792],[103.8534767,1.2973864],[103.8534612,1.2973896],[103.8534454,1.2973885],[103.8534304,1.2973833],[103.8534173,1.2973743],[103.8533129,1.2972426],[103.8533034,1.2972359],[103.8532909,1.2972209]]]}},{"type":"Feature","properties":{"type":"HDB"},"geometry":{"type":"Polygon","coordinates":[[[103.8534244,1.2967112],[103.8534928,1.2966563],[103.853504,1.2966705],[103.8535304,1.2966493],[103.8535833,1.296716],[103.8535315,1.2967576],[103.8535421,1.2967709],[103.8532248,1.2970254],[103.8532142,1.2970121],[103.85316,1.2970556],[103.8531071,1.2969888],[103.8531409,1.2969617],[103.8531297,1.2969476],[103.8531957,1.2968946],[103.8532069,1.2969088],[103.8532742,1.2968548],[103.8533098,1.2968263],[103.8532986,1.2968122],[103.8533642,1.2967595],[103.8533754,1.2967736],[103.8534356,1.2967253],[103.8534244,1.2967112]]]}},{"type":"Feature","properties":{"type":"LANDMARK"},"geometry":{"type":"Polygon","coordinates":[[[103.8513982,1.2935076],[103.8510429,1.2937067],[103.8509413,1.2935199],[103.8509503,1.2934884],[103.8513388,1.2932678],[103.8513744,1.2933328],[103.8513829,1.2933287],[103.8514116,1.2933788],[103.8514052,1.2933842],[103.85142,1.2934099],[103.8514302,1.2934043],[103.8514358,1.2934224],[103.8514193,1.2934895],[103.8514215,1.2934934],[103.851404,1.2935126],[103.8513982,1.2935076]]]}},{"type":"Feature","properties":{"type":"LANDMARK"},"geometry":{"type":"Polygon","coordinates":[[[103.851117,1.2938278],[103.851513,1.2935476],[103.8515441,1.2933956],[103.851456,1.2932469],[103.8514631,1.2932268],[103.8515198,1.2931923],[103.8516579,1.2934212],[103.8516318,1.2935678],[103.8513479,1.2937622],[103.8511352,1.2938998],[103.8511101,1.2938462],[103.851117,1.2938278]]]}},{"type":"Feature","properties":{"type":"LANDMARK"},"geometry":{"type":"Polygon","coordinates":[[[103.8505387,1.2940972],[103.8508094,1.2939324],[103.850883,1.2940554],[103.8510863,1.2939391],[103.8511603,1.2940692],[103.8507665,1.2943037],[103.850729,1.294324],[103.8507019,1.2943281],[103.8506931,1.2943276],[103.8506715,1.2943158],[103.8506503,1.2942909],[103.8505387,1.2940972]]]}},{"type":"Feature","properties":{"type":"LANDMARK"},"geometry":{"type":"Polygon","coordinates":[[[103.8554462,1.2944113],[103.8557275,1.2948922],[103.8556169,1.294957],[103.8555021,1.2947614],[103.8554666,1.294782],[103.8554258,1.294715],[103.8554623,1.2946944],[103.8553367,1.2944794],[103.8554462,1.2944113]]]}},{"type":"Feature","properties":{"type":"LANDMARK"},"geometry":{"type":"Polygon","coordinates":[[[103.8557297,1.2951461],[103.8557748,1.2951191],[103.8558027,1.2951645],[103.8561162,1.2949786],[103.8562171,1.2951504],[103.8559014,1.2953352],[103.8559283,1.2953817],[103.8558821,1.2954076],[103.8557297,1.2951461]]]}},{"type":"Feature","properties":{"type":"LANDMARK"},"geometry":{"type":"Polygon","coordinates":[[[103.8559895,1.2955935],[103.8561065,1.2955243],[103.8563652,1.2959717],[103.8562493,1.2960376],[103.8559895,1.2955935]]]}},{"type":"Feature","properties":{"type":"LANDMARK"},"geometry":{"type":"Polygon","coordinates":[[[103.8573195,1.2973994],[103.8570685,1.2971405],[103.8572489,1.2969602],[103.8572876,1.2970012],[103.8571822,1.2971074],[103.8572655,1.2971922],[103.8572932,1.2971637],[103.8572452,1.2971159],[103.8573297,1.2970326],[103.8574481,1.2971565],[103.8573647,1.2972352],[103.8573182,1.2971881],[103.8572893,1.2972164],[103.8573603,1.2972886],[103.8574665,1.2971906],[103.8575038,1.2972301],[103.8573195,1.2973994]]]}},{"type":"Feature","properties":{"type":"LANDMARK"},"geometry":{"type":"Polygon","coordinates":[[[103.8644614,1.3026042],[103.8645267,1.3025178],[103.8644708,1.3024751],[103.8645223,1.302407],[103.8645489,1.3024274],[103.8646547,1.3022875],[103.8647004,1.3023459],[103.864702,1.3022859],[103.8648224,1.3021267],[103.8656675,1.3027734],[103.8657528,1.3028423],[103.8656349,1.3030047],[103.86558,1.3029635],[103.8655394,1.3030194],[103.8655568,1.3030322],[103.865495,1.3031173],[103.8655307,1.3031435],[103.8654678,1.3032301],[103.8653775,1.303157],[103.8653065,1.3032509],[103.8644614,1.3026042]]]}}]}