{"type":"FeatureCollection","features":[{"type":"Feature","properties":{"type":"LANDMARK"},"geometry":{"type":"Polygon","coordinates":[[[103.7266416,1.4237192],[103.7265333,1.4235286],[103.727079,1.4232412],[103.7271797,1.4234357],[103.7266416,1.4237192]]]}},{"type":"Feature","properties":{"type":"LANDMARK"},"geometry":{"type":"Polygon","coordinates":[[[103.7272575,1.4235776],[103.7273097,1.4234177],[103.7271417,1.4233622],[103.7271688,1.4232789],[103.7273397,1.4233354],[103.7273481,1.4233098],[103.7277592,1.4234457],[103.7276715,1.4237144],[103.7272575,1.4235776]]]}},{"type":"Feature","properties":{"type":"LANDMARK"},"geometry":{"type":"Polygon","coordinates":[[[103.7277153,1.4235801],[103.7277323,1.4235282],[103.7277877,1.4235466],[103.7277968,1.4235187],[103.7278745,1.4235444],[103.7278828,1.4235191],[103.7279605,1.4235448],[103.7279253,1.4236527],[103.7277153,1.4235801]]]}},{"type":"Feature","properties":{"type":"LANDMARK"},"geometry":{"type":"Polygon","coordinates":[[[103.7279608,1.4236604],[103.7279938,1.4235588],[103.7281606,1.4236127],[103.7281282,1.4237144],[103.7279608,1.4236604]]]}},{"type":"Feature","properties":{"type":"LANDMARK"},"geometry":{"type":"Polygon","coordinates":[[[103.7287045,1.4252743],[103.7286718,1.4251791],[103.7286484,1.4251903],[103.7285943,1.4250753],[103.7285103,1.4251153],[103.7284683,1.4250261],[103.7285847,1.4249706],[103.7285475,1.4248916],[103.7285971,1.4247211],[103.7285392,1.4247169],[103.7285083,1.424671],[103.7285108,1.4246355],[103.7284708,1.4246327],[103.7284786,1.424523],[103.7285785,1.4245302],[103.7285806,1.4245006],[103.7286384,1.4245048],[103.7286092,1.4244351],[103.728211,1.424292],[103.7282216,1.4242619],[103.7281763,1.4242456],[103.7282137,1.4241405],[103.7282639,1.4241586],[103.7283079,1.4240347],[103.7287707,1.4242011],[103.7287335,1.4242926],[103.728779,1.4243176],[103.7287901,1.4243505],[103.7288075,1.4243563],[103.7288257,1.4243014],[103.7289274,1.4243355],[103.7288947,1.4244341],[103.7288451,1.4244174],[103.7288079,1.4244258],[103.7288286,1.4244715],[103.7288203,1.4245006],[103.7288473,1.424515],[103.7288715,1.4245338],[103.728892,1.4245566],[103.7289147,1.4245966],[103.7289238,1.424626],[103.7289277,1.4246565],[103.7289263,1.4246872],[103.7289196,1.4247173],[103.7289079,1.4247457],[103.7288914,1.4247716],[103.7288591,1.4248041],[103.7288194,1.4248272],[103.7287903,1.4248365],[103.72876,1.4248405],[103.7287849,1.4248957],[103.7287553,1.4249092],[103.7287837,1.4249722],[103.7288323,1.42495],[103.7289318,1.4251703],[103.7287045,1.4252743]]]}}]}