{"type":"FeatureCollection","features":[{"type":"Feature","properties":{"type":"LANDMARK"},"geometry":{"type":"Polygon","coordinates":[[[103.8146972,1.4163482],[103.8149386,1.416386],[103.8149426,1.4163671],[103.8151726,1.4164056],[103.8151771,1.4164002],[103.815221,1.4164276],[103.8151431,1.4165575],[103.8151009,1.4165311],[103.8151425,1.4164583],[103.8150539,1.4164407],[103.8150392,1.4165244],[103.8146784,1.416465],[103.8146972,1.4163482]]]}},{"type":"Feature","properties":{"type":"LANDMARK"},"geometry":{"type":"Polygon","coordinates":[[[103.8159335,1.4165209],[103.8161047,1.4163907],[103.8161297,1.4164232],[103.8159589,1.4165525],[103.8159335,1.4165209]]]}},{"type":"Feature","properties":{"type":"LANDMARK"},"geometry":{"type":"Polygon","coordinates":[[[103.815915,1.4164994],[103.8159512,1.4165424],[103.8159242,1.4165663],[103.8158876,1.4165217],[103.815915,1.4164994]]]}},{"type":"Feature","properties":{"type":"LANDMARK"},"geometry":{"type":"Polygon","coordinates":[[[103.8148877,1.4164995],[103.8149264,1.4165058],[103.8149223,1.4165314],[103.81504,1.4165508],[103.8150195,1.4166765],[103.8147256,1.4166282],[103.814738,1.4165523],[103.814723,1.4165499],[103.814727,1.4165254],[103.8147213,1.4165245],[103.814723,1.4165135],[103.8147197,1.416513],[103.8147245,1.4164726],[103.8147743,1.4164808],[103.8147718,1.4164963],[103.8147841,1.4164983],[103.8147824,1.4165086],[103.8148835,1.4165253],[103.8148877,1.4164995]]]}},{"type":"Feature","properties":{"type":"LANDMARK"},"geometry":{"type":"Polygon","coordinates":[[[103.8158949,1.4168161],[103.8159775,1.416794],[103.8159675,1.4165867],[103.8160555,1.4165821],[103.8160666,1.4168023],[103.8161345,1.417061],[103.8162349,1.4172588],[103.8161562,1.4172986],[103.8160538,1.4170956],[103.816022,1.4171028],[103.8159996,1.4170187],[103.8159517,1.4170322],[103.8159692,1.4170988],[103.8159345,1.4171081],[103.8159502,1.4171679],[103.8159081,1.4171791],[103.8158921,1.4171183],[103.8158574,1.4171275],[103.8158272,1.4170124],[103.8158055,1.4170182],[103.8158,1.4169972],[103.8157322,1.4170152],[103.8157132,1.4169429],[103.8157811,1.4169248],[103.8157751,1.416902],[103.8157965,1.4168963],[103.8157666,1.4167824],[103.8158063,1.4167718],[103.8158013,1.4167458],[103.8158078,1.416732],[103.8158216,1.4167257],[103.8158362,1.4167298],[103.8158435,1.4167387],[103.8158498,1.4167603],[103.8158783,1.4167527],[103.8158949,1.4168161]]]}},{"type":"Feature","properties":{"type":"LANDMARK"},"geometry":{"type":"Polygon","coordinates":[[[103.8157747,1.4162487],[103.8158416,1.416197],[103.8158606,1.4161979],[103.815872,1.4162068],[103.8158764,1.4162154],[103.815877,1.4162299],[103.8158668,1.416246],[103.8158534,1.4162515],[103.815836,1.4162505],[103.8158222,1.4162545],[103.8157918,1.4162771],[103.8157802,1.416277],[103.8157715,1.4162695],[103.8157696,1.4162581],[103.8157747,1.4162487]]]}},{"type":"Feature","properties":{"type":"LANDMARK"},"geometry":{"type":"Polygon","coordinates":[[[103.8157956,1.4163578],[103.8160189,1.4161821],[103.8160858,1.4162711],[103.8158636,1.4164411],[103.8157956,1.4163578]]]}},{"type":"Feature","properties":{"type":"LANDMARK"},"geometry":{"type":"Polygon","coordinates":[[[103.8161041,1.416307],[103.8161141,1.4163165],[103.8161127,1.416329],[103.8160784,1.4163544],[103.8161047,1.4163907],[103.8159335,1.4165209],[103.815915,1.4164994],[103.8158932,1.4164664],[103.8160937,1.4163068],[103.8161041,1.416307]]]}},{"type":"Feature","properties":{"type":"LANDMARK"},"geometry":{"type":"Polygon","coordinates":[[[103.8153188,1.4162757],[103.8153017,1.4162556],[103.8153005,1.416249],[103.815301,1.4162312],[103.8153156,1.4162172],[103.8153296,1.4162182],[103.8153404,1.4162236],[103.815382,1.4161938],[103.815411,1.4162367],[103.8154838,1.4161812],[103.8155105,1.416215],[103.8155379,1.4161955],[103.8156528,1.416341],[103.8156268,1.4163616],[103.815643,1.4163831],[103.8156537,1.4163754],[103.8156866,1.4164175],[103.8156789,1.4164235],[103.8156969,1.416448],[103.8157067,1.4164381],[103.815723,1.416458],[103.8157394,1.4164553],[103.8157536,1.4164638],[103.8157591,1.4164795],[103.815753,1.4164954],[103.8157651,1.4165105],[103.8157471,1.416525],[103.8157472,1.4165357],[103.8157437,1.4165457],[103.815737,1.4165539],[103.8157279,1.4165593],[103.8157175,1.4165613],[103.8157054,1.4165588],[103.8156871,1.4165681],[103.8156692,1.4165437],[103.815627,1.4165749],[103.8155993,1.4165378],[103.8156406,1.4165071],[103.8156299,1.4164924],[103.8155789,1.4165334],[103.8156275,1.4165984],[103.8155629,1.4166487],[103.8155118,1.4165852],[103.8154877,1.4165828],[103.8154372,1.4165183],[103.8154501,1.4165086],[103.8154426,1.4164993],[103.8154666,1.4164824],[103.8153495,1.4163192],[103.8153416,1.4163261],[103.8153103,1.416282],[103.8153188,1.4162757]]]}},{"type":"Feature","properties":{"type":"LANDMARK"},"geometry":{"type":"Polygon","coordinates":[[[103.8151863,1.4164854],[103.8151986,1.416465],[103.8152284,1.4164818],[103.8152942,1.4163805],[103.8152985,1.4163829],[103.8153046,1.4163767],[103.8152966,1.4163635],[103.8153495,1.4163192],[103.8153676,1.4163444],[103.8153452,1.4163605],[103.8153411,1.4163548],[103.815321,1.4163692],[103.8153257,1.4163758],[103.8152392,1.4165159],[103.8151863,1.4164854]]]}}]}