{"type":"FeatureCollection","features":[{"type":"Feature","properties":{"type":"LANDMARK"},"geometry":{"type":"Polygon","coordinates":[[[103.846697,1.2951204],[103.8467666,1.2947762],[103.8468085,1.2947847],[103.8468357,1.29465],[103.8470033,1.2946844],[103.8469762,1.2948191],[103.8469577,1.2948153],[103.8468883,1.2951595],[103.8469271,1.2951674],[103.846824,1.2956839],[103.8467648,1.2956718],[103.8467485,1.295752],[103.8466148,1.2957246],[103.846631,1.2956444],[103.8465926,1.2956365],[103.8466623,1.2952923],[103.8466293,1.2952856],[103.846664,1.2951136],[103.846697,1.2951204]]]}},{"type":"Feature","properties":{"type":"LANDMARK"},"geometry":{"type":"Polygon","coordinates":[[[103.8483305,1.2923217],[103.8483157,1.2923533],[103.8482861,1.2923548],[103.8483031,1.2923253],[103.8482997,1.2922644],[103.8483506,1.2922616],[103.8483492,1.2922349],[103.8484008,1.2922321],[103.8484055,1.2923175],[103.8483305,1.2923217]]]}},{"type":"Feature","properties":{"type":"LANDMARK"},"geometry":{"type":"Polygon","coordinates":[[[103.848997,1.2923863],[103.8489934,1.2923883],[103.8489733,1.2923508],[103.8489858,1.292344],[103.84897,1.2923145],[103.8490244,1.292285],[103.8490603,1.292352],[103.8490159,1.292376],[103.849035,1.292413],[103.8490175,1.2924216],[103.848997,1.2923863]]]}},{"type":"Feature","properties":{"type":"LANDMARK"},"geometry":{"type":"Polygon","coordinates":[[[103.8484305,1.2923474],[103.8484333,1.2924012],[103.8484539,1.2924001],[103.8484583,1.2924858],[103.8484398,1.2924868],[103.8484423,1.2925371],[103.8482923,1.2925448],[103.8482825,1.2923609],[103.8482861,1.2923548],[103.8484305,1.2923474]]]}},{"type":"Feature","properties":{"type":"LANDMARK"},"geometry":{"type":"Polygon","coordinates":[[[103.8490175,1.2924216],[103.8490389,1.2924111],[103.849115,1.2925634],[103.8490885,1.292577],[103.8491163,1.2926321],[103.848968,1.2927082],[103.8489425,1.2926593],[103.8489176,1.2926724],[103.8488419,1.2925228],[103.8488659,1.29251],[103.8488576,1.2924932],[103.8490137,1.2924141],[103.8490175,1.2924216]]]}},{"type":"Feature","properties":{"type":"LANDMARK"},"geometry":{"type":"Polygon","coordinates":[[[103.848615,1.2926785],[103.8488674,1.2928482],[103.8488303,1.2929046],[103.8488376,1.2929094],[103.8488055,1.2929588],[103.8487982,1.2929539],[103.8487636,1.2930047],[103.8485735,1.2928769],[103.8486157,1.2928133],[103.8485534,1.2927714],[103.848615,1.2926785]]]}},{"type":"Feature","properties":{"type":"LANDMARK"},"geometry":{"type":"Polygon","coordinates":[[[103.8480677,1.2933811],[103.8483741,1.2926919],[103.8483863,1.2926974],[103.8484113,1.2926414],[103.8485575,1.2927075],[103.8483766,1.2931194],[103.8483545,1.2931094],[103.848298,1.293235],[103.8483243,1.293247],[103.8482305,1.2934553],[103.8480677,1.2933811]]]}},{"type":"Feature","properties":{"type":"LANDMARK"},"geometry":{"type":"Polygon","coordinates":[[[103.8482529,1.2934056],[103.8483243,1.293247],[103.8484885,1.2933219],[103.8484794,1.2933419],[103.8485094,1.2933556],[103.8484552,1.293476],[103.8484251,1.2934623],[103.848417,1.2934804],[103.8482529,1.2934056]]]}},{"type":"Feature","properties":{"type":"LANDMARK"},"geometry":{"type":"Polygon","coordinates":[[[103.8511017,1.2957522],[103.8509878,1.2956098],[103.8510285,1.2955769],[103.851037,1.2955876],[103.8511413,1.2955031],[103.8511705,1.2955397],[103.8512239,1.2954964],[103.8512645,1.2955471],[103.8512126,1.2955893],[103.8512416,1.2956255],[103.8511356,1.2957115],[103.851142,1.2957195],[103.8511017,1.2957522]]]}},{"type":"Feature","properties":{"type":"LANDMARK"},"geometry":{"type":"Polygon","coordinates":[[[103.8506867,1.2959039],[103.8506811,1.2958941],[103.8506851,1.2958828],[103.8507022,1.2958692],[103.8507193,1.295871],[103.8507443,1.2958507],[103.8508334,1.2959622],[103.8508147,1.2959774],[103.8508442,1.2960143],[103.8507796,1.2960666],[103.850774,1.2960595],[103.8507417,1.2960857],[103.8507193,1.2960576],[103.8507018,1.2960718],[103.8506144,1.2959625],[103.8506867,1.2959039]]]}},{"type":"Feature","properties":{"type":"LANDMARK"},"geometry":{"type":"Polygon","coordinates":[[[103.8493377,1.2988047],[103.849156,1.2989567],[103.8489658,1.2987315],[103.848937,1.2986837],[103.8489519,1.2985378],[103.8491403,1.2983809],[103.8492947,1.2985668],[103.8492048,1.2986408],[103.8493377,1.2988047]]]}},{"type":"Feature","properties":{"type":"LANDMARK"},"geometry":{"type":"Polygon","coordinates":[[[103.8454629,1.2957682],[103.8454762,1.2957504],[103.8454899,1.2957619],[103.8455183,1.295724],[103.8456108,1.2957973],[103.8455843,1.2958313],[103.8456053,1.2958477],[103.8455924,1.295865],[103.8458643,1.2960705],[103.8457458,1.2962292],[103.8454743,1.2960239],[103.8454646,1.2960369],[103.8453363,1.2959399],[103.8453461,1.2959267],[103.8450742,1.2957212],[103.845192,1.2955634],[103.8454629,1.2957682]]]}},{"type":"Feature","properties":{"type":"LANDMARK"},"geometry":{"type":"Polygon","coordinates":[[[103.8445327,1.297475],[103.8444409,1.2974698],[103.8444479,1.2973434],[103.8444089,1.2973535],[103.8444126,1.297291],[103.8444501,1.297304],[103.8444632,1.2970652],[103.8445551,1.2970703],[103.8445327,1.297475]]]}},{"type":"Feature","properties":{"type":"LANDMARK"},"geometry":{"type":"Polygon","coordinates":[[[103.8473569,1.2976817],[103.8474744,1.297835],[103.8474985,1.2978163],[103.847587,1.2979318],[103.8475509,1.2979603],[103.8475779,1.2979956],[103.8475052,1.298052],[103.8474786,1.2980172],[103.8474424,1.2980457],[103.8473545,1.2979309],[103.8473725,1.2979169],[103.8472537,1.2977618],[103.8473569,1.2976817]]]}}]}