{"type":"FeatureCollection","features":[{"type":"Feature","properties":{"type":"LANDMARK"},"geometry":{"type":"Polygon","coordinates":[[[103.8320605,1.3112568],[103.8319164,1.3111384],[103.8319381,1.3111102],[103.8319161,1.3110914],[103.8319296,1.3110735],[103.8319011,1.3110489],[103.8319738,1.3109575],[103.831985,1.3109655],[103.8319992,1.3109485],[103.8320169,1.310963],[103.8320205,1.3109586],[103.8320437,1.3109777],[103.8321347,1.3108656],[103.8322808,1.3109861],[103.8320605,1.3112568]]]}},{"type":"Feature","properties":{"type":"LANDMARK"},"geometry":{"type":"Polygon","coordinates":[[[103.8382186,1.3023747],[103.8382337,1.3024251],[103.8381972,1.3024362],[103.8381926,1.3024208],[103.8381157,1.3024442],[103.8381192,1.3024558],[103.8380463,1.302478],[103.8380229,1.3023997],[103.8380984,1.3023793],[103.8381126,1.3024266],[103.8381888,1.3024035],[103.8381833,1.3023853],[103.8382186,1.3023747]]]}},{"type":"Feature","properties":{"type":"LANDMARK"},"geometry":{"type":"Polygon","coordinates":[[[103.8390123,1.3022664],[103.839115,1.3025793],[103.8389436,1.3026362],[103.838929,1.3025918],[103.8389993,1.3025684],[103.838936,1.3023753],[103.8388677,1.302398],[103.838843,1.3023226],[103.8390123,1.3022664]]]}},{"type":"Feature","properties":{"type":"LANDMARK"},"geometry":{"type":"Polygon","coordinates":[[[103.8385961,1.3026226],[103.8386203,1.3026986],[103.8384625,1.302751],[103.8384142,1.3026036],[103.8383836,1.3026138],[103.838363,1.302551],[103.8383936,1.3025408],[103.8383443,1.3023903],[103.8385121,1.3023354],[103.8385375,1.3024127],[103.8384598,1.3024385],[103.8384796,1.302499],[103.8385145,1.3024875],[103.8385389,1.302562],[103.8385029,1.3025739],[103.8385264,1.3026458],[103.8385961,1.3026226]]]}},{"type":"Feature","properties":{"type":"LANDMARK"},"geometry":{"type":"Polygon","coordinates":[[[103.8375704,1.3053191],[103.8375704,1.3053297],[103.8375653,1.3053389],[103.8375529,1.3053453],[103.8375425,1.3053442],[103.8375318,1.3053352],[103.8375271,1.3053158],[103.8375166,1.3053177],[103.8375087,1.3052744],[103.8374632,1.3052834],[103.8374539,1.305236],[103.8375006,1.3052267],[103.8374926,1.3051858],[103.8374992,1.3051845],[103.8374941,1.3051565],[103.8375186,1.305152],[103.8375234,1.3051786],[103.8375296,1.3051774],[103.8375356,1.30517],[103.8375483,1.3051638],[103.8375623,1.3051647],[103.8375706,1.3051692],[103.8376698,1.3051496],[103.8376903,1.3052621],[103.8376655,1.3052667],[103.837673,1.3053077],[103.8376674,1.3053087],[103.8376551,1.3053193],[103.8376387,1.305322],[103.837624,1.3053168],[103.8376179,1.3053179],[103.8376165,1.3053102],[103.8375704,1.3053191]]]}},{"type":"Feature","properties":{"type":"LANDMARK"},"geometry":{"type":"Polygon","coordinates":[[[103.8380262,1.306108],[103.8377668,1.306006],[103.8377745,1.3059882],[103.837786,1.305972],[103.8377999,1.3059636],[103.8380433,1.3060613],[103.8380262,1.306108]]]}},{"type":"Feature","properties":{"type":"LANDMARK"},"geometry":{"type":"Polygon","coordinates":[[[103.8380097,1.3061528],[103.8377513,1.3060501],[103.8377668,1.306006],[103.8380262,1.306108],[103.8380097,1.3061528]]]}},{"type":"Feature","properties":{"type":"LANDMARK"},"geometry":{"type":"Polygon","coordinates":[[[103.8379933,1.3061961],[103.837753,1.3061014],[103.8377513,1.3060501],[103.8380097,1.3061528],[103.8379933,1.3061961]]]}},{"type":"Feature","properties":{"type":"LANDMARK"},"geometry":{"type":"Polygon","coordinates":[[[103.8379749,1.3062463],[103.8377464,1.306157],[103.8377532,1.3061203],[103.837753,1.3061014],[103.8379934,1.3061958],[103.8379749,1.3062463]]]}},{"type":"Feature","properties":{"type":"LANDMARK"},"geometry":{"type":"Polygon","coordinates":[[[103.8364829,1.3086957],[103.8364385,1.3088131],[103.8362838,1.3087561],[103.8362765,1.3087456],[103.8363191,1.308633],[103.8364829,1.3086957]]]}}]}