{"type":"FeatureCollection","features":[{"type":"Feature","properties":{"type":"LANDMARK"},"geometry":{"type":"Polygon","coordinates":[[[103.9894105,1.4083785],[103.9894289,1.4083825],[103.9894211,1.4084191],[103.9893926,1.4084129],[103.9893952,1.4084005],[103.9893815,1.4083976],[103.9893838,1.4083867],[103.9893735,1.4083845],[103.9893872,1.4083205],[103.9893626,1.4083133],[103.9893654,1.4083036],[103.9893079,1.4082911],[103.989294,1.4083561],[103.989228,1.4083418],[103.9892402,1.4082849],[103.989223,1.4082812],[103.9892413,1.4081954],[103.9892591,1.4081992],[103.989262,1.4081853],[103.989285,1.4081903],[103.9892819,1.4082047],[103.9893063,1.40821],[103.9893093,1.4081962],[103.9893276,1.4082001],[103.9893229,1.4082221],[103.9893613,1.4082305],[103.9893711,1.4081849],[103.9894121,1.4081938],[103.9893985,1.4082577],[103.9893822,1.4082542],[103.9893767,1.4082795],[103.9894622,1.408298],[103.9894527,1.4083421],[103.9894198,1.408335],[103.9894105,1.4083785]]]}}]}