{"type":"FeatureCollection","features":[{"type":"Feature","properties":{"type":"LANDMARK"},"geometry":{"type":"Polygon","coordinates":[[[103.8408927,1.2996663],[103.841039,1.2996305],[103.8410571,1.2997056],[103.8410722,1.2997019],[103.84108,1.2997344],[103.8410646,1.2997382],[103.8410689,1.2997561],[103.8410379,1.2997637],[103.8410337,1.2997463],[103.8409452,1.299768],[103.8409494,1.2997854],[103.8409232,1.2997918],[103.8409188,1.2997737],[103.840902,1.2997778],[103.8408945,1.2997468],[103.8409112,1.2997427],[103.8408927,1.2996663]]]}}]}