{"type":"FeatureCollection","features":[{"type":"Feature","properties":{"type":"HDB"},"geometry":{"type":"Polygon","coordinates":[[[103.842532,1.2752065],[103.8425588,1.2752006],[103.8425559,1.2751877],[103.84264,1.2751703],[103.8426432,1.2751832],[103.8426707,1.2751778],[103.842668,1.2751649],[103.8427499,1.2751483],[103.8427524,1.2751608],[103.8427679,1.2751577],[103.84277,1.275169],[103.8427941,1.2751635],[103.8427921,1.2751524],[103.8428067,1.2751493],[103.8428045,1.2751368],[103.8428841,1.2751205],[103.8428873,1.2751329],[103.8429114,1.2751268],[103.8429089,1.2751159],[103.8429894,1.2751009],[103.842991,1.2751129],[103.8430046,1.2751086],[103.843023,1.275206],[103.8422136,1.2753733],[103.8421927,1.2752752],[103.8422101,1.2752707],[103.8422067,1.2752571],[103.8422891,1.2752406],[103.842292,1.275254],[103.8423182,1.2752487],[103.8423148,1.2752355],[103.8423966,1.2752199],[103.8424,1.2752329],[103.8424149,1.2752304],[103.8424174,1.2752429],[103.8424402,1.2752376],[103.8424377,1.2752256],[103.8424508,1.2752229],[103.8424483,1.2752088],[103.8425293,1.275192],[103.842532,1.2752065]]]}},{"type":"Feature","properties":{"type":"HDB"},"geometry":{"type":"Polygon","coordinates":[[[103.8411958,1.2753017],[103.8412587,1.2753119],[103.8412608,1.2752982],[103.8414322,1.2753601],[103.8413689,1.2757588],[103.8413123,1.2757497],[103.8413146,1.2757353],[103.8412141,1.2757191],[103.8412118,1.2757335],[103.8411073,1.2757167],[103.8411958,1.2753017]]]}},{"type":"Feature","properties":{"type":"HDB"},"geometry":{"type":"Polygon","coordinates":[[[103.8421946,1.275802],[103.8421116,1.2753915],[103.8421487,1.2753833],[103.8421022,1.2751482],[103.8425194,1.2750636],[103.8424685,1.274809],[103.8429621,1.2747088],[103.8432716,1.2762612],[103.8425824,1.2764005],[103.842354,1.2760406],[103.8423452,1.276043],[103.8421946,1.275802]],[[103.842811,1.2759561],[103.8428552,1.2761906],[103.842995,1.2761662],[103.8429477,1.2759287],[103.842811,1.2759561]],[[103.8426035,1.2749265],[103.84265,1.2751657],[103.8427908,1.2751362],[103.8427427,1.274899],[103.8426035,1.2749265]],[[103.8428171,1.2752701],[103.8426781,1.2752981],[103.842785,1.2758308],[103.8429231,1.2758039],[103.8428171,1.2752701]]]}},{"type":"Feature","properties":{"type":"HDB"},"geometry":{"type":"Polygon","coordinates":[[[103.8423254,1.2756891],[103.8423229,1.2756782],[103.8423008,1.2756828],[103.8423024,1.2756921],[103.8422893,1.2756962],[103.8422923,1.275708],[103.8422126,1.2757241],[103.8422094,1.2757128],[103.8422008,1.275716],[103.8421771,1.2756129],[103.8426643,1.2755175],[103.8426854,1.2756165],[103.8426705,1.2756203],[103.8426728,1.2756317],[103.8425902,1.2756478],[103.842589,1.27564],[103.8425752,1.2756423],[103.8425716,1.275628],[103.8425425,1.2756343],[103.8425449,1.2756443],[103.8425295,1.2756474],[103.8425318,1.2756601],[103.8424463,1.2756759],[103.842444,1.2756653],[103.842419,1.2756705],[103.842421,1.2756821],[103.8423396,1.2756975],[103.8423367,1.275687],[103.8423254,1.2756891]]]}},{"type":"Feature","properties":{"type":"HDB"},"geometry":{"type":"Polygon","coordinates":[[[103.842325,1.2759347],[103.8431348,1.2757695],[103.8431545,1.2758669],[103.8431374,1.2758716],[103.8431403,1.2758832],[103.8430616,1.2759002],[103.8430582,1.275887],[103.8430286,1.2758943],[103.8430318,1.2759072],[103.8429481,1.2759246],[103.8429454,1.2759103],[103.8429319,1.2759128],[103.842929,1.2758978],[103.8429048,1.2759033],[103.8429075,1.2759178],[103.8428926,1.2759219],[103.8428949,1.2759328],[103.8428106,1.27595],[103.8428083,1.2759379],[103.8427826,1.2759434],[103.8427849,1.2759545],[103.8427048,1.2759715],[103.8427021,1.2759586],[103.8426718,1.2759651],[103.8426746,1.2759771],[103.8425918,1.2759943],[103.8425895,1.2759834],[103.8425775,1.2759862],[103.842575,1.2759712],[103.8425523,1.2759765],[103.8425545,1.2759905],[103.8425416,1.2759937],[103.8425441,1.2760055],[103.8424636,1.2760214],[103.8424609,1.2760087],[103.8424408,1.2760118],[103.8424433,1.2760256],[103.842363,1.2760428],[103.842361,1.2760297],[103.8423477,1.2760333],[103.842325,1.2759347]]]}},{"type":"Feature","properties":{"type":"HDB"},"geometry":{"type":"Polygon","coordinates":[[[103.841245,1.2761948],[103.8411868,1.2761774],[103.8411968,1.2761436],[103.8410987,1.2761142],[103.8410888,1.276148],[103.841034,1.2761316],[103.8411358,1.2757875],[103.8411917,1.2758042],[103.8411875,1.2758184],[103.8412859,1.2758479],[103.8412901,1.2758337],[103.8413468,1.2758507],[103.841245,1.2761948]]]}},{"type":"Feature","properties":{"type":"HDB"},"geometry":{"type":"Polygon","coordinates":[[[103.8430804,1.2761781],[103.8430955,1.2761763],[103.8430968,1.2761842],[103.8431213,1.2761792],[103.8431192,1.2761712],[103.8431343,1.2761683],[103.8431319,1.2761542],[103.8432175,1.2761381],[103.84322,1.2761512],[103.8432385,1.2761478],[103.8432572,1.2762455],[103.8427765,1.2763421],[103.8427568,1.2762433],[103.8427662,1.2762408],[103.8427631,1.276229],[103.8428429,1.2762126],[103.8428461,1.2762249],[103.8428626,1.276222],[103.8428642,1.2762308],[103.8428894,1.2762267],[103.8428876,1.2762167],[103.8428984,1.2762137],[103.8428955,1.2762031],[103.8429737,1.2761865],[103.8429773,1.2762001],[103.8429992,1.2761948],[103.842997,1.276183],[103.8430777,1.2761649],[103.8430804,1.2761781]]]}},{"type":"Feature","properties":{"type":"HDB"},"geometry":{"type":"Polygon","coordinates":[[[103.8430041,1.2765021],[103.8432751,1.2764492],[103.8433299,1.2767196],[103.8432351,1.2767434],[103.8430579,1.2767817],[103.8430372,1.2766848],[103.8430041,1.2765021]]]}},{"type":"Feature","properties":{"type":"HDB"},"geometry":{"type":"Polygon","coordinates":[[[103.8409731,1.2765173],[103.8410247,1.2764886],[103.8410347,1.2765067],[103.8411242,1.2764569],[103.8411143,1.2764388],[103.8411658,1.2764102],[103.8413383,1.2767244],[103.8412872,1.2767528],[103.8412794,1.2767385],[103.8411894,1.2767885],[103.8411972,1.2768029],[103.8411456,1.2768316],[103.8409731,1.2765173]]]}},{"type":"Feature","properties":{"type":"HDB"},"geometry":{"type":"Polygon","coordinates":[[[103.8413073,1.2768895],[103.8413219,1.2768967],[103.8413671,1.2768038],[103.8413525,1.2767966],[103.8413782,1.2767438],[103.8416986,1.2769017],[103.8416727,1.2769549],[103.8416383,1.276938],[103.8415933,1.2770305],[103.8416277,1.2770474],[103.8416018,1.2771007],[103.8412814,1.2769428],[103.8413073,1.2768895]]]}},{"type":"Feature","properties":{"type":"HDB"},"geometry":{"type":"Polygon","coordinates":[[[103.8429435,1.2769825],[103.8432024,1.2769304],[103.8432024,1.2769161],[103.8431824,1.2768215],[103.8432882,1.2767977],[103.8433155,1.2769357],[103.8433451,1.2769295],[103.8433462,1.2769406],[103.843359,1.276938],[103.84337,1.2769928],[103.8433342,1.2770001],[103.8433435,1.2770416],[103.8433772,1.2770345],[103.8433891,1.2770898],[103.8433756,1.2770927],[103.8433771,1.2771037],[103.8433266,1.2771143],[103.8432106,1.2772995],[103.8430237,1.2773333],[103.8430255,1.2773412],[103.8429402,1.2773596],[103.8429393,1.2773556],[103.8429218,1.2773593],[103.8429222,1.2773625],[103.8428363,1.2773799],[103.8428337,1.2773669],[103.8428229,1.2773702],[103.842817,1.277336],[103.84281,1.2773371],[103.842806,1.2773163],[103.8428474,1.2773083],[103.8428395,1.277267],[103.8427984,1.2772762],[103.8427942,1.2772564],[103.8427998,1.2772546],[103.8427934,1.27722],[103.842804,1.2772178],[103.8428016,1.2772076],[103.8428882,1.2771896],[103.8428888,1.2771932],[103.8429066,1.2771892],[103.8429057,1.2771861],[103.8429905,1.2771692],[103.8429927,1.2771801],[103.8430195,1.277173],[103.8429883,1.2770085],[103.8429541,1.2770154],[103.8429382,1.277011],[103.8429335,1.2770017],[103.8429338,1.2769883],[103.8429435,1.2769825]]]}},{"type":"Feature","properties":{"type":"HDB"},"geometry":{"type":"Polygon","coordinates":[[[103.8429884,1.2772824],[103.8430253,1.2772731],[103.8430354,1.2773311],[103.8430237,1.2773333],[103.8430255,1.2773412],[103.8429402,1.2773596],[103.8429393,1.2773556],[103.8429218,1.2773593],[103.8429222,1.2773625],[103.8428363,1.2773799],[103.8428337,1.2773669],[103.8428229,1.2773702],[103.842817,1.277336],[103.84281,1.2773371],[103.842806,1.2773163],[103.8428474,1.2773083],[103.8428395,1.277267],[103.8427984,1.2772762],[103.8427942,1.2772564],[103.8427998,1.2772546],[103.8427934,1.27722],[103.842804,1.2772178],[103.8428016,1.2772076],[103.8428882,1.2771896],[103.8428888,1.2771932],[103.8429066,1.2771892],[103.8429057,1.2771861],[103.8429905,1.2771692],[103.8429927,1.2771801],[103.8430058,1.2771772],[103.843017,1.2772323],[103.8429812,1.2772403],[103.8429884,1.2772824]]]}},{"type":"Feature","properties":{"type":"HDB"},"geometry":{"type":"Polygon","coordinates":[[[103.8416478,1.2772361],[103.8417044,1.2772639],[103.8416894,1.2772949],[103.8417765,1.2773378],[103.8417915,1.2773069],[103.8418456,1.2773335],[103.8416887,1.277656],[103.8416371,1.2776305],[103.8416441,1.277616],[103.8415519,1.2775705],[103.8415448,1.2775851],[103.841491,1.2775585],[103.8416478,1.2772361]]]}},{"type":"Feature","properties":{"type":"HDB"},"geometry":{"type":"Polygon","coordinates":[[[103.8414688,1.2775959],[103.8415101,1.2776438],[103.8414842,1.2776664],[103.8415477,1.2777401],[103.8415736,1.2777176],[103.841613,1.2777633],[103.8413434,1.2779985],[103.8413057,1.2779548],[103.8413179,1.2779442],[103.8412506,1.2778661],[103.8412385,1.2778767],[103.8411992,1.2778311],[103.8414688,1.2775959]]]}},{"type":"Feature","properties":{"type":"HDB"},"geometry":{"type":"Polygon","coordinates":[[[103.8408621,1.2776561],[103.8411723,1.2778334],[103.8411427,1.2778858],[103.8411287,1.2778778],[103.8410781,1.2779677],[103.841092,1.2779757],[103.8410636,1.278026],[103.8407534,1.2778488],[103.8407831,1.2777961],[103.8408129,1.2778131],[103.8408608,1.2777283],[103.840831,1.2777112],[103.8408621,1.2776561]]]}},{"type":"Feature","properties":{"type":"HDB"},"geometry":{"type":"MultiPolygon","coordinates":[[[[103.8424244,1.2814165],[103.8424042,1.2814287],[103.8423896,1.2814042],[103.8423649,1.2814187],[103.842196,1.2811383],[103.8426155,1.280392],[103.8426873,1.2802565],[103.8426911,1.2802586],[103.8427062,1.2802304],[103.8427335,1.2802446],[103.842728,1.2802551],[103.8427728,1.2802784],[103.8427838,1.2802584],[103.8428242,1.2802797],[103.8428126,1.2803008],[103.843097,1.280454],[103.8431115,1.2804268],[103.8431319,1.2804376],[103.8431413,1.2804201],[103.8431923,1.2804475],[103.8431743,1.2804816],[103.8431507,1.2804688],[103.8431448,1.2804798],[103.8431909,1.2805047],[103.843172,1.2805398],[103.8431777,1.2805428],[103.8431688,1.2805603],[103.8432712,1.280748],[103.8431756,1.2808009],[103.8431324,1.2807218],[103.8431509,1.2807119],[103.843144,1.2806995],[103.8431257,1.2807097],[103.8430933,1.2806508],[103.8431119,1.2806409],[103.8431051,1.2806285],[103.8430868,1.2806387],[103.8430542,1.2805795],[103.8430695,1.2805695],[103.8430374,1.2805351],[103.8430179,1.2805243],[103.8430111,1.2805367],[103.8429521,1.2805049],[103.8429623,1.2804867],[103.8429499,1.2804799],[103.84294,1.2804985],[103.8428809,1.2804663],[103.8428909,1.2804483],[103.8428785,1.2804415],[103.8428686,1.2804601],[103.8428096,1.280428],[103.8428196,1.2804096],[103.8428072,1.2804029],[103.8427973,1.2804215],[103.8427004,1.2803691],[103.8426874,1.2803937],[103.8427088,1.2804052],[103.8425535,1.2806978],[103.8425518,1.2806969],[103.8424285,1.2809358],[103.8424668,1.2809562],[103.8424736,1.2809629],[103.842479,1.280981],[103.8424771,1.2809904],[103.8424681,1.2810023],[103.8424528,1.2810082],[103.8424369,1.2810046],[103.8424008,1.280986],[103.8423328,1.281112],[103.8424162,1.2811569],[103.8424658,1.2810635],[103.8424949,1.2810792],[103.8425294,1.2810144],[103.8425581,1.2810299],[103.8425273,1.2810875],[103.8425332,1.2810907],[103.8425317,1.2810936],[103.8425258,1.2810904],[103.8424738,1.2811878],[103.8424794,1.2811909],[103.842478,1.2811939],[103.8423314,1.281115],[103.8423133,1.2811489],[103.842457,1.2813908],[103.8424214,1.2814122],[103.8424244,1.2814165]]],[[[103.842418,1.2813245],[103.842753,1.2806967],[103.8428397,1.2806743],[103.8429766,1.2807743],[103.8432046,1.281279],[103.843227,1.2813232],[103.8426232,1.2816531],[103.8425867,1.2816497],[103.8424244,1.2814165],[103.8424601,1.281395],[103.842418,1.2813245]]]]}},{"type":"Feature","properties":{"type":"HDB"},"geometry":{"type":"Polygon","coordinates":[[[103.8436486,1.2815619],[103.84359,1.2815943],[103.8435782,1.2815728],[103.8435939,1.2815639],[103.8435757,1.2815286],[103.8435484,1.2815446],[103.843508,1.281471],[103.8434819,1.2814859],[103.8434659,1.2814566],[103.8434378,1.2814721],[103.8434286,1.2814554],[103.8434567,1.2814399],[103.8434276,1.2813866],[103.8434726,1.2813618],[103.8434559,1.2813307],[103.8434104,1.281356],[103.8431694,1.2809155],[103.8433171,1.2808305],[103.8433323,1.2808573],[103.8433547,1.2808442],[103.8436798,1.2814387],[103.8436569,1.2814511],[103.843671,1.2814769],[103.8436428,1.2814913],[103.8436556,1.2815136],[103.8436831,1.2814987],[103.8436974,1.2815254],[103.8436457,1.281555],[103.8436486,1.2815619]]]}},{"type":"Feature","properties":{"type":"LANDMARK"},"geometry":{"type":"Polygon","coordinates":[[[103.8415827,1.2812496],[103.8417936,1.2812318],[103.8417967,1.281261],[103.8418051,1.2812605],[103.841809,1.281309],[103.8418007,1.2813099],[103.8418028,1.2813393],[103.8415911,1.2813576],[103.8415827,1.2812496]]]}},{"type":"Feature","properties":{"type":"HDB"},"geometry":{"type":"Polygon","coordinates":[[[103.8423857,1.2814779],[103.8425701,1.2817881],[103.8423853,1.2818993],[103.8421993,1.2815863],[103.8422522,1.2815546],[103.8422417,1.281537],[103.8421927,1.2815665],[103.8421877,1.2815586],[103.8421776,1.2815647],[103.8421481,1.2815152],[103.8421575,1.2815092],[103.8421354,1.2814719],[103.842126,1.2814775],[103.8420965,1.2814284],[103.8421071,1.281422],[103.8421024,1.2814143],[103.8421784,1.2813685],[103.8421917,1.2813911],[103.8422061,1.2813824],[103.8421927,1.2813599],[103.8422689,1.281314],[103.8422735,1.2813217],[103.8422838,1.2813155],[103.8423126,1.2813639],[103.8422811,1.2813826],[103.8423042,1.2814214],[103.8423355,1.2814025],[103.8423647,1.2814515],[103.8423544,1.2814578],[103.8423592,1.2814659],[103.842384,1.281451],[103.8423649,1.2814187],[103.8423775,1.2814113],[103.8424084,1.2814642],[103.8423857,1.2814779]]]}},{"type":"Feature","properties":{"type":"HDB"},"geometry":{"type":"Polygon","coordinates":[[[103.8434165,1.2816142],[103.8425156,1.2821145],[103.8424569,1.2820073],[103.8424374,1.2820181],[103.8424152,1.2819782],[103.8424513,1.2819575],[103.8424782,1.2820058],[103.8428388,1.2818053],[103.842823,1.2817767],[103.8428613,1.2817555],[103.8428507,1.2817366],[103.8429148,1.2817006],[103.8429257,1.2817199],[103.8429537,1.2817041],[103.8429694,1.2817327],[103.8433452,1.2815238],[103.8433359,1.2815068],[103.8433997,1.2814715],[103.8434089,1.2814884],[103.8433627,1.2815138],[103.8434165,1.2816142]]]}},{"type":"Feature","properties":{"type":"HDB"},"geometry":{"type":"Polygon","coordinates":[[[103.8428231,1.2824259],[103.8427494,1.2824667],[103.8427451,1.2824588],[103.8427339,1.2824649],[103.8427278,1.2824538],[103.8427123,1.2824624],[103.8426784,1.2824005],[103.8426939,1.2823919],[103.842678,1.2823628],[103.8427045,1.2823481],[103.8427099,1.282358],[103.8428814,1.2822629],[103.8427951,1.2821036],[103.8427851,1.282109],[103.8427822,1.2821037],[103.8427435,1.2821233],[103.8427315,1.282117],[103.8427293,1.2821036],[103.8427346,1.282096],[103.8427691,1.2820774],[103.8427826,1.2820801],[103.8427958,1.2820728],[103.8427916,1.2820651],[103.8428688,1.2820221],[103.8428752,1.2820331],[103.842883,1.2820287],[103.8429237,1.282103],[103.8429039,1.282114],[103.8429155,1.2821351],[103.8429353,1.2821241],[103.8429754,1.2821974],[103.8429556,1.2822085],[103.8429621,1.2822203],[103.842942,1.2822315],[103.8429623,1.2822686],[103.8429929,1.2822516],[103.8429987,1.282251],[103.8430032,1.2822546],[103.8430108,1.2822735],[103.8429968,1.2822837],[103.8430133,1.282316],[103.8430093,1.2823226],[103.8429528,1.2823539],[103.8429593,1.2823671],[103.8429555,1.2823746],[103.8429375,1.282382],[103.8429273,1.2823681],[103.842844,1.2824143],[103.8428336,1.2823952],[103.8428127,1.2824068],[103.8428231,1.2824259]]]}},{"type":"Feature","properties":{"type":"HDB"},"geometry":{"type":"Polygon","coordinates":[[[103.8433668,1.2826274],[103.8429958,1.2828666],[103.8429444,1.2828047],[103.8429253,1.282801],[103.8429153,1.2827921],[103.8429098,1.2827799],[103.8429107,1.2827641],[103.8427678,1.282592],[103.8427892,1.2825783],[103.8427814,1.2825658],[103.8427805,1.2825585],[103.8427818,1.2825511],[103.8427907,1.2825396],[103.8428048,1.2825356],[103.8428184,1.2825408],[103.8431173,1.2823492],[103.8430815,1.2822839],[103.8430599,1.2822956],[103.8430551,1.2822949],[103.8430342,1.2822576],[103.8430112,1.2822707],[103.8430094,1.282276],[103.8429968,1.2822837],[103.8430124,1.2823121],[103.8430122,1.2823198],[103.8429528,1.2823539],[103.8429593,1.2823671],[103.8429555,1.2823746],[103.8429375,1.282382],[103.8429273,1.2823681],[103.842844,1.2824143],[103.8428336,1.2823952],[103.8428127,1.2824068],[103.8428231,1.2824259],[103.8427494,1.2824667],[103.8427451,1.2824588],[103.8427339,1.2824649],[103.8427278,1.2824538],[103.8427123,1.2824624],[103.8426784,1.2824005],[103.8426939,1.2823919],[103.842596,1.2822154],[103.8425929,1.2822066],[103.8425935,1.282188],[103.8426027,1.2821719],[103.842625,1.2821576],[103.8426196,1.2821477],[103.8426733,1.2821169],[103.8426786,1.2821265],[103.8427594,1.2820815],[103.8427571,1.282077],[103.8427721,1.2820685],[103.8427752,1.2820742],[103.8427981,1.2820614],[103.8427976,1.2820496],[103.8428065,1.2820417],[103.8428181,1.2820435],[103.8428222,1.282048],[103.842831,1.2820431],[103.8428302,1.2820312],[103.8428391,1.2820231],[103.8428452,1.2820228],[103.8428548,1.2820298],[103.8429231,1.2819918],[103.8429264,1.2819982],[103.8429731,1.2819727],[103.8429808,1.2819598],[103.8429751,1.2819494],[103.8430266,1.2819211],[103.8430326,1.2819316],[103.8431004,1.2818934],[103.8430908,1.2818762],[103.8431496,1.2818432],[103.8431588,1.2818604],[103.8432169,1.2818277],[103.8432077,1.2818109],[103.8432667,1.2817783],[103.8432758,1.2817944],[103.8433347,1.2817612],[103.8433314,1.281751],[103.8433376,1.2817382],[103.8433326,1.2817287],[103.8433851,1.2816993],[103.8433907,1.2817095],[103.8434047,1.2817106],[103.8434132,1.281722],[103.8434101,1.2817359],[103.8434022,1.2817421],[103.8434045,1.2817464],[103.8434967,1.2816952],[103.8436526,1.2819667],[103.8435552,1.2820195],[103.8435578,1.2820243],[103.8435678,1.2820226],[103.843577,1.2820268],[103.8435819,1.2820357],[103.8435805,1.2820457],[103.8435734,1.2820529],[103.8435257,1.2820801],[103.8435147,1.2820817],[103.8435095,1.2820797],[103.8435024,1.2820711],[103.8435022,1.28206],[103.8435139,1.2820484],[103.8435114,1.282044],[103.8432788,1.2821731],[103.8433049,1.2822208],[103.8433699,1.2823002],[103.8433972,1.282285],[103.8433878,1.2822675],[103.8433914,1.2822586],[103.8434052,1.2822512],[103.8434102,1.2822514],[103.8434211,1.2822671],[103.8436436,1.2821445],[103.8436718,1.2821958],[103.8436557,1.2822046],[103.8436607,1.2822136],[103.8436746,1.282208],[103.8436805,1.282211],[103.8436958,1.2822416],[103.8436936,1.282252],[103.8436896,1.2822555],[103.8436993,1.2822719],[103.8437105,1.2822659],[103.8437843,1.2824005],[103.8437869,1.2824089],[103.8437862,1.2824265],[103.8437776,1.2824418],[103.843771,1.2824476],[103.8436245,1.2825331],[103.8436222,1.282528],[103.8436066,1.282537],[103.8436096,1.2825423],[103.8434902,1.2826083],[103.8433754,1.2823989],[103.8433418,1.2824175],[103.8433973,1.282522],[103.8434021,1.2825548],[103.8433956,1.2825874],[103.8433787,1.2826158],[103.8433668,1.2826274]]]}},{"type":"Feature","properties":{"type":"HDB"},"geometry":{"type":"Polygon","coordinates":[[[103.8435957,1.28255],[103.8435232,1.28259],[103.8435041,1.2825552],[103.8434869,1.2825647],[103.843446,1.2824902],[103.8434633,1.2824806],[103.8434258,1.2824121],[103.8434085,1.2824217],[103.8433679,1.2823477],[103.8433852,1.2823381],[103.8433656,1.2823025],[103.8433972,1.282285],[103.8433878,1.2822675],[103.8433881,1.2822624],[103.8434086,1.282251],[103.843414,1.2822547],[103.8434314,1.2822852],[103.8434517,1.282274],[103.84347,1.2823074],[103.8434848,1.2822991],[103.8434734,1.282278],[103.8434744,1.2822726],[103.843504,1.282257],[103.8435085,1.2822602],[103.8435388,1.2823155],[103.8435481,1.2823103],[103.8435103,1.2822414],[103.8435449,1.2822222],[103.8435351,1.2822042],[103.8436121,1.2821617],[103.8436164,1.2821695],[103.8436479,1.2821523],[103.8436718,1.2821958],[103.8436557,1.2822046],[103.8436607,1.2822136],[103.8436746,1.282208],[103.8436805,1.282211],[103.8436958,1.2822416],[103.8436936,1.282252],[103.8436751,1.2822626],[103.8436656,1.2822606],[103.8436594,1.282253],[103.8436345,1.2822668],[103.8436426,1.2822816],[103.8435085,1.282356],[103.8435799,1.2824863],[103.8435801,1.2824961],[103.8435713,1.2825054],[103.8435957,1.28255]]]}},{"type":"Feature","properties":{"type":"HDB"},"geometry":{"type":"Polygon","coordinates":[[[103.8432138,1.2826319],[103.8432028,1.2826402],[103.8431417,1.2825286],[103.8431505,1.2825236],[103.8431656,1.2825293],[103.8431774,1.2825263],[103.8431862,1.2825179],[103.8431895,1.2825021],[103.843298,1.2824418],[103.8433072,1.2824581],[103.8432811,1.282462],[103.843257,1.2824729],[103.8432368,1.2824901],[103.8432221,1.2825122],[103.8432139,1.2825375],[103.8432125,1.2825508],[103.8432153,1.2825772],[103.8432226,1.2825985],[103.8432234,1.2826109],[103.8432201,1.2826229],[103.8432138,1.2826319]]]}},{"type":"Feature","properties":{"type":"HDB"},"geometry":{"type":"Polygon","coordinates":[[[103.8433054,1.2826044],[103.8432877,1.2826009],[103.8432691,1.2825883],[103.8432576,1.282569],[103.8432552,1.2825466],[103.8432576,1.2825355],[103.8432691,1.2825162],[103.8432877,1.2825035],[103.8433098,1.2824998],[103.8433314,1.2825059],[103.8433485,1.2825205],[103.8433543,1.2825302],[103.8433591,1.2825522],[103.8433543,1.2825742],[103.8433407,1.2825922],[103.8433209,1.2826028],[103.8433054,1.2826044]]]}},{"type":"Feature","properties":{"type":"HDB"},"geometry":{"type":"Polygon","coordinates":[[[103.8427,1.2825668],[103.8429652,1.2828863],[103.8427049,1.2830541],[103.8424647,1.2827647],[103.8427,1.2825668]]]}},{"type":"Feature","properties":{"type":"HDB"},"geometry":{"type":"Polygon","coordinates":[[[103.8427049,1.2830541],[103.8424647,1.2827647],[103.8427,1.2825668],[103.8429652,1.2828863],[103.8427049,1.2830541]]]}},{"type":"Feature","properties":{"type":"LANDMARK"},"geometry":{"type":"Polygon","coordinates":[[[103.8410331,1.2829818],[103.8409226,1.2830631],[103.8408117,1.2829103],[103.8409223,1.282829],[103.840961,1.2828826],[103.840999,1.2828556],[103.8410331,1.282902],[103.8409944,1.2829286],[103.8410331,1.2829818]]]}},{"type":"Feature","properties":{"type":"LANDMARK"},"geometry":{"type":"Polygon","coordinates":[[[103.8418023,1.2833344],[103.841419,1.2828743],[103.8413944,1.282895],[103.8413028,1.2827844],[103.8413474,1.2827469],[103.8413554,1.2827565],[103.8413968,1.2827217],[103.841388,1.282711],[103.8414214,1.282683],[103.8416761,1.2829904],[103.8416942,1.2829751],[103.8417579,1.2830543],[103.8417393,1.2830698],[103.8419745,1.2833536],[103.841855,1.2834539],[103.8417762,1.2833565],[103.8418023,1.2833344]]]}},{"type":"Feature","properties":{"type":"LANDMARK"},"geometry":{"type":"MultiPolygon","coordinates":[[[[103.8357777,1.2839481],[103.8357596,1.2839909],[103.8356643,1.2839502],[103.8356824,1.2839073],[103.8357777,1.2839481]]],[[[103.8360796,1.2842808],[103.8361409,1.2843073],[103.8361016,1.2843993],[103.8354809,1.2841307],[103.8354998,1.2840865],[103.8355098,1.2840908],[103.8355303,1.284043],[103.8358865,1.2841972],[103.8359006,1.2841639],[103.8358824,1.2841561],[103.8359843,1.2839149],[103.8359704,1.283909],[103.8360194,1.2837937],[103.8360982,1.2838276],[103.8360876,1.2838525],[103.8362362,1.2839165],[103.8362405,1.2839065],[103.8362681,1.2839184],[103.8362353,1.2839955],[103.8362992,1.2840212],[103.8362782,1.2840687],[103.8362496,1.2841139],[103.8362198,1.2841511],[103.8362094,1.2841428],[103.8360998,1.2842734],[103.8360879,1.2842634],[103.8360796,1.2842808]],[[103.8359658,1.2841003],[103.8360066,1.2841179],[103.8359949,1.2841456],[103.8360126,1.2841507],[103.8360092,1.2841568],[103.8360388,1.2841802],[103.836166,1.2840231],[103.8361811,1.2840259],[103.8361914,1.284004],[103.836035,1.2839367],[103.8359658,1.2841003]]]]}},{"type":"Feature","properties":{"type":"HDB"},"geometry":{"type":"Polygon","coordinates":[[[103.8380202,1.2864073],[103.8380456,1.2864158],[103.8380493,1.2864046],[103.8380987,1.2864211],[103.8380948,1.2864333],[103.8381621,1.2864564],[103.8381663,1.2864433],[103.8382157,1.2864593],[103.8382116,1.2864718],[103.8382558,1.2864871],[103.8382601,1.2864741],[103.8383095,1.2864905],[103.8383055,1.2865029],[103.8383505,1.2865178],[103.8383546,1.2865054],[103.8384033,1.2865206],[103.8383992,1.2865339],[103.8384667,1.2865561],[103.8384711,1.2865438],[103.8385203,1.2865592],[103.838517,1.28657],[103.8385424,1.2865787],[103.8385093,1.2866811],[103.8384835,1.2866724],[103.8384799,1.2866834],[103.8384315,1.2866679],[103.8384356,1.2866549],[103.8383474,1.2866267],[103.8383427,1.286639],[103.8383138,1.2866295],[103.8383181,1.2866165],[103.8382733,1.2866017],[103.8382684,1.2866144],[103.8382201,1.2865985],[103.8382243,1.2865854],[103.8381798,1.2865708],[103.8381752,1.2865838],[103.8381457,1.2865745],[103.8381498,1.2865613],[103.8380615,1.2865335],[103.8380579,1.2865453],[103.8380088,1.2865292],[103.8380125,1.2865182],[103.8379869,1.2865094],[103.8380202,1.2864073]]]}},{"type":"Feature","properties":{"type":"HDB"},"geometry":{"type":"Polygon","coordinates":[[[103.8380243,1.2867572],[103.8379569,1.2867352],[103.8379616,1.2867206],[103.8379242,1.2867083],[103.8379422,1.2866531],[103.8379788,1.2866655],[103.8379882,1.2866374],[103.8379509,1.2866247],[103.8379694,1.2865696],[103.8380071,1.2865814],[103.8380119,1.2865672],[103.8380792,1.286589],[103.8380243,1.2867572]]]}},{"type":"Feature","properties":{"type":"HDB"},"geometry":{"type":"Polygon","coordinates":[[[103.8384002,1.2868814],[103.8383331,1.2868591],[103.8383877,1.2866907],[103.8384547,1.2867128],[103.83845,1.2867267],[103.8384878,1.2867398],[103.8384697,1.2867952],[103.8384323,1.2867829],[103.838423,1.2868113],[103.8384607,1.2868237],[103.8384423,1.2868792],[103.8384051,1.286867],[103.8384002,1.2868814]]]}},{"type":"Feature","properties":{"type":"HDB"},"geometry":{"type":"Polygon","coordinates":[[[103.83862,1.2868882],[103.8386698,1.286764],[103.8387281,1.2867877],[103.8386784,1.2869118],[103.83862,1.2868882]]]}},{"type":"Feature","properties":{"type":"HDB"},"geometry":{"type":"Polygon","coordinates":[[[103.8379324,1.2867638],[103.837981,1.2867801],[103.8379769,1.2867906],[103.838065,1.286822],[103.8380697,1.2868088],[103.8380983,1.286819],[103.8380949,1.2868319],[103.8381393,1.2868467],[103.8381436,1.2868335],[103.8381922,1.2868496],[103.8381879,1.2868628],[103.8382327,1.2868774],[103.838237,1.2868643],[103.8382665,1.286874],[103.8382622,1.2868871],[103.8383501,1.2869164],[103.8383544,1.2869032],[103.8384032,1.2869195],[103.8383996,1.2869302],[103.8384253,1.2869389],[103.8383912,1.2870415],[103.8383662,1.287033],[103.8383626,1.2870442],[103.8383134,1.2870279],[103.8383177,1.2870153],[103.8382504,1.2869924],[103.8382456,1.2870052],[103.8381962,1.2869889],[103.8382005,1.2869766],[103.8381564,1.2869622],[103.8381519,1.2869744],[103.8381028,1.2869581],[103.8381071,1.286945],[103.8380623,1.2869311],[103.8380585,1.2869434],[103.8380092,1.2869273],[103.8380134,1.2869141],[103.8379453,1.2868921],[103.8379406,1.2869052],[103.8378916,1.2868892],[103.8378953,1.2868779],[103.83787,1.2868696],[103.8379033,1.2867669],[103.8379287,1.2867752],[103.8379324,1.2867638]]]}},{"type":"Feature","properties":{"type":"HDB"},"geometry":{"type":"Polygon","coordinates":[[[103.8379073,1.2872782],[103.837828,1.2872521],[103.8378239,1.2872644],[103.8377747,1.2872486],[103.8377783,1.2872374],[103.8377525,1.2872293],[103.8377862,1.2871277],[103.8378117,1.287136],[103.8378154,1.2871247],[103.8378645,1.2871406],[103.8378609,1.2871529],[103.8379283,1.2871756],[103.8379327,1.2871626],[103.8379815,1.2871791],[103.837978,1.2871915],[103.8380221,1.2872067],[103.8380263,1.2871937],[103.8380749,1.2872096],[103.8380716,1.2872223],[103.8381155,1.2872368],[103.8381201,1.2872244],[103.8381685,1.2872407],[103.8381642,1.2872534],[103.8382324,1.2872754],[103.8382369,1.2872635],[103.8382854,1.2872797],[103.838282,1.2872901],[103.8383079,1.2872987],[103.8382744,1.2874015],[103.8382489,1.2873928],[103.8382451,1.2874036],[103.8381965,1.2873877],[103.8382008,1.2873744],[103.8381127,1.2873461],[103.8381087,1.2873585],[103.8380796,1.2873489],[103.8380842,1.2873359],[103.838039,1.2873215],[103.8380343,1.2873343],[103.8379857,1.2873182],[103.8379899,1.2873052],[103.8379451,1.2872909],[103.837941,1.2873031],[103.8379114,1.287294],[103.8379144,1.2872843],[103.8379073,1.2872782]]]}},{"type":"Feature","properties":{"type":"HDB"},"geometry":{"type":"Polygon","coordinates":[[[103.8391305,1.2876467],[103.8385451,1.2874099],[103.8387208,1.2869653],[103.8393448,1.2872171],[103.8391821,1.2876254],[103.8391305,1.2876467]]]}},{"type":"Feature","properties":{"type":"LANDMARK"},"geometry":{"type":"Polygon","coordinates":[[[103.8413925,1.2839633],[103.8416601,1.2839628],[103.8416603,1.2840769],[103.84165,1.2840769],[103.8416386,1.2844961],[103.8416484,1.284498],[103.8416456,1.2845858],[103.8416564,1.2845867],[103.8416507,1.2847606],[103.8416417,1.2847587],[103.841638,1.2848511],[103.8416272,1.284852],[103.8416094,1.2852705],[103.8416251,1.2852713],[103.8416198,1.2853839],[103.8412372,1.2853657],[103.8412419,1.2852262],[103.8413613,1.284148],[103.8414064,1.2841501],[103.8414119,1.2841055],[103.8413927,1.2841046],[103.8413925,1.2839633]],[[103.8414884,1.2840605],[103.8414881,1.2840739],[103.8414533,1.2840733],[103.8414459,1.2841635],[103.841498,1.2841645],[103.8414973,1.2842026],[103.8415384,1.2842033],[103.8415387,1.2841899],[103.841551,1.2841901],[103.8415518,1.2841464],[103.8415429,1.2841463],[103.8415436,1.284113],[103.8415655,1.2841134],[103.8415662,1.284075],[103.841535,1.2840744],[103.8415352,1.2840614],[103.8414884,1.2840605]],[[103.841497,1.2842333],[103.8414951,1.2842769],[103.8414313,1.2842721],[103.8414123,1.284398],[103.8414931,1.2844017],[103.8414916,1.2844353],[103.841556,1.2844383],[103.8415568,1.2844218],[103.8415335,1.2844207],[103.8415349,1.28439],[103.8415435,1.2843904],[103.8415463,1.2843275],[103.8415363,1.2843271],[103.8415378,1.2842959],[103.8415562,1.2842968],[103.8415583,1.2842506],[103.8415383,1.2842497],[103.841539,1.2842352],[103.841497,1.2842333]],[[103.8413998,1.2845056],[103.8413831,1.2846506],[103.8415385,1.2846635],[103.8415436,1.2846021],[103.8415295,1.2846009],[103.8415319,1.2845713],[103.8415422,1.2845722],[103.8415469,1.2845152],[103.8415335,1.2845141],[103.8415358,1.2844852],[103.841554,1.2844867],[103.8415552,1.2844725],[103.8414904,1.2844671],[103.8414866,1.2845128],[103.8413998,1.2845056]],[[103.8414064,1.2851438],[103.8414034,1.2851829],[103.841323,1.2851837],[103.8413191,1.2852734],[103.8413551,1.2852762],[103.8413542,1.2852879],[103.8414124,1.2852924],[103.8414133,1.2852799],[103.8414456,1.2852824],[103.8414451,1.28529],[103.8414968,1.285294],[103.8414979,1.2852792],[103.8415274,1.2852814],[103.8415306,1.2852395],[103.841499,1.2852371],[103.8415013,1.2852068],[103.8415188,1.2852081],[103.8415224,1.2851598],[103.8415028,1.2851582],[103.8415038,1.2851451],[103.8414064,1.2851438]],[[103.8413841,1.284684],[103.841363,1.2848371],[103.8414187,1.2848344],[103.8414179,1.284876],[103.8415395,1.2848796],[103.8415393,1.2848682],[103.8415195,1.2848691],[103.841518,1.2848373],[103.8415328,1.2848366],[103.8415298,1.2847733],[103.8415248,1.2847735],[103.8415233,1.2847414],[103.8415346,1.2847408],[103.8415325,1.2846937],[103.8413841,1.284684]],[[103.8414123,1.2849078],[103.8414104,1.284953],[103.8413502,1.284952],[103.8413357,1.2850598],[103.841412,1.285068],[103.8414075,1.2851106],[103.8415058,1.2851173],[103.841508,1.2850971],[103.8415341,1.2850999],[103.8415386,1.2850576],[103.841509,1.2850544],[103.8415119,1.2850211],[103.8415217,1.2850211],[103.8415263,1.2849659],[103.8415156,1.2849632],[103.8415183,1.2849279],[103.841539,1.2849279],[103.8415399,1.2849107],[103.8414123,1.2849078]]]}},{"type":"Feature","properties":{"type":"HDB"},"geometry":{"type":"Polygon","coordinates":[[[103.8420302,1.2845752],[103.8420698,1.2845411],[103.8420455,1.2845113],[103.842123,1.2844472],[103.8421404,1.2844686],[103.8422536,1.284375],[103.8422605,1.2843835],[103.8422833,1.2843647],[103.8425903,1.284742],[103.842603,1.2847315],[103.8428335,1.2850148],[103.8428208,1.2850253],[103.8431273,1.285402],[103.8431046,1.2854208],[103.8431115,1.2854294],[103.8429983,1.2855229],[103.8430048,1.2855308],[103.8429268,1.2855942],[103.8429139,1.2855786],[103.842873,1.285611],[103.842868,1.2856049],[103.8428657,1.2856068],[103.8428509,1.2855887],[103.8428594,1.2855817],[103.8428416,1.2855599],[103.8428331,1.2855669],[103.8428156,1.2855453],[103.8428179,1.2855433],[103.8428136,1.285538],[103.8428112,1.2855399],[103.8427936,1.2855183],[103.8428021,1.2855113],[103.8427843,1.2854895],[103.8427758,1.2854965],[103.8427583,1.2854749],[103.8427607,1.2854729],[103.8427563,1.2854676],[103.8427539,1.2854696],[103.8427364,1.285448],[103.8427448,1.285441],[103.842708,1.2853956],[103.8426995,1.2854027],[103.8426819,1.2853811],[103.8426843,1.2853791],[103.84268,1.2853737],[103.8426776,1.2853757],[103.84266,1.2853541],[103.8426685,1.2853471],[103.8426507,1.2853253],[103.8426422,1.2853323],[103.8426247,1.2853107],[103.842627,1.2853087],[103.8426227,1.2853034],[103.8426203,1.2853053],[103.8426027,1.2852837],[103.8426112,1.2852767],[103.8425934,1.2852549],[103.842585,1.2852619],[103.8425667,1.2852394],[103.842569,1.2852374],[103.8425647,1.2852321],[103.8425623,1.285234],[103.842544,1.2852116],[103.8425525,1.2852046],[103.8425156,1.2851593],[103.8425071,1.2851663],[103.8424896,1.2851447],[103.842492,1.2851427],[103.8424876,1.2851373],[103.8424852,1.2851393],[103.8424677,1.2851177],[103.8424761,1.2851107],[103.8424393,1.2850654],[103.8424308,1.2850724],[103.8424132,1.2850508],[103.8424156,1.2850488],[103.8424113,1.2850435],[103.8424089,1.2850455],[103.8423913,1.2850239],[103.8423998,1.2850169],[103.8423629,1.2849716],[103.8423545,1.2849786],[103.8423362,1.2849561],[103.8423385,1.2849541],[103.8423342,1.2849488],[103.8423318,1.2849507],[103.8423135,1.2849282],[103.842322,1.2849213],[103.8423042,1.2848994],[103.8422957,1.2849064],[103.8422782,1.2848848],[103.8422805,1.2848828],[103.8422762,1.2848775],[103.8422738,1.2848795],[103.8422562,1.2848579],[103.8422647,1.2848509],[103.8422469,1.284829],[103.8422385,1.284836],[103.8422209,1.2848144],[103.8422233,1.2848125],[103.8422189,1.2848071],[103.8422165,1.2848091],[103.842199,1.2847875],[103.8422074,1.2847805],[103.8421706,1.2847352],[103.8421621,1.2847422],[103.8421445,1.2847206],[103.8421469,1.2847186],[103.8421426,1.2847133],[103.8421402,1.2847152],[103.8421226,1.2846936],[103.8421311,1.2846866],[103.8421133,1.2846648],[103.8421048,1.2846718],[103.8420873,1.2846502],[103.8420897,1.2846482],[103.8420853,1.2846429],[103.8420829,1.2846449],[103.8420653,1.2846233],[103.8420738,1.2846163],[103.842056,1.2845944],[103.8420475,1.2846014],[103.8420328,1.2845833],[103.8420352,1.2845813],[103.8420302,1.2845752]],[[103.8425094,1.2850048],[103.8425655,1.2849585],[103.8425492,1.2849384],[103.8424931,1.2849848],[103.8425094,1.2850048]],[[103.8422964,1.284743],[103.8423525,1.2846967],[103.8422805,1.2846082],[103.8422244,1.2846545],[103.8422964,1.284743]],[[103.8428338,1.2854035],[103.8428899,1.2853572],[103.8428179,1.2852687],[103.8427618,1.285315],[103.8428338,1.2854035]],[[103.8426409,1.2851664],[103.842697,1.2851201],[103.8425859,1.2849835],[103.8425753,1.2849922],[103.8425803,1.2849984],[103.8425575,1.2850172],[103.8425525,1.285011],[103.8425298,1.2850298],[103.8426409,1.2851664]]]}},{"type":"Feature","properties":{"type":"HDB"},"geometry":{"type":"Polygon","coordinates":[[[103.8420632,1.2858441],[103.842038,1.2858178],[103.8420184,1.2857813],[103.8420115,1.2857602],[103.8420074,1.2857319],[103.8420076,1.2857059],[103.8420102,1.2856792],[103.8420748,1.285336],[103.8420838,1.2853017],[103.8420919,1.2852816],[103.8421112,1.2852496],[103.8421385,1.2852221],[103.8421758,1.285197],[103.8422139,1.2851828],[103.8422342,1.2851811],[103.8422543,1.2851806],[103.8423039,1.2851902],[103.8423404,1.2852076],[103.8423789,1.2852438],[103.8425521,1.2854542],[103.8425675,1.2854918],[103.8425717,1.2855249],[103.8425696,1.2855614],[103.8425613,1.2855971],[103.8425426,1.2856352],[103.8425155,1.2856682],[103.8423003,1.2858475],[103.8422568,1.2858746],[103.8422213,1.2858877],[103.8421868,1.2858915],[103.8421566,1.2858894],[103.84214,1.2858867],[103.8421036,1.2858724],[103.8420632,1.2858441]]]}},{"type":"Feature","properties":{"type":"HDB"},"geometry":{"type":"Polygon","coordinates":[[[103.8428108,1.2855509],[103.8428164,1.2855463],[103.8428331,1.2855669],[103.8428416,1.2855599],[103.8428594,1.2855817],[103.8428509,1.2855887],[103.8428657,1.2856068],[103.842868,1.2856049],[103.8428701,1.2856075],[103.8428622,1.285614],[103.8428108,1.2855509]]]}},{"type":"Feature","properties":{"type":"HDB"},"geometry":{"type":"Polygon","coordinates":[[[103.8419226,1.2868027],[103.8419337,1.2867953],[103.8420062,1.2868089],[103.8420088,1.2867947],[103.8419681,1.286787],[103.841973,1.2867605],[103.8419927,1.2867642],[103.841998,1.2867352],[103.8419784,1.2867315],[103.8419833,1.286705],[103.8420241,1.2867127],[103.842029,1.2866863],[103.8419882,1.2866786],[103.8419931,1.2866521],[103.8420128,1.2866558],[103.8420182,1.2866268],[103.8419985,1.2866231],[103.8420034,1.2865966],[103.8420442,1.2866043],[103.8420491,1.2865779],[103.8420083,1.2865702],[103.8420132,1.2865437],[103.8420329,1.2865474],[103.8420383,1.2865185],[103.8420186,1.2865148],[103.8420235,1.2864883],[103.8420643,1.2864959],[103.8420754,1.2864357],[103.8420667,1.2864321],[103.8420557,1.2864147],[103.842064,1.2863941],[103.8420834,1.2863892],[103.842092,1.2863927],[103.8421004,1.2863783],[103.8420698,1.2863601],[103.842086,1.2863325],[103.8421166,1.2863507],[103.8421234,1.286339],[103.8420878,1.2863178],[103.8421014,1.2862946],[103.8421186,1.2863048],[103.8421335,1.2862794],[103.8421163,1.2862692],[103.8421299,1.286246],[103.8421656,1.2862671],[103.8421791,1.286244],[103.8421434,1.2862228],[103.842157,1.2861996],[103.8421742,1.2862098],[103.8421891,1.2861844],[103.8421719,1.2861742],[103.8421855,1.286151],[103.8422212,1.2861722],[103.8422348,1.286149],[103.8421991,1.2861279],[103.8422127,1.2861046],[103.8422299,1.2861149],[103.8422448,1.2860895],[103.8422276,1.2860792],[103.8422412,1.286056],[103.8422769,1.2860772],[103.8422905,1.2860541],[103.8422547,1.2860329],[103.8422683,1.2860097],[103.8422856,1.2860199],[103.8423004,1.2859945],[103.8422832,1.2859843],[103.8422968,1.2859611],[103.8423325,1.2859823],[103.8423445,1.2859619],[103.8423097,1.2859412],[103.8423243,1.2859163],[103.8423591,1.285937],[103.8423637,1.2859292],[103.8423574,1.2859238],[103.8423518,1.2859037],[103.842366,1.2858869],[103.8423872,1.2858893],[103.8423935,1.2858949],[103.8424072,1.2858836],[103.8423778,1.2858475],[103.8424013,1.2858281],[103.8424307,1.2858642],[103.8424408,1.2858559],[103.8424145,1.2858236],[103.8424352,1.2858066],[103.8424479,1.2858221],[103.8424706,1.2858034],[103.8424579,1.2857879],[103.8424786,1.2857708],[103.8425049,1.2858031],[103.8425255,1.285786],[103.8424993,1.2857538],[103.84252,1.2857367],[103.8425326,1.2857523],[103.8425553,1.2857336],[103.8425426,1.285718],[103.8425634,1.2857009],[103.8425896,1.2857332],[103.8426103,1.2857162],[103.842584,1.2856839],[103.8426047,1.2856668],[103.8426174,1.2856824],[103.8426401,1.2856637],[103.8426274,1.2856481],[103.8426481,1.2856311],[103.8426744,1.2856633],[103.842685,1.2856546],[103.8426714,1.2856379],[103.8426928,1.2856202],[103.8427522,1.2856927],[103.8427457,1.2857667],[103.8426347,1.2858644],[103.8425177,1.2859608],[103.8425275,1.2859695],[103.8424564,1.2860536],[103.8424464,1.2860447],[103.8422309,1.2864123],[103.8422431,1.2864169],[103.8422049,1.2865204],[103.8421923,1.2865157],[103.8421228,1.2868902],[103.8420795,1.2868975],[103.8420479,1.2868916],[103.8419226,1.2868027]]]}},{"type":"Feature","properties":{"type":"LANDMARK"},"geometry":{"type":"Polygon","coordinates":[[[103.8431617,1.2866688],[103.8432258,1.2867832],[103.843223,1.2867933],[103.8432268,1.2868],[103.8433997,1.2868486],[103.8433669,1.2869671],[103.8433535,1.2869634],[103.8433459,1.286991],[103.8433592,1.2869948],[103.8433264,1.287113],[103.8432651,1.2870961],[103.8432595,1.2871166],[103.843346,1.2872711],[103.8432394,1.2873316],[103.8432325,1.2873193],[103.8431881,1.2873445],[103.8431949,1.2873565],[103.8430884,1.2874169],[103.8430016,1.287262],[103.8429817,1.2872564],[103.8429644,1.2873185],[103.842847,1.2872856],[103.8428507,1.2872723],[103.842823,1.2872645],[103.8428193,1.2872778],[103.8427015,1.2872447],[103.8427134,1.2872018],[103.8426651,1.2871883],[103.8425237,1.2869357],[103.8425361,1.2868911],[103.8424971,1.2868802],[103.8425301,1.286761],[103.8425439,1.2867648],[103.8425514,1.286738],[103.8425376,1.2867342],[103.8425707,1.286615],[103.8426449,1.2866359],[103.8426466,1.2866299],[103.842551,1.2864577],[103.8426581,1.286397],[103.8426652,1.2864096],[103.842709,1.2863848],[103.842702,1.2863722],[103.8428092,1.2863114],[103.842906,1.2864843],[103.8429136,1.2864864],[103.8429323,1.2864145],[103.8430496,1.2864474],[103.8430458,1.286461],[103.8430734,1.2864687],[103.8430772,1.2864551],[103.8431945,1.286488],[103.8431476,1.2866578],[103.8431523,1.2866662],[103.8431617,1.2866688]]]}},{"type":"Feature","properties":{"type":"HDB"},"geometry":{"type":"Polygon","coordinates":[[[103.8418836,1.2869277],[103.8418378,1.2869581],[103.8417926,1.2868894],[103.8418139,1.2868752],[103.8418836,1.2869277]]]}},{"type":"Feature","properties":{"type":"HDB"},"geometry":{"type":"Polygon","coordinates":[[[103.841389,1.2868385],[103.8414362,1.2869101],[103.8414626,1.2868925],[103.8414939,1.2869402],[103.8414677,1.2869577],[103.8414816,1.286979],[103.8415079,1.2869615],[103.8415317,1.2869977],[103.8415054,1.2870152],[103.8415194,1.2870365],[103.8415456,1.287019],[103.841577,1.2870667],[103.8415507,1.2870842],[103.8415798,1.2871285],[103.8416061,1.287111],[103.8416374,1.2871587],[103.8416112,1.2871762],[103.8416251,1.2871975],[103.8416514,1.28718],[103.8416752,1.2872162],[103.8416489,1.2872337],[103.8416629,1.287255],[103.8416891,1.2872374],[103.8417205,1.2872852],[103.8416942,1.2873027],[103.8417104,1.2873273],[103.8416458,1.2873704],[103.8416296,1.2873458],[103.8416034,1.2873633],[103.8415721,1.2873156],[103.8415983,1.287298],[103.8415843,1.2872768],[103.8415772,1.2872816],[103.8415534,1.2872453],[103.8415605,1.2872406],[103.8415466,1.2872193],[103.8415203,1.2872368],[103.841489,1.2871891],[103.8415152,1.2871716],[103.8414861,1.2871273],[103.8414599,1.2871448],[103.8414286,1.2870971],[103.8414548,1.2870796],[103.8414408,1.2870583],[103.8414337,1.2870631],[103.8414099,1.2870269],[103.841417,1.2870221],[103.8414031,1.2870008],[103.8413768,1.2870183],[103.8413455,1.2869706],[103.8413717,1.2869531],[103.8413572,1.286931],[103.8413811,1.286915],[103.8413483,1.2868654],[103.841389,1.2868385]]]}},{"type":"Feature","properties":{"type":"HDB"},"geometry":{"type":"Polygon","coordinates":[[[103.8416946,1.2875015],[103.8416492,1.287433],[103.8416378,1.2874406],[103.8413027,1.2869305],[103.8413643,1.2868894],[103.8413483,1.2868654],[103.841389,1.2868385],[103.8413971,1.2868508],[103.841478,1.286797],[103.8415009,1.2868315],[103.8415319,1.2868109],[103.8415472,1.2868343],[103.8416477,1.2867685],[103.8417152,1.2868717],[103.8417609,1.2868412],[103.8418378,1.2869581],[103.841653,1.2870815],[103.8418575,1.2873929],[103.8416946,1.2875015]]]}},{"type":"Feature","properties":{"type":"HDB"},"geometry":{"type":"Polygon","coordinates":[[[103.8416432,1.2875706],[103.8417106,1.2875258],[103.8416946,1.2875015],[103.8422709,1.2871175],[103.8423338,1.2872127],[103.8423489,1.2872026],[103.8423836,1.2872554],[103.8423686,1.2872654],[103.8423864,1.2872924],[103.8418549,1.2876466],[103.8418034,1.287666],[103.841771,1.287617],[103.8417246,1.2876479],[103.8417102,1.287626],[103.8417565,1.2875951],[103.8417411,1.2875718],[103.8416738,1.2876169],[103.8416432,1.2875706]]]}},{"type":"Feature","properties":{"type":"HDB"},"geometry":{"type":"Polygon","coordinates":[[[103.8458909,1.2843202],[103.8458189,1.2843634],[103.84581,1.2843484],[103.8457972,1.2843561],[103.8457516,1.2842791],[103.8457993,1.2842504],[103.8457966,1.2842458],[103.8459125,1.2841761],[103.8459145,1.2841795],[103.8460069,1.284124],[103.8460034,1.284118],[103.8461192,1.2840484],[103.8461207,1.2840509],[103.8461683,1.2840223],[103.8462142,1.2840996],[103.8462058,1.2841046],[103.8462149,1.28412],[103.8461373,1.2841666],[103.8461285,1.2841518],[103.8460877,1.2841764],[103.8460967,1.2841915],[103.8460267,1.2842335],[103.8460186,1.2842198],[103.8459942,1.2842344],[103.8460037,1.2842505],[103.8459339,1.2842924],[103.845925,1.2842774],[103.8458812,1.2843038],[103.8458909,1.2843202]]]}},{"type":"Feature","properties":{"type":"HDB"},"geometry":{"type":"Polygon","coordinates":[[[103.8451459,1.284758],[103.8450998,1.2846802],[103.8451445,1.2846534],[103.8451405,1.2846466],[103.8453542,1.2845182],[103.8453566,1.2845223],[103.8454501,1.2844662],[103.8454457,1.2844587],[103.845561,1.2843894],[103.8455634,1.2843935],[103.8456106,1.2843651],[103.8456568,1.2844431],[103.8456443,1.2844506],[103.8456535,1.2844661],[103.8455825,1.2845087],[103.8455738,1.2844939],[103.8455301,1.2845201],[103.8455398,1.2845365],[103.84547,1.2845784],[103.8454613,1.2845637],[103.8454366,1.2845785],[103.8454455,1.2845934],[103.8453747,1.2846359],[103.8453669,1.2846227],[103.845344,1.2846365],[103.8453529,1.2846516],[103.8452851,1.2846924],[103.8452765,1.284678],[103.845228,1.2847072],[103.8452374,1.284723],[103.8451664,1.2847657],[103.8451577,1.284751],[103.8451459,1.284758]]]}},{"type":"Feature","properties":{"type":"HDB"},"geometry":{"type":"Polygon","coordinates":[[[103.8464434,1.2844838],[103.8464673,1.2844694],[103.8465014,1.2845261],[103.846032,1.284808],[103.8460213,1.2847898],[103.8459054,1.2848593],[103.8459217,1.2848852],[103.8454101,1.2851985],[103.8453383,1.2850821],[103.8453499,1.285075],[103.8453403,1.2850591],[103.8454109,1.2850157],[103.8454208,1.2850321],[103.8454671,1.2850037],[103.8454571,1.2849873],[103.845527,1.2849443],[103.8455373,1.2849613],[103.8455582,1.2849485],[103.8455479,1.2849314],[103.8456189,1.2848878],[103.8456289,1.2849045],[103.8456509,1.284891],[103.8456408,1.2848743],[103.8457116,1.2848308],[103.8457222,1.2848482],[103.8457661,1.2848214],[103.8457555,1.2848038],[103.8458292,1.2847585],[103.8458398,1.284776],[103.8458509,1.2847692],[103.8458909,1.2848355],[103.8460079,1.2847652],[103.8457367,1.2843076],[103.8456186,1.2843786],[103.8456568,1.2844431],[103.8456443,1.2844506],[103.8456535,1.2844661],[103.8455825,1.2845087],[103.8455738,1.2844939],[103.8455301,1.2845201],[103.8455398,1.2845365],[103.84547,1.2845784],[103.8454613,1.2845637],[103.8454366,1.2845785],[103.8454455,1.2845934],[103.8453747,1.2846359],[103.8453669,1.2846227],[103.845344,1.2846365],[103.8453529,1.2846516],[103.8452851,1.2846924],[103.8452765,1.284678],[103.845228,1.2847072],[103.8452374,1.284723],[103.8450749,1.2848206],[103.8450153,1.28472],[103.8450961,1.2846715],[103.845075,1.2846358],[103.8450058,1.2846773],[103.8449049,1.2845107],[103.8452831,1.2842907],[103.8453966,1.2844851],[103.8457247,1.284288],[103.8456129,1.2841002],[103.8458975,1.2839361],[103.845999,1.2841107],[103.8461051,1.2840464],[103.846092,1.2840221],[103.8461503,1.2839847],[103.8461666,1.28401],[103.8461623,1.2840122],[103.8464434,1.2844838]]]}},{"type":"Feature","properties":{"type":"HDB"},"geometry":{"type":"Polygon","coordinates":[[[103.8451157,1.2846573],[103.8450955,1.2846233],[103.8452807,1.2845091],[103.8453016,1.2845443],[103.8451157,1.2846573]]]}},{"type":"Feature","properties":{"type":"HDB"},"geometry":{"type":"Polygon","coordinates":[[[103.8460402,1.2847611],[103.8459942,1.2846836],[103.8460067,1.2846761],[103.8459975,1.2846605],[103.8460686,1.2846179],[103.8460772,1.2846323],[103.8461202,1.2846065],[103.8461108,1.2845907],[103.8461831,1.2845473],[103.8461921,1.2845624],[103.8462139,1.2845494],[103.8462038,1.2845324],[103.846276,1.284489],[103.8462849,1.2845041],[103.8463249,1.2844801],[103.8463151,1.2844637],[103.8463914,1.2844179],[103.8464012,1.2844345],[103.84641,1.2844292],[103.8464555,1.2845061],[103.8464079,1.2845347],[103.8464105,1.2845391],[103.8462031,1.2846609],[103.8462064,1.2846664],[103.846088,1.2847375],[103.8460858,1.2847337],[103.8460402,1.2847611]]]}},{"type":"Feature","properties":{"type":"HDB"},"geometry":{"type":"Polygon","coordinates":[[[103.8459202,1.2847005],[103.8452466,1.2851122],[103.8450798,1.2848358],[103.8457534,1.2844241],[103.8459202,1.2847005]]]}},{"type":"Feature","properties":{"type":"HDB"},"geometry":{"type":"Polygon","coordinates":[[[103.8458565,1.2848867],[103.8456483,1.2850142],[103.8456467,1.2850116],[103.8454383,1.2851423],[103.8454368,1.2851397],[103.8453911,1.2851676],[103.8453383,1.2850821],[103.8453499,1.285075],[103.8453403,1.2850591],[103.8454109,1.2850157],[103.8454208,1.2850321],[103.8454671,1.2850037],[103.8454571,1.2849873],[103.845527,1.2849443],[103.8455373,1.2849613],[103.8455582,1.2849485],[103.8455479,1.2849314],[103.8456189,1.2848878],[103.8456289,1.2849045],[103.8456509,1.284891],[103.8456408,1.2848743],[103.8457116,1.2848308],[103.8457222,1.2848482],[103.8457661,1.2848214],[103.8457555,1.2848038],[103.8458292,1.2847585],[103.8458398,1.284776],[103.8458509,1.2847692],[103.8459025,1.2848547],[103.8458548,1.2848839],[103.8458565,1.2848867]]]}},{"type":"Feature","properties":{"type":"HDB"},"geometry":{"type":"Polygon","coordinates":[[[103.8456239,1.2853687],[103.8455533,1.2854132],[103.8455431,1.2853968],[103.8455321,1.2854038],[103.8454849,1.2853268],[103.8455318,1.2852973],[103.8455299,1.2852943],[103.845738,1.285163],[103.8457416,1.2851688],[103.8458344,1.2851102],[103.8458325,1.2851073],[103.8459453,1.2850361],[103.8459481,1.2850405],[103.8459964,1.2850104],[103.8460422,1.2850876],[103.8460295,1.2850956],[103.8460391,1.2851111],[103.8459679,1.2851561],[103.8459573,1.2851392],[103.8459145,1.2851662],[103.8459252,1.2851834],[103.8458547,1.2852278],[103.845844,1.2852106],[103.8458221,1.2852245],[103.8458325,1.2852413],[103.8457629,1.2852851],[103.845752,1.2852676],[103.8457295,1.2852818],[103.8457395,1.2852978],[103.8456713,1.2853408],[103.84566,1.2853227],[103.8456135,1.285352],[103.8456239,1.2853687]]]}},{"type":"Feature","properties":{"type":"HDB"},"geometry":{"type":"Polygon","coordinates":[[[103.8456649,1.2856245],[103.8454562,1.2852807],[103.8459671,1.2849633],[103.8460617,1.285119],[103.8460776,1.2851222],[103.8460845,1.2851332],[103.8460786,1.285153],[103.8461924,1.2853359],[103.8456649,1.2856245]]]}},{"type":"Feature","properties":{"type":"HDB"},"geometry":{"type":"Polygon","coordinates":[[[103.8417935,1.287602],[103.8417246,1.2876479],[103.8417102,1.287626],[103.8417791,1.28758],[103.8417652,1.2875589],[103.8417897,1.2875426],[103.8417722,1.287516],[103.8418197,1.2874844],[103.8418372,1.287511],[103.8418599,1.2874959],[103.8418576,1.2874924],[103.8418914,1.2874699],[103.8418937,1.2874734],[103.841916,1.2874585],[103.8418985,1.2874319],[103.8419458,1.2874003],[103.8419633,1.2874269],[103.8420074,1.2873976],[103.8419899,1.287371],[103.8420372,1.2873395],[103.8420547,1.2873661],[103.8420989,1.2873367],[103.8420814,1.28731],[103.8421287,1.2872786],[103.8421461,1.2873051],[103.8421688,1.28729],[103.8421665,1.2872865],[103.8422003,1.287264],[103.8422026,1.2872675],[103.8422241,1.2872532],[103.8422066,1.2872266],[103.8422541,1.287195],[103.8422716,1.2872216],[103.8422966,1.2872049],[103.8423115,1.2872275],[103.8423489,1.2872026],[103.8423836,1.2872554],[103.8423612,1.2872704],[103.8423389,1.2872365],[103.8423239,1.2872465],[103.8423388,1.2872691],[103.8423136,1.2872859],[103.8423312,1.2873126],[103.8422839,1.2873441],[103.8422663,1.2873174],[103.8422457,1.2873311],[103.8422505,1.2873384],[103.8422144,1.2873625],[103.8422096,1.2873552],[103.8421884,1.2873693],[103.842206,1.2873961],[103.8421589,1.2874275],[103.8421413,1.2874007],[103.8420971,1.2874301],[103.8421147,1.2874569],[103.8420671,1.2874887],[103.8420495,1.2874619],[103.8420057,1.287491],[103.8420233,1.2875178],[103.8419761,1.2875493],[103.8419585,1.2875225],[103.8419371,1.2875367],[103.8419418,1.2875438],[103.8419058,1.2875678],[103.8419011,1.2875607],[103.8418798,1.2875749],[103.8418975,1.2876017],[103.8418504,1.287633],[103.8418327,1.2876062],[103.8418074,1.2876231],[103.8417935,1.287602]]]}},{"type":"Feature","properties":{"type":"HDB"},"geometry":{"type":"Polygon","coordinates":[[[103.8411865,1.2876121],[103.8412164,1.2876579],[103.8411303,1.2877143],[103.8410992,1.287667],[103.8410794,1.2876803],[103.8409105,1.2874226],[103.8412707,1.2871822],[103.8412558,1.2871595],[103.8412728,1.2871542],[103.8412841,1.2871572],[103.8412941,1.2871658],[103.8413601,1.2872665],[103.8413269,1.2872888],[103.8414319,1.287449],[103.8411865,1.2876121]]]}},{"type":"Feature","properties":{"type":"HDB"},"geometry":{"type":"Polygon","coordinates":[[[103.8414568,1.2876945],[103.8414253,1.2876465],[103.8413998,1.2876634],[103.8413873,1.2876443],[103.8414128,1.2876274],[103.8413366,1.2875116],[103.8413723,1.2874883],[103.8414303,1.2875774],[103.8416492,1.287433],[103.8417106,1.2875258],[103.8414568,1.2876945]]]}},{"type":"Feature","properties":{"type":"HDB"},"geometry":{"type":"Polygon","coordinates":[[[103.8413723,1.2874883],[103.8414303,1.2875774],[103.8416492,1.287433],[103.8417106,1.2875258],[103.8414568,1.2876945],[103.8414725,1.2877183],[103.8414086,1.2877606],[103.8413851,1.2877247],[103.8413773,1.2877298],[103.8413787,1.2877318],[103.8413611,1.2877406],[103.8413846,1.2877766],[103.8413214,1.2878184],[103.8412747,1.287747],[103.8413,1.2877303],[103.8412876,1.2877112],[103.8412622,1.2877279],[103.8412151,1.2876559],[103.8412787,1.2876139],[103.8413022,1.2876499],[103.84131,1.2876448],[103.8413087,1.2876428],[103.8413263,1.287634],[103.8413027,1.287598],[103.8413659,1.2875561],[103.8413366,1.2875116],[103.8413723,1.2874883]]]}},{"type":"Feature","properties":{"type":"HDB"},"geometry":{"type":"Polygon","coordinates":[[[103.8399343,1.2884373],[103.8399324,1.2880688],[103.839946,1.2880686],[103.8399462,1.2880337],[103.839976,1.2880336],[103.8399762,1.2880767],[103.8400284,1.2880766],[103.8400278,1.2881328],[103.8400461,1.2881329],[103.8400466,1.2881957],[103.840028,1.2881959],[103.8400281,1.2882211],[103.8400466,1.288221],[103.8400469,1.2882837],[103.8400285,1.2882839],[103.8400286,1.2883092],[103.840047,1.2883091],[103.8400473,1.288372],[103.8400289,1.2883724],[103.8400301,1.2884285],[103.8399705,1.2884294],[103.8399701,1.2884375],[103.8399343,1.2884373]]]}},{"type":"Feature","properties":{"type":"HDB"},"geometry":{"type":"Polygon","coordinates":[[[103.8373859,1.2876251],[103.837381,1.2876346],[103.8373633,1.2876248],[103.8373009,1.2876026],[103.8373039,1.2875925],[103.8372812,1.2875839],[103.8372772,1.2875931],[103.8372476,1.2875783],[103.8372244,1.287572],[103.8372276,1.2875618],[103.8372052,1.2875536],[103.8372011,1.2875624],[103.8371802,1.2875513],[103.8371483,1.2875413],[103.837152,1.2875315],[103.8371264,1.2875207],[103.8371611,1.2874338],[103.8373641,1.2875146],[103.8373761,1.2874854],[103.8374088,1.2874987],[103.8374064,1.2875054],[103.8374018,1.2875032],[103.8373923,1.2875265],[103.837723,1.2876596],[103.8377089,1.2876931],[103.8377146,1.2876957],[103.8377116,1.2877022],[103.8376834,1.2876919],[103.8376624,1.2877444],[103.8376338,1.2877356],[103.8376371,1.2877266],[103.8376148,1.2877171],[103.8376102,1.2877262],[103.8375892,1.2877151],[103.8375575,1.2877052],[103.8375607,1.2876961],[103.8375385,1.2876862],[103.8375338,1.2876959],[103.837513,1.2876847],[103.8374811,1.2876747],[103.8374839,1.2876654],[103.837462,1.2876559],[103.8374573,1.2876653],[103.8374366,1.2876542],[103.8374046,1.287644],[103.8374082,1.2876365],[103.8373859,1.2876251]]]}},{"type":"Feature","properties":{"type":"HDB"},"geometry":{"type":"Polygon","coordinates":[[[103.8388984,1.2882396],[103.8388758,1.2882328],[103.8388795,1.288223],[103.8388561,1.2882137],[103.8388521,1.2882236],[103.8388222,1.2882087],[103.8387993,1.2882025],[103.8388027,1.288193],[103.8387798,1.2881831],[103.8387758,1.288193],[103.8387457,1.2881781],[103.8387232,1.288172],[103.8387265,1.288162],[103.8387033,1.288153],[103.8386993,1.2881624],[103.8386821,1.2881523],[103.838619,1.2881298],[103.8386228,1.2881204],[103.8385991,1.2881109],[103.8385955,1.2881203],[103.838565,1.2881058],[103.8385429,1.2880992],[103.8385464,1.2880898],[103.8385236,1.2880808],[103.8385191,1.2880903],[103.8384893,1.2880756],[103.8384664,1.2880691],[103.8384701,1.2880593],[103.8384447,1.2880491],[103.8384793,1.2879618],[103.8386822,1.2880432],[103.8386939,1.2880133],[103.8387223,1.2880243],[103.838716,1.2880411],[103.8387201,1.2880429],[103.8387175,1.2880493],[103.8387133,1.2880476],[103.8387113,1.2880543],[103.8390411,1.2881872],[103.839028,1.2882208],[103.8390331,1.2882234],[103.83903,1.2882297],[103.8390019,1.2882197],[103.8389804,1.2882724],[103.838952,1.2882636],[103.8389558,1.2882532],[103.8389328,1.2882448],[103.8389284,1.2882536],[103.8388984,1.2882396]]]}}]}