{"type":"FeatureCollection","features":[{"type":"Feature","properties":{"type":"LANDMARK"},"geometry":{"type":"Polygon","coordinates":[[[103.8402653,1.2934041],[103.8400804,1.2932024],[103.8401174,1.2931674],[103.8403051,1.2933683],[103.8402653,1.2934041]]]}},{"type":"Feature","properties":{"type":"LANDMARK"},"geometry":{"type":"Polygon","coordinates":[[[103.8402232,1.2934327],[103.8400464,1.2932335],[103.8400805,1.2932025],[103.8402653,1.2934041],[103.8402415,1.2934257],[103.8402367,1.2934204],[103.8402232,1.2934327]]]}},{"type":"Feature","properties":{"type":"LANDMARK"},"geometry":{"type":"Polygon","coordinates":[[[103.8401814,1.2934571],[103.8400102,1.2932663],[103.8400464,1.2932335],[103.8402232,1.2934327],[103.8402096,1.2934448],[103.8402162,1.2934521],[103.8402009,1.293466],[103.8401877,1.2934513],[103.8401814,1.2934571]]]}},{"type":"Feature","properties":{"type":"LANDMARK"},"geometry":{"type":"Polygon","coordinates":[[[103.8401422,1.2934938],[103.839968,1.2933049],[103.8400102,1.2932663],[103.8401814,1.2934571],[103.8401422,1.2934938]]]}},{"type":"Feature","properties":{"type":"LANDMARK"},"geometry":{"type":"Polygon","coordinates":[[[103.8401342,1.2935608],[103.8399306,1.2933397],[103.839968,1.2933049],[103.8401422,1.2934938],[103.8401294,1.2935055],[103.8401589,1.2935381],[103.8401342,1.2935608]]]}},{"type":"Feature","properties":{"type":"LANDMARK"},"geometry":{"type":"Polygon","coordinates":[[[103.8400908,1.2935851],[103.8398966,1.293371],[103.8399306,1.2933397],[103.8401263,1.2935523],[103.8400908,1.2935851]]]}},{"type":"Feature","properties":{"type":"LANDMARK"},"geometry":{"type":"Polygon","coordinates":[[[103.8400556,1.2936177],[103.8398612,1.2934049],[103.8398967,1.293371],[103.8400908,1.2935851],[103.8400556,1.2936177]]]}},{"type":"Feature","properties":{"type":"LANDMARK"},"geometry":{"type":"Polygon","coordinates":[[[103.8400144,1.2936556],[103.8398217,1.293443],[103.8398612,1.2934049],[103.8400556,1.2936177],[103.8400144,1.2936556]]]}},{"type":"Feature","properties":{"type":"LANDMARK"},"geometry":{"type":"Polygon","coordinates":[[[103.8399773,1.2936893],[103.8397867,1.2934768],[103.8398217,1.293443],[103.8400144,1.2936556],[103.8399773,1.2936893]]]}},{"type":"Feature","properties":{"type":"LANDMARK"},"geometry":{"type":"Polygon","coordinates":[[[103.8399383,1.2937255],[103.8397474,1.2935147],[103.8397867,1.2934768],[103.8399773,1.2936893],[103.8399383,1.2937255]]]}},{"type":"Feature","properties":{"type":"LANDMARK"},"geometry":{"type":"Polygon","coordinates":[[[103.8399186,1.2937825],[103.839708,1.2935527],[103.8397474,1.2935147],[103.8399439,1.2937317],[103.8399156,1.2937579],[103.8399292,1.2937727],[103.8399186,1.2937825]]]}},{"type":"Feature","properties":{"type":"LANDMARK"},"geometry":{"type":"Polygon","coordinates":[[[103.8352894,1.2990281],[103.8352692,1.2990211],[103.8352603,1.2990151],[103.8352525,1.2990076],[103.8352415,1.2989892],[103.8352385,1.2989789],[103.8352381,1.2989574],[103.835245,1.298937],[103.8352584,1.2989202],[103.8352767,1.2989091],[103.835287,1.2989061],[103.8353167,1.2989047],[103.8353199,1.2989],[103.8353209,1.298887],[103.835327,1.2988815],[103.8353359,1.2988816],[103.8353352,1.298873],[103.8353412,1.2988668],[103.8354294,1.2988778],[103.8354423,1.298783],[103.8353103,1.2987648],[103.8353097,1.2987698],[103.8352215,1.2987577],[103.8352289,1.2987033],[103.8355595,1.2987489],[103.8355528,1.2987982],[103.8355089,1.2987922],[103.835496,1.298887],[103.8355216,1.2988993],[103.8355369,1.2989222],[103.8355389,1.2989498],[103.8355268,1.2989747],[103.8355125,1.2989864],[103.835495,1.2989925],[103.8354523,1.2989884],[103.8354443,1.2990405],[103.8354331,1.2990489],[103.8353891,1.2990432],[103.8353841,1.2990731],[103.8353748,1.2990838],[103.8353661,1.2990876],[103.8353475,1.2990855],[103.8353369,1.2990761],[103.8353324,1.2990626],[103.8353361,1.2990356],[103.8352894,1.2990281]]]}},{"type":"Feature","properties":{"type":"LANDMARK"},"geometry":{"type":"Polygon","coordinates":[[[103.8398827,1.293816],[103.8396725,1.293587],[103.839708,1.2935527],[103.8399186,1.2937825],[103.8398827,1.293816]]]}}]}