{"type":"FeatureCollection","features":[{"type":"Feature","properties":{"type":"LANDMARK"},"geometry":{"type":"Polygon","coordinates":[[[103.8501097,1.2994886],[103.8500534,1.2995366],[103.8498645,1.2993099],[103.8499199,1.2992612],[103.8500097,1.2993732],[103.8501097,1.2994886]]]}},{"type":"Feature","properties":{"type":"LANDMARK"},"geometry":{"type":"Polygon","coordinates":[[[103.8496258,1.2995191],[103.8498484,1.299324],[103.8499372,1.2994284],[103.8498273,1.2995257],[103.8498538,1.2995572],[103.8499637,1.2994627],[103.8500369,1.2995507],[103.8499255,1.2996459],[103.8499223,1.2996421],[103.8498927,1.299666],[103.8498967,1.2996709],[103.849814,1.2997411],[103.8496258,1.2995191]]]}},{"type":"Feature","properties":{"type":"LANDMARK"},"geometry":{"type":"Polygon","coordinates":[[[103.8504798,1.2995617],[103.850657,1.2994223],[103.8507434,1.2995255],[103.8505711,1.2996725],[103.8504798,1.2995617]]]}},{"type":"Feature","properties":{"type":"LANDMARK"},"geometry":{"type":"Polygon","coordinates":[[[103.8507041,1.2999194],[103.8506323,1.2998315],[103.8507577,1.2997296],[103.8507745,1.2997507],[103.8508018,1.2997285],[103.8508402,1.2997764],[103.8508127,1.2997989],[103.8508297,1.2998197],[103.8507041,1.2999194]]]}},{"type":"Feature","properties":{"type":"LANDMARK"},"geometry":{"type":"Polygon","coordinates":[[[103.8498272,1.2999965],[103.8499874,1.3001955],[103.8498611,1.300302],[103.8497788,1.3000169],[103.8497813,1.3000028],[103.8497947,1.2999894],[103.8498135,1.2999878],[103.8498272,1.2999965]]]}},{"type":"Feature","properties":{"type":"LANDMARK"},"geometry":{"type":"Polygon","coordinates":[[[103.8508278,1.3014858],[103.8506564,1.3016295],[103.8505211,1.3014668],[103.8505238,1.3014358],[103.8506782,1.3013063],[103.8508278,1.3014858]]]}},{"type":"Feature","properties":{"type":"LANDMARK"},"geometry":{"type":"Polygon","coordinates":[[[103.8506827,1.3016612],[103.8507921,1.3015695],[103.8508018,1.3015704],[103.8508938,1.3016801],[103.8507792,1.3017741],[103.8506827,1.3016612]]]}},{"type":"Feature","properties":{"type":"LANDMARK"},"geometry":{"type":"Polygon","coordinates":[[[103.8532772,1.2978189],[103.853135,1.2979371],[103.8530985,1.297893],[103.8530704,1.2979165],[103.8529959,1.297827],[103.8530385,1.2977906],[103.8530032,1.2977481],[103.8531302,1.2976412],[103.8532772,1.2978189]]]}},{"type":"Feature","properties":{"type":"LANDMARK"},"geometry":{"type":"Polygon","coordinates":[[[103.8529962,1.2980873],[103.8528613,1.2979223],[103.8528751,1.2979109],[103.8528676,1.2979017],[103.8529055,1.2978703],[103.8529128,1.2978792],[103.8529782,1.297825],[103.8531127,1.2979894],[103.8529962,1.2980873]]]}},{"type":"Feature","properties":{"type":"HDB"},"geometry":{"type":"Polygon","coordinates":[[[103.8516745,1.2987445],[103.8516231,1.2986829],[103.8516753,1.298639],[103.8516666,1.2986285],[103.8519797,1.2983643],[103.8519884,1.2983748],[103.8520387,1.2983324],[103.85209,1.298394],[103.8520575,1.2984214],[103.8520709,1.2984374],[103.8520064,1.2984919],[103.851993,1.2984758],[103.8518954,1.2985582],[103.8519087,1.2985742],[103.8518432,1.2986296],[103.8518298,1.2986135],[103.8517706,1.2986634],[103.851784,1.2986795],[103.8517183,1.2987349],[103.8517049,1.2987189],[103.8516745,1.2987445]]]}},{"type":"Feature","properties":{"type":"HDB"},"geometry":{"type":"Polygon","coordinates":[[[103.8520467,1.2987263],[103.8524203,1.2984111],[103.852478,1.2984805],[103.8524684,1.2984886],[103.8524811,1.2985039],[103.8524162,1.2985586],[103.8524035,1.2985434],[103.8523659,1.2985751],[103.8523786,1.2985903],[103.8523156,1.2986434],[103.8523029,1.2986282],[103.8522812,1.2986465],[103.8522939,1.2986618],[103.8522286,1.2987169],[103.8522159,1.2987017],[103.8521775,1.2987341],[103.8521902,1.2987493],[103.8521271,1.2988025],[103.8521144,1.2987873],[103.8521045,1.2987957],[103.8520467,1.2987263]]]}},{"type":"Feature","properties":{"type":"HDB"},"geometry":{"type":"Polygon","coordinates":[[[103.8520948,1.2992474],[103.851454,1.2984805],[103.8517202,1.2982559],[103.8518803,1.2984482],[103.8521322,1.2982357],[103.8523368,1.2984815],[103.8524203,1.2984111],[103.852695,1.2987411],[103.8520948,1.2992474]]]}},{"type":"Feature","properties":{"type":"LANDMARK"},"geometry":{"type":"Polygon","coordinates":[[[103.8530692,1.2988597],[103.8529622,1.2987281],[103.8530099,1.2986873],[103.8530489,1.298731],[103.8530656,1.2987186],[103.8530728,1.2987281],[103.8531024,1.2987012],[103.8531378,1.2987433],[103.8531046,1.2987717],[103.8530909,1.2987579],[103.8530786,1.2987695],[103.8531176,1.298819],[103.8530692,1.2988597]]]}},{"type":"Feature","properties":{"type":"LANDMARK"},"geometry":{"type":"Polygon","coordinates":[[[103.853243,1.2987863],[103.8533922,1.2986576],[103.8534997,1.2987871],[103.8533482,1.2989139],[103.853243,1.2987863]]]}},{"type":"Feature","properties":{"type":"LANDMARK"},"geometry":{"type":"Polygon","coordinates":[[[103.8531017,1.2989033],[103.8532339,1.2987943],[103.8533315,1.2989092],[103.8532093,1.2990117],[103.8531898,1.2990117],[103.8531017,1.2989033]]]}},{"type":"Feature","properties":{"type":"HDB"},"geometry":{"type":"Polygon","coordinates":[[[103.8525429,1.2988694],[103.8524753,1.2989264],[103.8524606,1.2989087],[103.8524232,1.2989402],[103.852438,1.2989579],[103.8523761,1.2990102],[103.8523613,1.2989924],[103.8523411,1.2990095],[103.8523558,1.2990272],[103.8522919,1.2990812],[103.8522771,1.2990634],[103.8522555,1.2990817],[103.8522703,1.2990994],[103.8522059,1.2991537],[103.8521911,1.299136],[103.8521538,1.2991675],[103.8521685,1.2991852],[103.8521047,1.2992391],[103.8520899,1.2992214],[103.85208,1.2992297],[103.8520224,1.2991608],[103.8524782,1.2987762],[103.8525357,1.2988453],[103.8525281,1.2988517],[103.8525429,1.2988694]]]}},{"type":"Feature","properties":{"type":"LANDMARK"},"geometry":{"type":"Polygon","coordinates":[[[103.8527343,1.3000332],[103.8529057,1.2998879],[103.8529345,1.2998905],[103.8530061,1.2999774],[103.8529684,1.3000102],[103.852955,1.2999922],[103.852828,1.3000919],[103.8528455,1.3001114],[103.8528149,1.3001369],[103.8527343,1.3000332]]]}},{"type":"Feature","properties":{"type":"LANDMARK"},"geometry":{"type":"Polygon","coordinates":[[[103.8599592,1.3020561],[103.8600198,1.3020972],[103.8600519,1.3020497],[103.8601487,1.3021156],[103.860105,1.3021806],[103.8601394,1.3022041],[103.8600968,1.3022677],[103.8600613,1.302244],[103.8600176,1.3023091],[103.8599327,1.3022514],[103.8599187,1.3022722],[103.8598764,1.3022433],[103.8599039,1.3022024],[103.8599208,1.3022139],[103.8599404,1.3021846],[103.8598928,1.3021521],[103.8599592,1.3020561]]]}},{"type":"Feature","properties":{"type":"HDB"},"geometry":{"type":"Polygon","coordinates":[[[103.8557277,1.3041037],[103.8557277,1.3041517],[103.855681,1.3041517],[103.855681,1.3041607],[103.8556869,1.3041616],[103.8556869,1.3042452],[103.8556325,1.3042452],[103.8556325,1.3042388],[103.8556069,1.3042389],[103.855607,1.304245],[103.8556015,1.3042452],[103.8556015,1.3042483],[103.8555763,1.3042483],[103.8555763,1.3042452],[103.8555709,1.3042452],[103.8555709,1.3042389],[103.8555453,1.3042389],[103.8555453,1.3042452],[103.855491,1.3042452],[103.855491,1.3041755],[103.8555189,1.3041755],[103.8555189,1.3041633],[103.8555071,1.3041633],[103.8555058,1.3041606],[103.8555058,1.3041335],[103.855464,1.3041335],[103.8554665,1.3040694],[103.8554687,1.3040694],[103.8554687,1.3040087],[103.8555786,1.3040087],[103.8555786,1.3040535],[103.8555993,1.3040516],[103.8555993,1.3040088],[103.8557091,1.3040087],[103.8557091,1.3040765],[103.8556588,1.3040747],[103.8556588,1.304077],[103.8556556,1.304077],[103.8556556,1.3041037],[103.8556855,1.3041037],[103.8556855,1.3040987],[103.8557044,1.3040987],[103.8557044,1.3041037],[103.8557277,1.3041037]]]}},{"type":"Feature","properties":{"type":"HDB"},"geometry":{"type":"Polygon","coordinates":[[[103.8552726,1.303988],[103.8552726,1.3039363],[103.8555614,1.3039363],[103.8555755,1.3039391],[103.8555935,1.3039479],[103.8556506,1.303948],[103.8556655,1.3039509],[103.8558404,1.3040811],[103.8559839,1.3042271],[103.8559932,1.3042419],[103.8559953,1.3042793],[103.8559913,1.3042936],[103.8559842,1.3043042],[103.8557138,1.3046011],[103.8557063,1.3046126],[103.8557033,1.3046243],[103.8556561,1.3046762],[103.8556359,1.3046738],[103.8555345,1.3047736],[103.8555038,1.304742],[103.8555115,1.3047344],[103.8554034,1.3046259],[103.8553857,1.3046161],[103.8553074,1.304615],[103.8552943,1.3046172],[103.8552793,1.3046265],[103.8552411,1.304664],[103.8552198,1.3046734],[103.855086,1.3046738],[103.8550715,1.3046716],[103.8550583,1.3046652],[103.8550444,1.3046505],[103.8548233,1.3042922],[103.8548175,1.3042787],[103.8548161,1.3042607],[103.8548202,1.3042446],[103.8549379,1.3039821],[103.8549511,1.3039658],[103.8549691,1.3039585],[103.8550215,1.3039581],[103.8550215,1.303988],[103.8551145,1.303988],[103.8551145,1.304011],[103.855119,1.304011],[103.855119,1.304016],[103.855136,1.304016],[103.855136,1.3040133],[103.8551738,1.304016],[103.8551738,1.304011],[103.8551783,1.304011],[103.8551783,1.303988],[103.8552726,1.303988]],[[103.8551392,1.3044528],[103.8551612,1.3044884],[103.8551736,1.3044884],[103.8551736,1.3045183],[103.855267,1.3045183],[103.855267,1.3045413],[103.8552715,1.3045413],[103.8552715,1.3045463],[103.8553263,1.3045463],[103.8553263,1.3045413],[103.8553308,1.3045413],[103.8553308,1.3045183],[103.8554251,1.3045183],[103.8554251,1.3044884],[103.8555648,1.3044884],[103.8555662,1.3044661],[103.8555699,1.3044533],[103.8555804,1.3044339],[103.8556028,1.3044132],[103.8556364,1.3044015],[103.85567,1.3044049],[103.8556987,1.3044212],[103.8557115,1.3044356],[103.8557197,1.3044502],[103.8557248,1.304467],[103.855726,1.3044894],[103.8558478,1.3043557],[103.8558572,1.3043383],[103.8558584,1.3043187],[103.8557867,1.3043185],[103.8557684,1.304315],[103.8557537,1.3043088],[103.8557395,1.3042989],[103.8557276,1.3042861],[103.8557182,1.3042699],[103.855713,1.3042529],[103.8557119,1.304229],[103.8557168,1.3042081],[103.8557253,1.3041917],[103.8557395,1.3041757],[103.8557548,1.3041652],[103.8557719,1.3041585],[103.8557949,1.3041559],[103.8558127,1.3041585],[103.8557647,1.3041145],[103.8557506,1.3041077],[103.8557152,1.3041064],[103.8557152,1.3041036],[103.8556208,1.3041036],[103.8556208,1.3040806],[103.8556163,1.3040806],[103.8556163,1.3040756],[103.8555786,1.3040784],[103.8555786,1.3040756],[103.8555615,1.3040756],[103.8555615,1.3040806],[103.855557,1.3040806],[103.855557,1.3041036],[103.855464,1.3041036],[103.8554643,1.3041335],[103.8554496,1.3041428],[103.8551541,1.3041435],[103.8551293,1.3041988],[103.8551322,1.3042417],[103.8551814,1.3043214],[103.8551839,1.3043332],[103.8551774,1.304345],[103.8551597,1.3043594],[103.855168,1.3043731],[103.8551754,1.3043731],[103.8551753,1.3044134],[103.8551317,1.3044134],[103.8551342,1.3044395],[103.8551392,1.3044528]]]}},{"type":"Feature","properties":{"type":"HDB"},"geometry":{"type":"Polygon","coordinates":[[[103.8560423,1.3048578],[103.8561522,1.3048578],[103.8561522,1.3049026],[103.856158,1.3049026],[103.856158,1.3049062],[103.8561728,1.3049062],[103.8561728,1.3048578],[103.8562827,1.3048578],[103.8562827,1.3049257],[103.856229,1.3049261],[103.856229,1.3049528],[103.856304,1.3049528],[103.856304,1.3050003],[103.8562546,1.3050003],[103.8562546,1.3050143],[103.8562465,1.3050143],[103.8562465,1.3050107],[103.8562317,1.3050107],[103.8562321,1.3050319],[103.8562375,1.3050319],[103.8562375,1.3050369],[103.8562861,1.3050369],[103.8562861,1.3051047],[103.8561751,1.3051047],[103.8561751,1.305102],[103.8561499,1.305102],[103.8561499,1.3051047],[103.856039,1.3051047],[103.8560389,1.3050369],[103.8560875,1.3050369],[103.8560875,1.3050319],[103.8560933,1.3050319],[103.8560933,1.3050107],[103.8560785,1.3050107],[103.8560785,1.3050161],[103.8560318,1.3050161],[103.8560318,1.3049826],[103.8560372,1.3049826],[103.8560372,1.3049528],[103.856096,1.3049528],[103.856096,1.3049261],[103.8560423,1.3049257],[103.8560423,1.3048578]]]}},{"type":"Feature","properties":{"type":"LANDMARK"},"geometry":{"type":"Polygon","coordinates":[[[103.8598379,1.3049906],[103.8598418,1.3049856],[103.8599002,1.3050323],[103.8598963,1.3050372],[103.8598379,1.3049906]]]}},{"type":"Feature","properties":{"type":"LANDMARK"},"geometry":{"type":"Polygon","coordinates":[[[103.859905,1.3050442],[103.8598922,1.3050604],[103.8599127,1.3050768],[103.8598968,1.305097],[103.8598057,1.3050237],[103.8598321,1.304986],[103.859905,1.3050442]]]}},{"type":"Feature","properties":{"type":"LANDMARK"},"geometry":{"type":"Polygon","coordinates":[[[103.8528602,1.300135],[103.8530061,1.3000115],[103.853045,1.3000558],[103.8530125,1.3000833],[103.8530883,1.300182],[103.8531252,1.3001558],[103.8531603,1.3002006],[103.8530125,1.3003178],[103.8528602,1.300135]]]}},{"type":"Feature","properties":{"type":"LANDMARK"},"geometry":{"type":"Polygon","coordinates":[[[103.8530083,1.3003607],[103.853198,1.3002104],[103.8532699,1.3002977],[103.8530823,1.3004517],[103.8530083,1.3003607]]]}},{"type":"Feature","properties":{"type":"HDB"},"geometry":{"type":"Polygon","coordinates":[[[103.8535169,1.3002714],[103.8535136,1.3002742],[103.8535262,1.3002896],[103.8535524,1.3002678],[103.8535397,1.3002524],[103.8535371,1.3002545],[103.853508,1.300219],[103.8535527,1.3001818],[103.8535678,1.3002003],[103.8536025,1.3001715],[103.8535924,1.3001591],[103.8535889,1.300162],[103.8535839,1.3001559],[103.8536559,1.3000962],[103.8536851,1.3001318],[103.8536822,1.3001341],[103.8536952,1.30015],[103.8537204,1.300129],[103.8537078,1.3001136],[103.8537048,1.3001161],[103.8536753,1.3000801],[103.8537407,1.3000258],[103.8538187,1.3001209],[103.8533297,1.300527],[103.8533508,1.3005528],[103.8534049,1.3005079],[103.8534378,1.300548],[103.8533695,1.3006047],[103.8533569,1.3005893],[103.8533465,1.300598],[103.8533603,1.3006147],[103.8532906,1.3006725],[103.8531574,1.30051],[103.853228,1.3004513],[103.853264,1.3004952],[103.853275,1.300486],[103.8532808,1.3004931],[103.853293,1.300483],[103.8532803,1.3004675],[103.853278,1.3004695],[103.8532489,1.300434],[103.853358,1.3003435],[103.853387,1.3003789],[103.8533846,1.3003809],[103.8533972,1.3003962],[103.8534226,1.3003751],[103.85341,1.3003597],[103.8534076,1.3003617],[103.8533786,1.3003263],[103.8534878,1.3002358],[103.8535169,1.3002714]]]}},{"type":"Feature","properties":{"type":"HDB"},"geometry":{"type":"Polygon","coordinates":[[[103.8536626,1.3009622],[103.8535871,1.3010249],[103.8532951,1.3006688],[103.8532906,1.3006725],[103.8531574,1.30051],[103.8532222,1.3004562],[103.8532096,1.3004409],[103.8533642,1.3003125],[103.8533453,1.3002895],[103.8535203,1.3001442],[103.8535392,1.3001672],[103.8535742,1.3001381],[103.8535553,1.3001151],[103.8537091,1.2999873],[103.8541658,1.3005443],[103.8540161,1.3006686],[103.8540125,1.3006643],[103.8539648,1.3007039],[103.8539683,1.3007083],[103.853918,1.3007501],[103.8539072,1.3007369],[103.8539176,1.3007283],[103.8539023,1.3007095],[103.8538919,1.3007182],[103.8538382,1.3006527],[103.853859,1.3006354],[103.8538442,1.3006174],[103.8538234,1.3006347],[103.8537701,1.3005697],[103.8537909,1.3005524],[103.8537762,1.3005345],[103.8537554,1.3005517],[103.8537011,1.3004855],[103.8537219,1.3004682],[103.8537071,1.3004502],[103.8536863,1.3004675],[103.8536331,1.3004025],[103.8536538,1.3003852],[103.8536457,1.3003753],[103.8536808,1.3003461],[103.8536612,1.3003222],[103.8536834,1.3003038],[103.853649,1.3002618],[103.8533297,1.300527],[103.8533508,1.3005528],[103.8534049,1.3005079],[103.8534378,1.300548],[103.8534479,1.3005396],[103.853456,1.3005495],[103.8534768,1.3005323],[103.85353,1.3005972],[103.8535093,1.3006145],[103.853524,1.3006325],[103.8535448,1.3006153],[103.8535991,1.3006815],[103.8535783,1.3006987],[103.8535931,1.3007167],[103.8536139,1.3006995],[103.8536671,1.3007645],[103.8536463,1.3007817],[103.8536611,1.3007997],[103.8536819,1.3007825],[103.8537356,1.300848],[103.8537252,1.3008566],[103.8537405,1.3008753],[103.8537509,1.3008667],[103.8537617,1.3008798],[103.8537114,1.3009216],[103.8537078,1.3009173],[103.8536601,1.3009569],[103.8536626,1.3009622]]]}},{"type":"Feature","properties":{"type":"LANDMARK"},"geometry":{"type":"Polygon","coordinates":[[[103.8528022,1.3004964],[103.8526366,1.300629],[103.8526346,1.3006268],[103.8526535,1.3006121],[103.8525941,1.3005333],[103.8525745,1.3005492],[103.8525736,1.3005471],[103.8527396,1.3004146],[103.8528022,1.3004964]]]}},{"type":"Feature","properties":{"type":"HDB"},"geometry":{"type":"Polygon","coordinates":[[[103.8536457,1.3003753],[103.8537261,1.3003085],[103.8540192,1.300666],[103.8540161,1.3006686],[103.8540125,1.3006643],[103.8539648,1.3007039],[103.8539683,1.3007083],[103.853918,1.3007501],[103.8539072,1.3007369],[103.8539176,1.3007283],[103.8539023,1.3007095],[103.8538919,1.3007182],[103.8538382,1.3006527],[103.853859,1.3006354],[103.8538442,1.3006174],[103.8538234,1.3006347],[103.8537701,1.3005697],[103.8537909,1.3005524],[103.8537762,1.3005345],[103.8537554,1.3005517],[103.8537011,1.3004855],[103.8537219,1.3004682],[103.8537071,1.3004502],[103.8536863,1.3004675],[103.8536331,1.3004025],[103.8536538,1.3003852],[103.8536457,1.3003753]]]}},{"type":"Feature","properties":{"type":"HDB"},"geometry":{"type":"Polygon","coordinates":[[[103.8536636,1.3009613],[103.8533695,1.3006047],[103.8534479,1.3005396],[103.853456,1.3005495],[103.8534768,1.3005323],[103.85353,1.3005972],[103.8535093,1.3006145],[103.853524,1.3006325],[103.8535448,1.3006153],[103.8535991,1.3006815],[103.8535783,1.3006987],[103.8535931,1.3007167],[103.8536139,1.3006995],[103.8536671,1.3007645],[103.8536463,1.3007817],[103.8536611,1.3007997],[103.8536819,1.3007825],[103.8537356,1.300848],[103.8537252,1.3008566],[103.8537405,1.3008753],[103.8537509,1.3008667],[103.8537617,1.3008798],[103.8537114,1.3009216],[103.8537078,1.3009173],[103.8536601,1.3009569],[103.8536636,1.3009613]]]}},{"type":"Feature","properties":{"type":"HDB"},"geometry":{"type":"Polygon","coordinates":[[[103.8536639,1.3011377],[103.8537678,1.3010507],[103.8537437,1.3010216],[103.8537633,1.3010052],[103.8537675,1.3010056],[103.8537897,1.3010324],[103.8539979,1.3008611],[103.8539965,1.3008593],[103.8541209,1.3007551],[103.8540985,1.3007279],[103.8541167,1.3007127],[103.8541392,1.3007399],[103.8542466,1.3006499],[103.8543113,1.3007289],[103.8542998,1.3007385],[103.8543063,1.3007463],[103.8542423,1.3007999],[103.8542367,1.300793],[103.8542266,1.3008014],[103.8542214,1.3007952],[103.8542013,1.3008121],[103.8541979,1.300808],[103.8541783,1.3008244],[103.8541868,1.3008347],[103.8541767,1.3008432],[103.8541828,1.3008506],[103.8541187,1.3009042],[103.8541127,1.3008969],[103.8540939,1.3009127],[103.8540999,1.3009199],[103.8540362,1.3009733],[103.8540297,1.3009654],[103.854011,1.300981],[103.8540176,1.3009889],[103.8539536,1.3010424],[103.8539476,1.3010352],[103.8539289,1.3010509],[103.8539349,1.3010581],[103.8538711,1.301111],[103.8538652,1.3011039],[103.8538548,1.3011126],[103.8538459,1.3011018],[103.8538265,1.3011181],[103.85383,1.3011223],[103.8538098,1.3011392],[103.853815,1.3011455],[103.8538051,1.3011537],[103.8538114,1.3011613],[103.8537471,1.3012146],[103.8537406,1.3012067],[103.8537287,1.3012167],[103.8536639,1.3011377]]]}},{"type":"Feature","properties":{"type":"HDB"},"geometry":{"type":"Polygon","coordinates":[[[103.8544761,1.3009302],[103.8542506,1.3012107],[103.8542331,1.3012247],[103.8542225,1.3012286],[103.8542113,1.30123],[103.8541894,1.3012257],[103.8541788,1.3013365],[103.854173,1.3013526],[103.8541587,1.301362],[103.85415,1.3013627],[103.8541343,1.3013559],[103.8541289,1.3013492],[103.8541257,1.3013323],[103.8541308,1.3012709],[103.8539182,1.3014477],[103.8536568,1.301129],[103.8537609,1.3010424],[103.8537437,1.3010216],[103.8537633,1.3010052],[103.8537675,1.3010056],[103.8537828,1.3010241],[103.8541149,1.3007478],[103.8540985,1.3007279],[103.8541167,1.3007127],[103.8541332,1.3007326],[103.8542409,1.300643],[103.8544761,1.3009302]]]}},{"type":"Feature","properties":{"type":"HDB"},"geometry":{"type":"Polygon","coordinates":[[[103.8552666,1.3040151],[103.8552666,1.3040829],[103.8551567,1.3040829],[103.8551567,1.30404],[103.8551361,1.3040382],[103.8551361,1.3040829],[103.8550262,1.3040829],[103.8550262,1.3040151],[103.8550705,1.3040166],[103.8550705,1.3040098],[103.8550797,1.3040098],[103.8550797,1.303988],[103.8550215,1.303988],[103.8550215,1.3039853],[103.8550161,1.3039853],[103.8550161,1.3039608],[103.8550215,1.3039608],[103.8550215,1.3039296],[103.8550764,1.3039283],[103.8550764,1.3039161],[103.8550484,1.3039161],[103.8550484,1.3038464],[103.8551338,1.3038464],[103.8551338,1.3038433],[103.855159,1.3038433],[103.855159,1.3038464],[103.8551644,1.3038464],[103.8551644,1.3038528],[103.85519,1.3038528],[103.85519,1.3038464],[103.8552443,1.3038464],[103.8552443,1.3039161],[103.8552164,1.3039161],[103.8552164,1.3039283],[103.8552282,1.3039283],[103.8552282,1.3039247],[103.8552385,1.3039247],[103.8552385,1.3039296],[103.8552726,1.3039296],[103.8552726,1.30394],[103.8552852,1.30394],[103.8552852,1.303988],[103.8552618,1.303988],[103.8552618,1.3039929],[103.855243,1.3039929],[103.855243,1.303988],[103.8552131,1.303988],[103.8552131,1.3040147],[103.8552666,1.3040151]]]}},{"type":"Feature","properties":{"type":"LANDMARK"},"geometry":{"type":"Polygon","coordinates":[[[103.8604221,1.3016523],[103.8605591,1.3017289],[103.8605371,1.3017647],[103.8604048,1.3016833],[103.8604221,1.3016523]]]}},{"type":"Feature","properties":{"type":"LANDMARK"},"geometry":{"type":"Polygon","coordinates":[[[103.8604048,1.3016833],[103.8605371,1.3017647],[103.8605146,1.3018012],[103.8603846,1.3017196],[103.8604048,1.3016833]]]}},{"type":"Feature","properties":{"type":"LANDMARK"},"geometry":{"type":"Polygon","coordinates":[[[103.8603162,1.3016851],[103.8603181,1.301682],[103.8603846,1.3017196],[103.8603674,1.3017472],[103.8604152,1.3017774],[103.8603991,1.3018032],[103.8604266,1.3018206],[103.8604047,1.3018557],[103.8603748,1.3018368],[103.8603609,1.3018591],[103.8602483,1.3017881],[103.8602385,1.3018038],[103.8602114,1.3017837],[103.8602856,1.3016657],[103.8603162,1.3016851]]]}},{"type":"Feature","properties":{"type":"LANDMARK"},"geometry":{"type":"Polygon","coordinates":[[[103.8606922,1.3035564],[103.8605915,1.3034936],[103.8606182,1.3034503],[103.8605713,1.3034211],[103.8606211,1.3033403],[103.860668,1.3033696],[103.8606941,1.3033272],[103.8607931,1.303389],[103.8607594,1.3034437],[103.8607892,1.3034623],[103.8607562,1.3035159],[103.860728,1.3034984],[103.8606922,1.3035564]]]}},{"type":"Feature","properties":{"type":"LANDMARK"},"geometry":{"type":"Polygon","coordinates":[[[103.8485942,1.3019432],[103.8486212,1.3020443],[103.8485164,1.3020917],[103.8484417,1.3018582],[103.8485452,1.3018349],[103.848706,1.301817],[103.8487144,1.3018934],[103.8487206,1.3018927],[103.8487251,1.3019332],[103.8486652,1.3019398],[103.8486647,1.3019353],[103.8485942,1.3019432]]]}},{"type":"Feature","properties":{"type":"LANDMARK"},"geometry":{"type":"Polygon","coordinates":[[[103.8487408,1.3022384],[103.8486851,1.3021581],[103.8489016,1.3020707],[103.8489111,1.3020693],[103.8489205,1.3020711],[103.8489324,1.302079],[103.8490233,1.3022097],[103.8489877,1.3022367],[103.8489864,1.302235],[103.8489815,1.3022388],[103.8489828,1.3022406],[103.84895,1.3022655],[103.8489451,1.3022591],[103.8489432,1.3022606],[103.848894,1.3021935],[103.8488861,1.3021994],[103.848894,1.30221],[103.8488619,1.3022341],[103.8488403,1.3022035],[103.8487493,1.3022401],[103.8487476,1.3022357],[103.8487408,1.3022384]]]}},{"type":"Feature","properties":{"type":"LANDMARK"},"geometry":{"type":"Polygon","coordinates":[[[103.8487952,1.3023271],[103.8488915,1.3022541],[103.8489081,1.3022762],[103.8489378,1.3022532],[103.8489432,1.3022606],[103.848913,1.3022839],[103.8489158,1.3022876],[103.84894,1.3022688],[103.8489563,1.3022917],[103.8488368,1.3023825],[103.8487952,1.3023271]]]}},{"type":"Feature","properties":{"type":"HDB"},"geometry":{"type":"Polygon","coordinates":[[[103.8508834,1.3029866],[103.8508834,1.303],[103.8508937,1.303],[103.8508938,1.3030041],[103.8509145,1.3030041],[103.8509145,1.303],[103.8509248,1.303],[103.8509248,1.3029866],[103.8509439,1.3029866],[103.8509445,1.3030088],[103.8509552,1.3030081],[103.8509554,1.3030537],[103.8509864,1.3030536],[103.8509861,1.3031056],[103.8506592,1.303106],[103.8506599,1.303164],[103.8506787,1.3031641],[103.8506797,1.3032149],[103.8506597,1.3032152],[103.8506595,1.3032616],[103.850329,1.3032617],[103.8503293,1.3032048],[103.8503593,1.3032049],[103.850359,1.3031615],[103.8503712,1.3031615],[103.8503712,1.3031383],[103.8503896,1.3031384],[103.8503896,1.3031517],[103.8504002,1.3031517],[103.8504002,1.3031558],[103.8504219,1.3031558],[103.8504219,1.3031517],[103.8504318,1.3031517],[103.8504318,1.3031384],[103.8504508,1.3031384],[103.8504508,1.3031525],[103.85047,1.3031525],[103.85047,1.3031384],[103.8504888,1.3031384],[103.8504888,1.3031517],[103.8504991,1.3031517],[103.8504991,1.3031558],[103.8505195,1.3031557],[103.8505195,1.3031384],[103.8505382,1.3031384],[103.8505382,1.3031517],[103.8505491,1.3031517],[103.8505491,1.3031615],[103.8505576,1.3031615],[103.8505576,1.3031384],[103.8505457,1.3031384],[103.8505455,1.3030924],[103.8505293,1.3030924],[103.8505293,1.3030816],[103.8505075,1.3030744],[103.8505077,1.3030303],[103.8505563,1.3030301],[103.8505563,1.3030082],[103.8505688,1.3030088],[103.8505691,1.302987],[103.8505877,1.3029869],[103.8505877,1.3030001],[103.8505984,1.3030001],[103.8505984,1.3030042],[103.8506186,1.3030042],[103.8506186,1.3030001],[103.8506295,1.3030001],[103.8506295,1.3029869],[103.8506482,1.3029869],[103.8506482,1.3030098],[103.8506675,1.3030098],[103.8506675,1.3029869],[103.8506866,1.3029868],[103.8506866,1.3030001],[103.8506968,1.3030001],[103.8506968,1.3030041],[103.8507177,1.3030041],[103.8507177,1.3030001],[103.8507283,1.3030001],[103.8507283,1.3029868],[103.8507469,1.3029868],[103.8507469,1.3030098],[103.8507659,1.3030098],[103.8507658,1.3029868],[103.8507851,1.3029867],[103.8507851,1.303],[103.8507953,1.303],[103.8507953,1.3030041],[103.850816,1.3030041],[103.850816,1.303],[103.8508265,1.303],[103.8508265,1.3029867],[103.8508451,1.3029867],[103.8508451,1.3030098],[103.8508645,1.3030097],[103.8508644,1.3029866],[103.8508834,1.3029866]]]}},{"type":"Feature","properties":{"type":"HDB"},"geometry":{"type":"Polygon","coordinates":[[[103.8505702,1.3032842],[103.8506002,1.3032841],[103.8506012,1.3032701],[103.8506401,1.3032703],[103.8506401,1.3032839],[103.8507147,1.3032841],[103.8507145,1.3033836],[103.8506397,1.3033834],[103.8506399,1.3033972],[103.8506007,1.3033975],[103.8506005,1.3033839],[103.8505702,1.303384],[103.8505702,1.3032842]]]}},{"type":"Feature","properties":{"type":"HDB"},"geometry":{"type":"Polygon","coordinates":[[[103.8502507,1.3034249],[103.8502612,1.3034249],[103.8502612,1.3034093],[103.8504234,1.3034092],[103.8504233,1.3034044],[103.8504312,1.3034043],[103.8504314,1.3033745],[103.8504645,1.3033748],[103.8504644,1.3034044],[103.8504727,1.3034044],[103.8504727,1.3034092],[103.8508418,1.303409],[103.8508424,1.3033448],[103.8508351,1.3033447],[103.8508359,1.3032906],[103.8508545,1.3032909],[103.8508543,1.3032476],[103.8511734,1.3032478],[103.8511733,1.3032704],[103.8511863,1.3032702],[103.8511868,1.3033207],[103.8511566,1.303321],[103.8511556,1.3033482],[103.8511445,1.3033478],[103.851144,1.3033699],[103.8511249,1.3033699],[103.8511249,1.303357],[103.8511147,1.303357],[103.8511147,1.3033529],[103.851094,1.303353],[103.851094,1.303357],[103.8510836,1.303357],[103.8510836,1.3033699],[103.8510645,1.3033699],[103.8510645,1.3033469],[103.8510457,1.3033469],[103.8510457,1.30337],[103.8510265,1.30337],[103.8510265,1.3033571],[103.851016,1.3033571],[103.851016,1.303353],[103.8509953,1.3033531],[103.8509953,1.3033571],[103.8509848,1.3033571],[103.8509848,1.30337],[103.8509661,1.30337],[103.8509661,1.303347],[103.850944,1.303347],[103.8509446,1.303404],[103.8509583,1.3034042],[103.8509584,1.3035084],[103.8509469,1.3035084],[103.8509469,1.3035305],[103.8509282,1.3035305],[103.8509282,1.3035169],[103.8509177,1.3035169],[103.8509177,1.3035128],[103.8508967,1.3035128],[103.8508967,1.3035169],[103.8508864,1.3035169],[103.8508864,1.3035305],[103.8508673,1.3035305],[103.8508673,1.3035072],[103.8508486,1.3035072],[103.8508486,1.3035304],[103.8508294,1.3035304],[103.8508294,1.3035169],[103.850819,1.3035169],[103.850819,1.3035128],[103.8507986,1.3035128],[103.8507986,1.3035169],[103.8507882,1.3035169],[103.8507882,1.3035304],[103.8507691,1.3035304],[103.8507691,1.3035072],[103.8507497,1.3035072],[103.8507497,1.3035304],[103.850731,1.3035303],[103.850731,1.3035169],[103.8507203,1.3035169],[103.8507203,1.3035128],[103.8506996,1.3035128],[103.8506996,1.3035169],[103.8506889,1.3035169],[103.8506889,1.3035303],[103.8506704,1.3035303],[103.8506704,1.3035073],[103.8506477,1.3035073],[103.8506477,1.3035303],[103.8506289,1.3035303],[103.8506289,1.3035169],[103.8506181,1.3035169],[103.8506181,1.3035128],[103.8505973,1.3035128],[103.8505973,1.3035169],[103.8505869,1.3035169],[103.8505869,1.3035303],[103.8505678,1.3035303],[103.8505678,1.3035074],[103.8505489,1.3035074],[103.8505489,1.3035303],[103.8505295,1.3035303],[103.8505295,1.3035169],[103.8505193,1.3035169],[103.8505193,1.3035128],[103.8504982,1.3035128],[103.8504982,1.3035169],[103.8504874,1.3035169],[103.8504874,1.3035303],[103.8504691,1.3035303],[103.8504691,1.3035074],[103.8504497,1.3035075],[103.8504497,1.3035303],[103.8504311,1.3035302],[103.8504311,1.3035169],[103.8504204,1.3035169],[103.8504204,1.3035128],[103.8503997,1.3035128],[103.8503997,1.3035169],[103.8503894,1.3035169],[103.8503894,1.3035302],[103.8503703,1.3035302],[103.8503703,1.3035075],[103.8503515,1.3035075],[103.8503515,1.3035302],[103.8503325,1.3035302],[103.8503325,1.3035169],[103.8503223,1.3035169],[103.8503223,1.3035129],[103.8503015,1.3035129],[103.8503015,1.3035169],[103.8502911,1.3035169],[103.8502911,1.3035302],[103.8502726,1.3035302],[103.8502726,1.3035121],[103.8502656,1.3035119],[103.8502507,1.3034249]]]}},{"type":"Feature","properties":{"type":"HDB"},"geometry":{"type":"Polygon","coordinates":[[[103.8506578,1.3036603],[103.8506633,1.303655],[103.8506633,1.30363],[103.8507558,1.3036302],[103.8507553,1.3037171],[103.8506786,1.3037168],[103.8506786,1.303754],[103.8506592,1.3037541],[103.8506591,1.3037589],[103.8506476,1.3037593],[103.8506477,1.3037809],[103.8506289,1.3037809],[103.8506289,1.3037683],[103.8506182,1.3037683],[103.8506182,1.3037643],[103.8505979,1.3037643],[103.8505979,1.3037684],[103.8505871,1.3037684],[103.8505871,1.3037809],[103.8505679,1.3037809],[103.8505679,1.3037588],[103.850549,1.3037589],[103.8505491,1.3037809],[103.8505298,1.3037809],[103.8505298,1.3037685],[103.8505194,1.3037685],[103.8505194,1.3037644],[103.8504983,1.3037645],[103.8504983,1.3037685],[103.8504882,1.3037685],[103.8504882,1.3037809],[103.8504691,1.3037809],[103.8504691,1.303759],[103.8504502,1.303759],[103.8504502,1.3037809],[103.8504313,1.3037809],[103.8504313,1.3037686],[103.8504208,1.3037686],[103.8504208,1.3037646],[103.8504001,1.3037646],[103.8504001,1.3037687],[103.8503894,1.3037687],[103.8503894,1.3037809],[103.8503708,1.3037809],[103.8503707,1.3037591],[103.8503594,1.3037592],[103.8503594,1.3037674],[103.8503256,1.3037674],[103.8503285,1.3036755],[103.8503598,1.3036755],[103.8503597,1.3036603],[103.8506578,1.3036603]]]}},{"type":"Feature","properties":{"type":"LANDMARK"},"geometry":{"type":"Polygon","coordinates":[[[103.8513594,1.3055387],[103.851523,1.3054306],[103.8515594,1.305488],[103.8513721,1.3056105],[103.8513512,1.3055776],[103.8513594,1.3055387]]]}},{"type":"Feature","properties":{"type":"HDB"},"geometry":{"type":"Polygon","coordinates":[[[103.8506047,1.3055791],[103.8506067,1.3055669],[103.8506197,1.3055664],[103.8506452,1.3055431],[103.8506464,1.30553],[103.8506598,1.3055315],[103.8506789,1.3055152],[103.8506762,1.305513],[103.8506814,1.3055093],[103.8506874,1.3055095],[103.850687,1.3055145],[103.8507004,1.3055152],[103.8507054,1.3054932],[103.8508415,1.3055205],[103.8508498,1.3055347],[103.8508412,1.3055768],[103.8508273,1.3055863],[103.8508145,1.305585],[103.8508112,1.3056051],[103.8508753,1.3056163],[103.8509791,1.3055961],[103.8510504,1.3055501],[103.8511107,1.3056429],[103.8510791,1.3056633],[103.8510887,1.3056793],[103.8510764,1.3056875],[103.851078,1.3056911],[103.8510347,1.3057183],[103.851032,1.3057156],[103.8510212,1.3057237],[103.8510039,1.3056964],[103.8508815,1.30572],[103.850875,1.3057487],[103.8508622,1.3057462],[103.8508618,1.3057499],[103.8508106,1.3057409],[103.850812,1.3057369],[103.8507909,1.3057333],[103.8507941,1.3057202],[103.8508006,1.3057202],[103.8508015,1.3057154],[103.8507589,1.305708],[103.8507733,1.3056303],[103.8507372,1.3056243],[103.8507338,1.3056428],[103.8507165,1.3056394],[103.8507149,1.3056446],[103.8506885,1.3056393],[103.8506806,1.3056483],[103.8506779,1.3056452],[103.8506676,1.3056536],[103.8506542,1.3056355],[103.8506685,1.3056242],[103.8506596,1.305612],[103.8506436,1.3056249],[103.8506047,1.3055791]]]}},{"type":"Feature","properties":{"type":"HDB"},"geometry":{"type":"Polygon","coordinates":[[[103.8512958,1.3060183],[103.8512789,1.3061273],[103.8509512,1.3063886],[103.850944,1.3063893],[103.8508653,1.3062893],[103.8509414,1.3062277],[103.850956,1.306245],[103.8509633,1.3062389],[103.8509609,1.3062349],[103.8509719,1.3062269],[103.8509598,1.3062111],[103.8509717,1.3062005],[103.850969,1.306198],[103.8510096,1.3061654],[103.8510132,1.306169],[103.8510262,1.3061586],[103.8510392,1.3061741],[103.8510773,1.3061422],[103.8510638,1.3061259],[103.8510773,1.3061148],[103.8510755,1.3061114],[103.8511159,1.3060808],[103.8511179,1.3060838],[103.8511303,1.3060738],[103.8511428,1.3060887],[103.8511509,1.3060826],[103.8511731,1.3061092],[103.8511816,1.3061015],[103.8511686,1.3060877],[103.8511713,1.3060651],[103.8511623,1.3060638],[103.8511632,1.3060566],[103.8511583,1.3060559],[103.8511657,1.3060089],[103.85117,1.3060093],[103.8511711,1.306003],[103.8511823,1.3060032],[103.851183,1.3060002],[103.8511985,1.3059905],[103.8511924,1.3059806],[103.851165,1.3059994],[103.8511435,1.3059662],[103.8511267,1.3059764],[103.8511204,1.3059674],[103.8511164,1.3059692],[103.8510897,1.3059263],[103.8510933,1.3059238],[103.8510868,1.3059148],[103.8511032,1.3059044],[103.8510965,1.3058949],[103.8511745,1.3058439],[103.851186,1.3058461],[103.8512958,1.3060183]]]}},{"type":"Feature","properties":{"type":"LANDMARK"},"geometry":{"type":"Polygon","coordinates":[[[103.8536541,1.3042389],[103.8536826,1.3042159],[103.853743,1.3042949],[103.8537166,1.3043163],[103.8536541,1.3042389]]]}},{"type":"Feature","properties":{"type":"LANDMARK"},"geometry":{"type":"Polygon","coordinates":[[[103.8537613,1.3042829],[103.8538158,1.3042354],[103.8538309,1.3042531],[103.8537796,1.304305],[103.8537613,1.3042829]]]}},{"type":"Feature","properties":{"type":"LANDMARK"},"geometry":{"type":"Polygon","coordinates":[[[103.8537166,1.3043163],[103.8536884,1.3043391],[103.8536268,1.3042608],[103.8536541,1.3042389],[103.8537166,1.3043163]]]}},{"type":"Feature","properties":{"type":"LANDMARK"},"geometry":{"type":"Polygon","coordinates":[[[103.8537796,1.304305],[103.8538309,1.3042531],[103.853851,1.3042767],[103.8538001,1.3043282],[103.8537796,1.304305]]]}},{"type":"Feature","properties":{"type":"LANDMARK"},"geometry":{"type":"Polygon","coordinates":[[[103.8538001,1.3043282],[103.853851,1.3042767],[103.8538683,1.304297],[103.8538158,1.3043453],[103.8538001,1.3043282]]]}},{"type":"Feature","properties":{"type":"LANDMARK"},"geometry":{"type":"Polygon","coordinates":[[[103.8538158,1.3043453],[103.8538683,1.304297],[103.8538861,1.304318],[103.8538335,1.3043661],[103.8538158,1.3043453]]]}},{"type":"Feature","properties":{"type":"LANDMARK"},"geometry":{"type":"Polygon","coordinates":[[[103.8538335,1.3043661],[103.8538861,1.304318],[103.8539025,1.3043373],[103.8538508,1.3043852],[103.8538335,1.3043661]]]}},{"type":"Feature","properties":{"type":"LANDMARK"},"geometry":{"type":"Polygon","coordinates":[[[103.8538508,1.3043852],[103.8539025,1.3043373],[103.853922,1.3043603],[103.8538717,1.3044102],[103.8538508,1.3043852]]]}},{"type":"Feature","properties":{"type":"LANDMARK"},"geometry":{"type":"Polygon","coordinates":[[[103.8538717,1.3044102],[103.853922,1.3043603],[103.8539435,1.3043857],[103.85389,1.3044302],[103.8538717,1.3044102]]]}},{"type":"Feature","properties":{"type":"LANDMARK"},"geometry":{"type":"Polygon","coordinates":[[[103.85389,1.3044302],[103.8539435,1.3043857],[103.8539645,1.3044104],[103.8539116,1.3044552],[103.85389,1.3044302]]]}},{"type":"Feature","properties":{"type":"HDB"},"geometry":{"type":"Polygon","coordinates":[[[103.8552297,1.3044391],[103.8552239,1.3044391],[103.8552239,1.3044342],[103.8551753,1.3044342],[103.8551753,1.3043665],[103.8554225,1.3043664],[103.8554225,1.3044342],[103.855418,1.3044342],[103.855418,1.3044617],[103.8553861,1.3044631],[103.855391,1.3044631],[103.855391,1.3044708],[103.8554486,1.3044712],[103.8554486,1.3045183],[103.8553654,1.3045183],[103.8553654,1.3045449],[103.8554191,1.3045454],[103.8554191,1.3046132],[103.8553092,1.3046132],[103.8553092,1.3045648],[103.8552944,1.3045648],[103.8552944,1.3045685],[103.8552886,1.3045685],[103.8552886,1.3046132],[103.8551787,1.3046132],[103.8551787,1.3045454],[103.8552324,1.304545],[103.8552324,1.3045183],[103.8551736,1.3045183],[103.8551736,1.3044884],[103.8551682,1.3044884],[103.8551682,1.304455],[103.8552149,1.304455],[103.8552149,1.3044604],[103.8552297,1.3044604],[103.8552297,1.3044391]]]}},{"type":"Feature","properties":{"type":"LANDMARK"},"geometry":{"type":"Polygon","coordinates":[[[103.8538222,1.3045154],[103.8538915,1.3046006],[103.8538644,1.304625],[103.8537957,1.3045389],[103.8538222,1.3045154]]]}},{"type":"Feature","properties":{"type":"LANDMARK"},"geometry":{"type":"Polygon","coordinates":[[[103.8537957,1.3045389],[103.8538644,1.304625],[103.8538392,1.3046477],[103.8537692,1.3045625],[103.8537957,1.3045389]]]}},{"type":"Feature","properties":{"type":"LANDMARK"},"geometry":{"type":"Polygon","coordinates":[[[103.8537692,1.3045625],[103.8538392,1.3046477],[103.8538117,1.3046724],[103.8537441,1.3045848],[103.8537692,1.3045625]]]}},{"type":"Feature","properties":{"type":"LANDMARK"},"geometry":{"type":"Polygon","coordinates":[[[103.8537441,1.3045848],[103.8538117,1.3046724],[103.8537828,1.3046985],[103.8537144,1.3046111],[103.8537441,1.3045848]]]}},{"type":"Feature","properties":{"type":"LANDMARK"},"geometry":{"type":"Polygon","coordinates":[[[103.8537144,1.3046111],[103.8537828,1.3046985],[103.8537553,1.3047233],[103.8536868,1.3046356],[103.8537144,1.3046111]]]}},{"type":"Feature","properties":{"type":"LANDMARK"},"geometry":{"type":"Polygon","coordinates":[[[103.8536868,1.3046356],[103.8537553,1.3047233],[103.8537311,1.3047451],[103.8536648,1.3046553],[103.8536868,1.3046356]]]}},{"type":"Feature","properties":{"type":"LANDMARK"},"geometry":{"type":"Polygon","coordinates":[[[103.8543824,1.3046501],[103.8544635,1.3047627],[103.8544453,1.304776],[103.8544647,1.3048028],[103.8544318,1.3048268],[103.8544078,1.3047935],[103.8543907,1.304806],[103.8543143,1.3046998],[103.8543824,1.3046501]]]}},{"type":"Feature","properties":{"type":"LANDMARK"},"geometry":{"type":"Polygon","coordinates":[[[103.8539159,1.3052162],[103.8540181,1.3051289],[103.8540954,1.3052338],[103.8539236,1.3053636],[103.8537879,1.3051566],[103.8538516,1.3050988],[103.8539138,1.3051727],[103.8538938,1.3051915],[103.8539159,1.3052162]]]}},{"type":"Feature","properties":{"type":"LANDMARK"},"geometry":{"type":"Polygon","coordinates":[[[103.8518765,1.3051971],[103.851889,1.3051889],[103.851932,1.3051918],[103.8520845,1.3053223],[103.8519962,1.3053806],[103.8518765,1.3051971]]]}},{"type":"Feature","properties":{"type":"LANDMARK"},"geometry":{"type":"Polygon","coordinates":[[[103.8519491,1.3054117],[103.8518295,1.3052282],[103.8518765,1.3051971],[103.8519962,1.3053806],[103.8519491,1.3054117]]]}},{"type":"Feature","properties":{"type":"LANDMARK"},"geometry":{"type":"Polygon","coordinates":[[[103.8517843,1.305258],[103.8518295,1.3052282],[103.8519491,1.3054117],[103.8519039,1.3054415],[103.8517843,1.305258]]]}},{"type":"Feature","properties":{"type":"LANDMARK"},"geometry":{"type":"Polygon","coordinates":[[[103.8518582,1.3054717],[103.8517386,1.3052882],[103.8517843,1.305258],[103.8519039,1.3054415],[103.8518582,1.3054717]]]}},{"type":"Feature","properties":{"type":"LANDMARK"},"geometry":{"type":"Polygon","coordinates":[[[103.8518142,1.3055008],[103.8516946,1.3053173],[103.8517386,1.3052882],[103.8518582,1.3054717],[103.8518142,1.3055008]]]}},{"type":"Feature","properties":{"type":"LANDMARK"},"geometry":{"type":"Polygon","coordinates":[[[103.85211,1.3053443],[103.852213,1.3054332],[103.8522108,1.3054708],[103.8521665,1.3054999],[103.8520786,1.3053651],[103.85211,1.3053443]]]}},{"type":"Feature","properties":{"type":"LANDMARK"},"geometry":{"type":"Polygon","coordinates":[[[103.8517675,1.3055316],[103.8516479,1.3053481],[103.8516946,1.3053173],[103.8518142,1.3055008],[103.8517675,1.3055316]]]}},{"type":"Feature","properties":{"type":"LANDMARK"},"geometry":{"type":"Polygon","coordinates":[[[103.8520786,1.3053651],[103.8521665,1.3054999],[103.8521266,1.3055262],[103.8520386,1.3053914],[103.8520786,1.3053651]]]}},{"type":"Feature","properties":{"type":"LANDMARK"},"geometry":{"type":"Polygon","coordinates":[[[103.8515996,1.3053801],[103.8516479,1.3053481],[103.8517675,1.3055316],[103.8517192,1.3055635],[103.8515996,1.3053801]]]}},{"type":"Feature","properties":{"type":"LANDMARK"},"geometry":{"type":"Polygon","coordinates":[[[103.8520005,1.3054164],[103.8520386,1.3053914],[103.8521266,1.3055262],[103.8520885,1.3055513],[103.8520005,1.3054164]]]}},{"type":"Feature","properties":{"type":"LANDMARK"},"geometry":{"type":"Polygon","coordinates":[[[103.8515555,1.3054092],[103.8515996,1.3053801],[103.8517192,1.3055635],[103.8516911,1.3055821],[103.8516655,1.3055779],[103.8515555,1.3054092]]]}},{"type":"Feature","properties":{"type":"LANDMARK"},"geometry":{"type":"Polygon","coordinates":[[[103.8520005,1.3054164],[103.8520885,1.3055513],[103.8520503,1.3055765],[103.8519623,1.3054416],[103.8520005,1.3054164]]]}},{"type":"Feature","properties":{"type":"LANDMARK"},"geometry":{"type":"Polygon","coordinates":[[[103.8519623,1.3054416],[103.8520503,1.3055765],[103.8520114,1.305602],[103.8519235,1.3054672],[103.8519623,1.3054416]]]}},{"type":"Feature","properties":{"type":"LANDMARK"},"geometry":{"type":"Polygon","coordinates":[[[103.8519235,1.3054672],[103.8520114,1.305602],[103.8519735,1.305627],[103.8518855,1.3054921],[103.8519235,1.3054672]]]}},{"type":"Feature","properties":{"type":"LANDMARK"},"geometry":{"type":"Polygon","coordinates":[[[103.8518855,1.3054921],[103.8519735,1.305627],[103.8519357,1.3056519],[103.8518478,1.305517],[103.8518855,1.3054921]]]}},{"type":"Feature","properties":{"type":"LANDMARK"},"geometry":{"type":"Polygon","coordinates":[[[103.8513721,1.3056105],[103.8515594,1.305488],[103.8515961,1.3055458],[103.8514083,1.3056674],[103.8513721,1.3056105]]]}},{"type":"Feature","properties":{"type":"LANDMARK"},"geometry":{"type":"Polygon","coordinates":[[[103.8518103,1.3055417],[103.8518478,1.305517],[103.8519357,1.3056519],[103.8518982,1.3056766],[103.8518103,1.3055417]]]}},{"type":"Feature","properties":{"type":"LANDMARK"},"geometry":{"type":"Polygon","coordinates":[[[103.8518103,1.3055417],[103.8518982,1.3056766],[103.8518563,1.3057042],[103.8517683,1.3055693],[103.8518103,1.3055417]]]}},{"type":"Feature","properties":{"type":"LANDMARK"},"geometry":{"type":"Polygon","coordinates":[[[103.8514083,1.3056674],[103.8515961,1.3055458],[103.8516243,1.3055901],[103.8514377,1.3057138],[103.8514083,1.3056674]]]}},{"type":"Feature","properties":{"type":"LANDMARK"},"geometry":{"type":"Polygon","coordinates":[[[103.8517683,1.3055693],[103.8518563,1.3057042],[103.8518184,1.3057292],[103.8517304,1.3055943],[103.8517683,1.3055693]]]}},{"type":"Feature","properties":{"type":"LANDMARK"},"geometry":{"type":"Polygon","coordinates":[[[103.8517304,1.3055943],[103.8518184,1.3057292],[103.8517804,1.3057542],[103.8517057,1.3056397],[103.8517145,1.3056047],[103.8517304,1.3055943]]]}},{"type":"Feature","properties":{"type":"LANDMARK"},"geometry":{"type":"Polygon","coordinates":[[[103.8598057,1.3050237],[103.8598224,1.3050372],[103.859781,1.3050964],[103.8597641,1.3050829],[103.8598057,1.3050237]]]}},{"type":"Feature","properties":{"type":"HDB"},"geometry":{"type":"Polygon","coordinates":[[[103.8567746,1.3051603],[103.8567746,1.3052453],[103.856664,1.3052453],[103.8566613,1.305248],[103.8565818,1.3052467],[103.8565791,1.3052485],[103.8565791,1.3052539],[103.856443,1.3052539],[103.856443,1.3051861],[103.8564915,1.3051861],[103.8564915,1.3051811],[103.8564982,1.3051811],[103.8564965,1.3051499],[103.8564748,1.3051499],[103.8564748,1.305102],[103.8565009,1.305102],[103.8565009,1.3050966],[103.8565187,1.3050966],[103.8565187,1.3050739],[103.8564962,1.3050749],[103.8564962,1.305007],[103.856606,1.305007],[103.856606,1.3050138],[103.8566267,1.3050138],[103.8566267,1.305007],[103.8567365,1.305007],[103.8567365,1.3050749],[103.8567316,1.3050749],[103.8567316,1.305102],[103.8567466,1.3051047],[103.8567466,1.3051291],[103.856737,1.3051318],[103.856737,1.3051603],[103.8567746,1.3051603]]]}},{"type":"Feature","properties":{"type":"LANDMARK"},"geometry":{"type":"Polygon","coordinates":[[[103.8598003,1.3050842],[103.8598273,1.3050736],[103.8598427,1.3051188],[103.8598964,1.3050985],[103.8599155,1.3051481],[103.8598662,1.3051681],[103.8598839,1.3052138],[103.8598579,1.3052243],[103.8598524,1.305211],[103.8597841,1.3052378],[103.859777,1.3052199],[103.8597549,1.3052287],[103.8597444,1.3052017],[103.8597343,1.3052018],[103.8597268,1.3051955],[103.8597257,1.3051833],[103.859734,1.3051747],[103.8597238,1.3051486],[103.8597468,1.3051418],[103.8597384,1.3051209],[103.8598052,1.3050966],[103.8598003,1.3050842]]]}},{"type":"Feature","properties":{"type":"HDB"},"geometry":{"type":"Polygon","coordinates":[[[103.8562492,1.3047312],[103.8563855,1.3047312],[103.8564065,1.3047362],[103.8564185,1.304745],[103.8565151,1.3048422],[103.8565224,1.3048521],[103.8565273,1.3048669],[103.856542,1.3048737],[103.8565833,1.3049173],[103.8565862,1.3049298],[103.8565862,1.3050152],[103.8565277,1.3050152],[103.8565277,1.305102],[103.8565198,1.305102],[103.8565198,1.3051662],[103.8565153,1.3051662],[103.8565153,1.3051816],[103.8565198,1.3051816],[103.8565198,1.3051915],[103.8565306,1.3051915],[103.8565306,1.3052096],[103.8565512,1.3052096],[103.8565512,1.3052458],[103.8565459,1.3052458],[103.8565459,1.3052539],[103.8564784,1.3052548],[103.8564677,1.305259],[103.8564582,1.3052669],[103.8564498,1.3052834],[103.8564487,1.3053555],[103.8564407,1.3053765],[103.856169,1.3056286],[103.8561476,1.3056348],[103.8560584,1.305634],[103.8560414,1.3056269],[103.8560267,1.3056123],[103.8560133,1.3056044],[103.8560004,1.305602],[103.8559415,1.3056027],[103.8559284,1.3056077],[103.8559009,1.305631],[103.8558878,1.3056346],[103.8558706,1.3056348],[103.8557641,1.3057338],[103.8557,1.3056348],[103.855676,1.3056319],[103.8556654,1.3056257],[103.8556569,1.3056163],[103.8554923,1.3053618],[103.8554794,1.3053349],[103.8554737,1.305308],[103.8554744,1.3052797],[103.8554807,1.3052551],[103.8554878,1.3052396],[103.8555082,1.3052124],[103.8558269,1.304895],[103.8558346,1.3048834],[103.8558374,1.304868],[103.8558824,1.3048185],[103.8558955,1.3048184],[103.8559092,1.3048125],[103.8559823,1.3047406],[103.8559968,1.3047331],[103.8560126,1.3047312],[103.8560566,1.3046874],[103.8560674,1.3046983],[103.8560654,1.3047003],[103.8560837,1.3047188],[103.8561689,1.3046347],[103.8561865,1.3046273],[103.856203,1.3046282],[103.8562182,1.3046359],[103.8562294,1.3046503],[103.856233,1.3046633],[103.8562332,1.3047148],[103.8562492,1.3047312]],[[103.8556801,1.3053168],[103.8557705,1.3054571],[103.8558477,1.3054571],[103.8558477,1.3054351],[103.8558575,1.3054351],[103.8558575,1.3054582],[103.855862,1.3054582],[103.855862,1.3054631],[103.8558998,1.3054604],[103.8558998,1.3054631],[103.8559169,1.3054631],[103.8559169,1.3054582],[103.8559213,1.3054582],[103.8559213,1.3054351],[103.8559312,1.3054351],[103.8559312,1.3054835],[103.8560162,1.3054835],[103.8560329,1.305459],[103.8560543,1.3054436],[103.8560797,1.3054358],[103.8561024,1.305436],[103.8561251,1.305443],[103.8561436,1.3054553],[103.8561614,1.3054779],[103.85617,1.3055035],[103.8562763,1.3054049],[103.8562543,1.3053958],[103.8562407,1.3053855],[103.8562297,1.3053728],[103.8562209,1.3053566],[103.8562159,1.3053382],[103.8562155,1.3053162],[103.8562212,1.3052946],[103.8562317,1.3052765],[103.8562441,1.3052634],[103.8562583,1.3052539],[103.8562847,1.3052454],[103.856311,1.305246],[103.8563403,1.305258],[103.8563403,1.3052451],[103.8563092,1.3052451],[103.8563092,1.3051861],[103.8563403,1.3051861],[103.8563403,1.3049567],[103.8563381,1.3049484],[103.8563074,1.3049168],[103.8562934,1.3049309],[103.8562752,1.3049125],[103.8562034,1.3049125],[103.8562034,1.3049528],[103.8561944,1.3049528],[103.8561944,1.3049297],[103.8561899,1.3049297],[103.8561899,1.3049248],[103.8561351,1.3049248],[103.8561351,1.3049297],[103.8561306,1.3049297],[103.8561306,1.3049528],[103.8561216,1.3049528],[103.8561216,1.3049125],[103.8560796,1.3049125],[103.8560625,1.3049166],[103.8560184,1.3049574],[103.8560169,1.3049681],[103.8560108,1.304979],[103.8558002,1.3051887],[103.8557842,1.3051984],[103.8557558,1.3052029],[103.855688,1.30527],[103.8556767,1.3052911],[103.8556762,1.3053034],[103.8556801,1.3053168]]]}},{"type":"Feature","properties":{"type":"HDB"},"geometry":{"type":"Polygon","coordinates":[[[103.8560096,1.3054351],[103.8560096,1.30553],[103.8557693,1.30553],[103.8557693,1.3054622],[103.8558228,1.3054618],[103.8558228,1.3054351],[103.8557645,1.3054351],[103.8557645,1.3053772],[103.8558194,1.3053754],[103.8558194,1.3053632],[103.8557915,1.3053632],[103.8557915,1.3052936],[103.8558769,1.3052936],[103.8558769,1.3052904],[103.855902,1.3052904],[103.855902,1.3052936],[103.8559874,1.3052936],[103.8559874,1.3053632],[103.8559594,1.3053632],[103.8559594,1.3053754],[103.8559712,1.3053754],[103.8559712,1.3053718],[103.8559815,1.3053718],[103.8559815,1.3053871],[103.85604,1.3053871],[103.85604,1.3054351],[103.8560096,1.3054351]]]}},{"type":"Feature","properties":{"type":"HDB"},"geometry":{"type":"Polygon","coordinates":[[[103.8564284,1.3060659],[103.8564571,1.3060954],[103.8566503,1.3059164],[103.8566224,1.3058834],[103.8566246,1.3058704],[103.8566295,1.3058659],[103.8566426,1.3058649],[103.8572001,1.3064753],[103.8572282,1.3064516],[103.8572358,1.3064518],[103.8572423,1.3064557],[103.8572462,1.3064624],[103.8572463,1.3064701],[103.8572426,1.3064768],[103.8572206,1.3064978],[103.8570348,1.3066697],[103.8569795,1.3066673],[103.8564284,1.3060659]]]}},{"type":"Feature","properties":{"type":"HDB"},"geometry":{"type":"Polygon","coordinates":[[[103.8553497,1.3069433],[103.8556086,1.3073446],[103.8553379,1.3075209],[103.8550797,1.3071204],[103.8553497,1.3069433]]]}},{"type":"Feature","properties":{"type":"LANDMARK"},"geometry":{"type":"Polygon","coordinates":[[[103.8514377,1.3057138],[103.8516243,1.3055901],[103.8516562,1.3056403],[103.8514694,1.3057637],[103.8514377,1.3057138]]]}},{"type":"Feature","properties":{"type":"LANDMARK"},"geometry":{"type":"Polygon","coordinates":[[[103.8514694,1.3057637],[103.8516562,1.3056403],[103.8516887,1.3056914],[103.8515008,1.305813],[103.8514694,1.3057637]]]}},{"type":"Feature","properties":{"type":"LANDMARK"},"geometry":{"type":"Polygon","coordinates":[[[103.8515008,1.305813],[103.8516887,1.3056914],[103.8517163,1.3057349],[103.8515293,1.305858],[103.8515008,1.305813]]]}},{"type":"Feature","properties":{"type":"LANDMARK"},"geometry":{"type":"Polygon","coordinates":[[[103.8515293,1.305858],[103.8517163,1.3057349],[103.8517438,1.3057782],[103.8515802,1.305886],[103.8515407,1.3058759],[103.8515293,1.305858]]]}},{"type":"Feature","properties":{"type":"LANDMARK"},"geometry":{"type":"Polygon","coordinates":[[[103.8538655,1.3072023],[103.8538668,1.3071886],[103.8538624,1.3071821],[103.8538534,1.3071884],[103.8538304,1.3071488],[103.8538407,1.3071414],[103.8538295,1.3071245],[103.8538272,1.3071261],[103.8538245,1.3071221],[103.8538268,1.3071205],[103.8538227,1.3071143],[103.8538191,1.307114],[103.8538214,1.3071125],[103.8538155,1.3071036],[103.8538131,1.3071051],[103.8538143,1.3071018],[103.8538052,1.3070932],[103.8538075,1.3070916],[103.8538037,1.3070859],[103.8538003,1.3070858],[103.8538026,1.3070842],[103.8537965,1.3070752],[103.8537942,1.3070768],[103.8537954,1.3070734],[103.8537912,1.3070672],[103.8537888,1.3070687],[103.8537862,1.3070649],[103.8538163,1.3070462],[103.8538143,1.3070433],[103.853833,1.3070307],[103.8538349,1.3070336],[103.8538619,1.3070153],[103.8539188,1.3071002],[103.8539488,1.3070799],[103.8539532,1.3070868],[103.8539958,1.3070579],[103.8539924,1.3070528],[103.8539987,1.3070484],[103.8540471,1.3071244],[103.8540489,1.3071232],[103.8540522,1.3071282],[103.8540507,1.3071295],[103.8540623,1.3071473],[103.8540641,1.307146],[103.854081,1.3071714],[103.8539094,1.3072871],[103.8538909,1.3072553],[103.8539045,1.3072457],[103.8538882,1.3072412],[103.8538655,1.3072023]]]}},{"type":"Feature","properties":{"type":"LANDMARK"},"geometry":{"type":"Polygon","coordinates":[[[103.853915,1.3072833],[103.8540743,1.3071759],[103.8541961,1.307359],[103.8541732,1.307415],[103.854004,1.3074498],[103.8539697,1.3074293],[103.8539367,1.3073205],[103.853915,1.3072833]]]}},{"type":"Feature","properties":{"type":"HDB"},"geometry":{"type":"Polygon","coordinates":[[[103.8518735,1.307879],[103.8518558,1.3079643],[103.8517713,1.3079445],[103.8515867,1.3076669],[103.8514096,1.3076325],[103.8513397,1.3076781],[103.8511899,1.3076456],[103.8510829,1.3074776],[103.8510979,1.3074016],[103.8511687,1.3073548],[103.8512159,1.3074277],[103.8512021,1.3074942],[103.8512141,1.3075231],[103.8513595,1.3075543],[103.8514314,1.3075067],[103.8516644,1.307556],[103.8518735,1.307879]]]}},{"type":"Feature","properties":{"type":"HDB"},"geometry":{"type":"Polygon","coordinates":[[[103.85522,1.3075941],[103.8552469,1.3076355],[103.8552609,1.3076261],[103.8552855,1.3076633],[103.8552458,1.3076904],[103.8552359,1.3076758],[103.8552185,1.3076877],[103.8552564,1.30774],[103.8553116,1.3077016],[103.8553647,1.3077836],[103.8553268,1.3078085],[103.8553338,1.3078199],[103.8552958,1.3078448],[103.8552707,1.3078069],[103.8552858,1.307797],[103.8552722,1.3077765],[103.8552334,1.307806],[103.8552641,1.3078503],[103.8551861,1.3079031],[103.8551595,1.3078632],[103.8551452,1.3078729],[103.8551213,1.3078371],[103.855161,1.3078103],[103.8551697,1.3078233],[103.855184,1.3078136],[103.8551543,1.3077691],[103.8550993,1.3078063],[103.8550449,1.3077248],[103.8550864,1.3076967],[103.855078,1.3076841],[103.855115,1.3076591],[103.8551427,1.3076996],[103.8551298,1.3077084],[103.8551428,1.3077278],[103.8551604,1.3077154],[103.8551587,1.307713],[103.8551804,1.307698],[103.8551433,1.3076444],[103.85522,1.3075941]]]}},{"type":"Feature","properties":{"type":"LANDMARK"},"geometry":{"type":"Polygon","coordinates":[[[103.8524586,1.3077962],[103.8524902,1.3078472],[103.8525155,1.3078314],[103.852534,1.30786],[103.8525081,1.3078754],[103.852562,1.3079664],[103.8524932,1.3080251],[103.8524696,1.3079811],[103.8524765,1.3079729],[103.8524621,1.3079522],[103.8523982,1.3079974],[103.8523922,1.3079887],[103.8523789,1.3079981],[103.8523813,1.3080016],[103.8523674,1.3080115],[103.8523701,1.3080154],[103.8523576,1.3080243],[103.8523523,1.3080168],[103.8523415,1.3080169],[103.8523432,1.3080157],[103.8523294,1.3079996],[103.8523338,1.3079965],[103.852315,1.3079649],[103.8523126,1.3079666],[103.8522953,1.3079463],[103.8522989,1.3079439],[103.8522981,1.3079321],[103.8523111,1.3079229],[103.8523128,1.3079253],[103.852326,1.307916],[103.8523282,1.3079192],[103.8523406,1.3079105],[103.8523355,1.3079032],[103.8523997,1.3078578],[103.8523883,1.3078415],[103.852331,1.307882],[103.8523163,1.3078609],[103.8524286,1.3077896],[103.8524586,1.3077962]]]}},{"type":"Feature","properties":{"type":"HDB"},"geometry":{"type":"Polygon","coordinates":[[[103.8550746,1.3080609],[103.8551118,1.3081159],[103.8551538,1.3080898],[103.8551406,1.3080697],[103.8551256,1.30808],[103.8550981,1.3080397],[103.8551358,1.308015],[103.8551444,1.3080284],[103.8551853,1.3080016],[103.8552383,1.3080816],[103.8551836,1.3081168],[103.8551864,1.308121],[103.8551882,1.3081199],[103.8551941,1.3081295],[103.8551923,1.3081306],[103.8552143,1.3081625],[103.8552295,1.3081526],[103.8552206,1.3081383],[103.8552587,1.308112],[103.8552835,1.3081494],[103.8552704,1.3081587],[103.8552974,1.3081999],[103.8552181,1.3082521],[103.8551876,1.308206],[103.855165,1.3082215],[103.8551636,1.3082192],[103.8551455,1.3082318],[103.8551596,1.3082524],[103.8551735,1.3082428],[103.8552011,1.3082824],[103.8551646,1.3083077],[103.8551555,1.3082941],[103.8551145,1.3083221],[103.8550621,1.3082444],[103.855119,1.3082057],[103.8551003,1.3081784],[103.8551025,1.3081769],[103.8550969,1.3081687],[103.8550995,1.3081669],[103.8550856,1.3081457],[103.8550647,1.3081598],[103.8550743,1.308175],[103.8550337,1.3082025],[103.8550082,1.3081644],[103.8550208,1.3081559],[103.8549939,1.3081155],[103.8550746,1.3080609]]]}},{"type":"Feature","properties":{"type":"HDB"},"geometry":{"type":"Polygon","coordinates":[[[103.8506047,1.3055791],[103.8506436,1.3056249],[103.8506596,1.305612],[103.8506685,1.3056242],[103.8506542,1.3056355],[103.8506676,1.3056536],[103.8506779,1.3056452],[103.8506806,1.3056483],[103.8506885,1.3056393],[103.8507149,1.3056446],[103.8507165,1.3056394],[103.8507338,1.3056428],[103.8507372,1.3056243],[103.8507733,1.3056303],[103.8507589,1.305708],[103.8508015,1.3057154],[103.8508006,1.3057202],[103.8507941,1.3057202],[103.8507909,1.3057333],[103.850812,1.3057369],[103.8508106,1.3057409],[103.8508618,1.3057499],[103.8508622,1.3057462],[103.850875,1.3057487],[103.8508815,1.30572],[103.8510039,1.3056964],[103.8510212,1.3057237],[103.851032,1.3057156],[103.8510347,1.3057183],[103.851078,1.3056911],[103.8510764,1.3056875],[103.8510887,1.3056793],[103.8510791,1.3056633],[103.8511107,1.3056429],[103.8511661,1.3057304],[103.8511082,1.3057208],[103.851186,1.3058461],[103.8511745,1.3058439],[103.851048,1.3059284],[103.8511305,1.3060467],[103.8510419,1.3061181],[103.8509773,1.306038],[103.8507373,1.3062281],[103.8508967,1.3064321],[103.8503902,1.3068377],[103.8503541,1.3067913],[103.8503323,1.3068076],[103.8503238,1.3067979],[103.8503317,1.3067628],[103.8503184,1.3067586],[103.8503178,1.3067631],[103.8502584,1.3067463],[103.8502527,1.3067716],[103.8502126,1.3067624],[103.8502324,1.3066891],[103.8501905,1.3066784],[103.8501972,1.3066499],[103.8501844,1.3066463],[103.8501837,1.3066499],[103.8501333,1.3066376],[103.850134,1.3066344],[103.8501196,1.3066315],[103.8501138,1.30666],[103.8500768,1.3066504],[103.850079,1.3066404],[103.8500171,1.3066241],[103.8500113,1.3065933],[103.8499963,1.3065949],[103.8499968,1.306599],[103.8499456,1.306607],[103.8499443,1.3066028],[103.8499239,1.306608],[103.8499279,1.3066317],[103.8499328,1.3066303],[103.8499346,1.3066423],[103.8499236,1.3066502],[103.8499064,1.3066471],[103.8498995,1.3066525],[103.8498804,1.3066187],[103.8499732,1.3065593],[103.8500925,1.3065825],[103.8500965,1.306564],[103.8504925,1.3062488],[103.8503903,1.3061274],[103.8503728,1.3060906],[103.8503705,1.3060771],[103.8503737,1.3060644],[103.8503,1.3059755],[103.8502576,1.3059726],[103.8502314,1.3059413],[103.8505984,1.3056297],[103.8506047,1.3055791]]]}},{"type":"Feature","properties":{"type":"HDB"},"geometry":{"type":"Polygon","coordinates":[[[103.8498974,1.3065753],[103.8497874,1.3063934],[103.8498034,1.3062855],[103.8499481,1.3061636],[103.8499546,1.3061704],[103.849957,1.3061541],[103.8499725,1.3061548],[103.8499954,1.3061357],[103.849997,1.3061213],[103.8500154,1.3061214],[103.8500335,1.3061058],[103.8500304,1.3061026],[103.8500344,1.3061001],[103.8500539,1.3061053],[103.8500593,1.3060841],[103.8501929,1.3061109],[103.850203,1.3061242],[103.8501947,1.3061676],[103.8501817,1.3061769],[103.8501678,1.3061744],[103.8501642,1.3061955],[103.8502256,1.3062073],[103.8503196,1.3061836],[103.8503903,1.3061274],[103.8504633,1.3062161],[103.8504297,1.3062432],[103.8504418,1.3062591],[103.8504297,1.3062695],[103.8504321,1.3062717],[103.8503924,1.3063039],[103.8503906,1.3063019],[103.8503781,1.3063121],[103.850359,1.3062882],[103.8502346,1.306316],[103.8502289,1.3063463],[103.8502144,1.3063432],[103.8502135,1.306347],[103.850163,1.3063383],[103.8501635,1.3063342],[103.8501428,1.3063304],[103.8501453,1.3063153],[103.8501509,1.3063151],[103.8501514,1.3063101],[103.8501126,1.306302],[103.8501259,1.3062272],[103.8500898,1.3062205],[103.8500864,1.3062397],[103.8500687,1.3062373],[103.8500682,1.3062402],[103.8500402,1.3062342],[103.8500285,1.306243],[103.8500258,1.3062392],[103.85002,1.3062442],[103.8500095,1.3062306],[103.8500106,1.3062263],[103.8500247,1.306215],[103.8500158,1.3062035],[103.8499976,1.3062193],[103.8500039,1.3062272],[103.8499913,1.3062379],[103.8500059,1.3062577],[103.8500025,1.3062611],[103.8500184,1.3062799],[103.850007,1.3062903],[103.8500099,1.3062937],[103.8499702,1.3063283],[103.8499668,1.3063243],[103.8499547,1.3063349],[103.8499431,1.3063182],[103.8499332,1.3063252],[103.8499119,1.3062995],[103.849904,1.3063059],[103.849913,1.3063174],[103.8499108,1.3063291],[103.84992,1.3063314],[103.8499188,1.3063368],[103.8499244,1.3063384],[103.8499152,1.3063865],[103.8499092,1.3063856],[103.8499087,1.3063913],[103.8498998,1.3063899],[103.8498971,1.3063997],[103.8498843,1.3064081],[103.8498892,1.3064166],[103.8499163,1.306399],[103.849939,1.3064328],[103.8499562,1.3064226],[103.8499643,1.3064359],[103.8499674,1.3064336],[103.8499961,1.3064795],[103.8499912,1.3064817],[103.8499995,1.3064962],[103.8499824,1.3065071],[103.849988,1.3065172],[103.8498974,1.3065753]]]}},{"type":"Feature","properties":{"type":"HDB"},"geometry":{"type":"Polygon","coordinates":[[[103.8498967,1.3066546],[103.8499064,1.3066471],[103.8499236,1.3066502],[103.8499346,1.3066423],[103.8499328,1.3066303],[103.8499279,1.3066317],[103.8499239,1.306608],[103.8499443,1.3066028],[103.8499456,1.306607],[103.8499968,1.306599],[103.8499963,1.3065949],[103.8500113,1.3065933],[103.8500171,1.3066241],[103.850079,1.3066404],[103.8500768,1.3066504],[103.8501138,1.30666],[103.8501196,1.3066315],[103.850134,1.3066344],[103.8501333,1.3066376],[103.8501837,1.3066499],[103.8501844,1.3066463],[103.8501972,1.3066499],[103.8501905,1.3066784],[103.8502324,1.3066891],[103.8502126,1.3067624],[103.8502527,1.3067716],[103.8502584,1.3067463],[103.8503178,1.3067631],[103.8503184,1.3067586],[103.8503317,1.3067628],[103.8503238,1.3067979],[103.8503323,1.3068076],[103.8503541,1.3067913],[103.8503902,1.3068377],[103.8503603,1.3068636],[103.8503491,1.3068609],[103.8503052,1.3068942],[103.8502792,1.3068886],[103.8502751,1.3069069],[103.8501395,1.306876],[103.8501341,1.3068663],[103.8501444,1.3068184],[103.8501577,1.3068088],[103.8501731,1.3068138],[103.8501765,1.3067934],[103.8499772,1.3067423],[103.8499366,1.3067691],[103.8498781,1.3066716],[103.8498851,1.3066659],[103.8498967,1.3066713],[103.8499043,1.3066657],[103.8498967,1.3066546]]]}},{"type":"Feature","properties":{"type":"LANDMARK"},"geometry":{"type":"Polygon","coordinates":[[[103.8509231,1.3071262],[103.850842,1.3070131],[103.8508765,1.3069854],[103.8508536,1.3069542],[103.850882,1.306933],[103.8509052,1.3069647],[103.8509407,1.3069383],[103.8510246,1.3070527],[103.851005,1.3070673],[103.8510504,1.3071292],[103.8509904,1.3071738],[103.8509437,1.3071112],[103.8509231,1.3071262]]]}},{"type":"Feature","properties":{"type":"LANDMARK"},"geometry":{"type":"Polygon","coordinates":[[[103.8508156,1.307079],[103.8509134,1.3072188],[103.8508764,1.307249],[103.8507819,1.3071059],[103.8508156,1.307079]]]}},{"type":"Feature","properties":{"type":"LANDMARK"},"geometry":{"type":"Polygon","coordinates":[[[103.8507819,1.3071059],[103.8508764,1.307249],[103.8508428,1.3072767],[103.8507475,1.3071337],[103.8507819,1.3071059]]]}},{"type":"Feature","properties":{"type":"LANDMARK"},"geometry":{"type":"Polygon","coordinates":[[[103.8468081,1.3007301],[103.8466519,1.3006563],[103.8467344,1.3004792],[103.8468427,1.3005303],[103.8468181,1.3005831],[103.8468328,1.30059],[103.846825,1.3006067],[103.8468583,1.3006224],[103.8468761,1.3006706],[103.8468554,1.3007151],[103.8468081,1.3007301]]]}},{"type":"Feature","properties":{"type":"LANDMARK"},"geometry":{"type":"Polygon","coordinates":[[[103.8474495,1.300828],[103.8472517,1.3007748],[103.8472757,1.3006868],[103.8473311,1.3007012],[103.8473361,1.3006811],[103.8474242,1.3007039],[103.8474185,1.3007249],[103.8474731,1.3007392],[103.8474495,1.300828]]]}},{"type":"Feature","properties":{"type":"LANDMARK"},"geometry":{"type":"Polygon","coordinates":[[[103.8467616,1.3014272],[103.8466839,1.3013223],[103.8468167,1.3012229],[103.8468942,1.3013281],[103.8467616,1.3014272]]]}},{"type":"Feature","properties":{"type":"LANDMARK"},"geometry":{"type":"Polygon","coordinates":[[[103.8469152,1.3018361],[103.8471886,1.3016405],[103.8471948,1.3016488],[103.8471976,1.3016467],[103.8472827,1.3017644],[103.847228,1.3018042],[103.8472178,1.3017901],[103.847157,1.3018342],[103.847186,1.3018743],[103.8471472,1.3019039],[103.8471432,1.3019054],[103.8471132,1.3018661],[103.8470533,1.3019097],[103.8470637,1.3019238],[103.8470091,1.3019634],[103.8469152,1.3018361]]]}},{"type":"Feature","properties":{"type":"LANDMARK"},"geometry":{"type":"Polygon","coordinates":[[[103.853406,1.3081617],[103.8534869,1.3081483],[103.853486,1.3081366],[103.8535198,1.3081318],[103.8535621,1.3083566],[103.8534339,1.3083821],[103.853402,1.3083432],[103.8533707,1.3081561],[103.8534042,1.3081526],[103.853406,1.3081617]]]}},{"type":"Feature","properties":{"type":"HDB"},"geometry":{"type":"Polygon","coordinates":[[[103.8525934,1.3086811],[103.85259,1.3086758],[103.8525858,1.3086785],[103.8525692,1.3086528],[103.8525597,1.3086589],[103.8525563,1.3086536],[103.8525544,1.3086549],[103.8525368,1.3086276],[103.8525432,1.3086234],[103.8525383,1.3086158],[103.85255,1.3086081],[103.8525417,1.3085953],[103.8525236,1.3086072],[103.852474,1.3085307],[103.8524537,1.308544],[103.8524395,1.308522],[103.8524576,1.3085101],[103.8524493,1.3084972],[103.8524376,1.308505],[103.8524327,1.3084974],[103.8524263,1.3085016],[103.8524086,1.3084743],[103.8524199,1.3084669],[103.8524008,1.3084374],[103.8524219,1.3084236],[103.8524194,1.3084198],[103.8524224,1.3084178],[103.8524267,1.3083976],[103.8524279,1.3084007],[103.8524436,1.3084041],[103.8524602,1.3084297],[103.8524986,1.3084046],[103.852482,1.3083788],[103.8524851,1.3083768],[103.8524894,1.3083566],[103.8524906,1.3083596],[103.8525064,1.308363],[103.8525088,1.3083666],[103.8525296,1.308353],[103.8525488,1.3083825],[103.85256,1.3083751],[103.8525777,1.3084024],[103.8525713,1.3084066],[103.8525762,1.3084141],[103.8525644,1.3084218],[103.8525728,1.3084347],[103.8525909,1.3084228],[103.8526051,1.3084448],[103.8525886,1.3084556],[103.8526023,1.3084769],[103.852637,1.3084541],[103.8526348,1.3084507],[103.8526393,1.3084478],[103.8526135,1.308408],[103.8526302,1.3083971],[103.8526219,1.3083842],[103.8526086,1.3083929],[103.8526037,1.3083853],[103.8526003,1.3083876],[103.8525834,1.3083598],[103.8525939,1.3083529],[103.8525753,1.3083241],[103.852619,1.3082955],[103.8526396,1.3083273],[103.8526351,1.3083303],[103.852641,1.3083394],[103.8526598,1.308327],[103.8527054,1.3083975],[103.8527137,1.308392],[103.8527113,1.3083883],[103.8527147,1.308386],[103.8526841,1.3083389],[103.8526969,1.3083305],[103.8526627,1.3082777],[103.8526846,1.3082633],[103.8526954,1.3082801],[103.8527082,1.3082717],[103.8526996,1.3082584],[103.8527071,1.3082534],[103.852705,1.30825],[103.8527321,1.3082323],[103.8527384,1.3082421],[103.8527686,1.3082224],[103.852799,1.3082693],[103.8527658,1.308291],[103.8527604,1.3082827],[103.8527506,1.3082891],[103.8527766,1.3083293],[103.8527864,1.3083228],[103.852781,1.3083145],[103.8528142,1.3082928],[103.8528445,1.3083397],[103.8528144,1.3083595],[103.8528208,1.3083693],[103.8527937,1.3083871],[103.8527914,1.3083837],[103.8527839,1.3083886],[103.8527753,1.3083753],[103.8527625,1.3083837],[103.8527733,1.3084004],[103.8527526,1.308414],[103.8527658,1.3084344],[103.8527865,1.3084209],[103.8527974,1.3084376],[103.8528102,1.3084292],[103.8528016,1.3084159],[103.8528091,1.308411],[103.8528069,1.3084075],[103.852834,1.3083898],[103.8528404,1.3083996],[103.8528705,1.3083799],[103.8529009,1.3084268],[103.8528678,1.3084485],[103.8528624,1.3084402],[103.8528526,1.3084466],[103.8528648,1.3084656],[103.8528776,1.3084572],[103.8529083,1.3085029],[103.8529049,1.3085051],[103.8529078,1.3085096],[103.8529112,1.3085074],[103.8529183,1.30852],[103.8529485,1.3085003],[103.8529828,1.3085533],[103.8529677,1.3085632],[103.8529763,1.3085766],[103.8529522,1.3085924],[103.8529426,1.3085774],[103.8528974,1.3086071],[103.8528925,1.3085995],[103.8528865,1.3086034],[103.8528786,1.3085913],[103.8528846,1.3085874],[103.8528797,1.3085798],[103.8528832,1.3085776],[103.8528782,1.30857],[103.852893,1.3085603],[103.8528847,1.3085475],[103.8528514,1.3085692],[103.852823,1.3085253],[103.8528185,1.3085283],[103.8528039,1.3085239],[103.8527288,1.308408],[103.8527172,1.3084156],[103.8527564,1.3084762],[103.8527545,1.3084774],[103.8527584,1.3084835],[103.8527415,1.3084946],[103.8527434,1.3084976],[103.852748,1.3084947],[103.8527685,1.3085265],[103.8527248,1.3085551],[103.8527096,1.3085316],[103.8527002,1.3085378],[103.8526968,1.3085325],[103.8526949,1.3085337],[103.8526773,1.3085065],[103.8526806,1.3085042],[103.8526757,1.3084967],[103.852689,1.308488],[103.8526807,1.3084751],[103.852664,1.308486],[103.8526539,1.3084705],[103.8526494,1.3084734],[103.8526472,1.30847],[103.8526126,1.3084927],[103.8526298,1.3085193],[103.8525921,1.3085439],[103.8526382,1.3086119],[103.8526163,1.3086262],[103.8526364,1.3086572],[103.8526323,1.3086599],[103.8526354,1.3086652],[103.8526214,1.3086746],[103.852618,1.3086693],[103.8526138,1.308672],[103.8526084,1.3086637],[103.8526043,1.3086664],[103.8526077,1.3086717],[103.8525934,1.3086811]]]}},{"type":"Feature","properties":{"type":"HDB"},"geometry":{"type":"Polygon","coordinates":[[[103.852708,1.3087506],[103.8527238,1.3087849],[103.8527033,1.3087983],[103.8527253,1.3088324],[103.8526439,1.3088857],[103.8526219,1.3088516],[103.8526181,1.3088541],[103.8525799,1.308795],[103.8525837,1.3087925],[103.8525616,1.3087584],[103.852643,1.3087051],[103.852665,1.3087392],[103.8526856,1.3087258],[103.8526888,1.3087285],[103.852708,1.3087506]]]}},{"type":"Feature","properties":{"type":"HDB"},"geometry":{"type":"Polygon","coordinates":[[[103.8521899,1.3086301],[103.8522107,1.308614],[103.8522375,1.308649],[103.8522229,1.3086604],[103.8522279,1.3086668],[103.8522175,1.3086748],[103.8522263,1.3086863],[103.8522377,1.3086774],[103.852253,1.3086975],[103.8522445,1.3087041],[103.8522599,1.3087241],[103.8522385,1.3087407],[103.8522621,1.3087715],[103.8522919,1.3087496],[103.8523056,1.3087674],[103.8522928,1.3087773],[103.8523076,1.3087967],[103.8523126,1.3087928],[103.8522984,1.3087758],[103.8523198,1.3087593],[103.8523597,1.3088098],[103.8523395,1.3088256],[103.8523386,1.3088325],[103.852335,1.3088321],[103.8523354,1.3088287],[103.8523177,1.3088425],[103.8523243,1.3088433],[103.8523239,1.3088461],[103.8523149,1.3088447],[103.8522987,1.3088572],[103.8523014,1.3088576],[103.852301,1.3088603],[103.8522957,1.3088596],[103.8522808,1.3088403],[103.8522623,1.3088546],[103.8522349,1.3088189],[103.8522223,1.3088172],[103.852219,1.308813],[103.8521958,1.3088309],[103.8521673,1.3087937],[103.8521908,1.3087755],[103.8521861,1.3087693],[103.8521914,1.3087652],[103.8521805,1.3087509],[103.8521769,1.3087537],[103.8521745,1.3087505],[103.8521081,1.308802],[103.8521106,1.3088052],[103.852107,1.3088079],[103.852115,1.3088183],[103.8521052,1.308826],[103.8521189,1.3088438],[103.8521061,1.3088538],[103.8521149,1.3088652],[103.8521252,1.3088572],[103.8521285,1.3088615],[103.852131,1.3088596],[103.8521963,1.3089447],[103.8521938,1.3089466],[103.8521971,1.3089509],[103.8521868,1.3089589],[103.8521956,1.3089704],[103.8522084,1.3089604],[103.8522521,1.3090189],[103.8522407,1.3090278],[103.8522496,1.3090393],[103.8522616,1.30903],[103.8522665,1.3090363],[103.8522822,1.3090241],[103.8523014,1.3090491],[103.8522737,1.3090707],[103.8522852,1.3090857],[103.852241,1.30912],[103.8522369,1.3091146],[103.8522348,1.3091163],[103.8522244,1.3091027],[103.8522265,1.309101],[103.8522213,1.3090942],[103.8522092,1.3091036],[103.852204,1.3090968],[103.8522018,1.3090985],[103.8521881,1.3090806],[103.8521902,1.3090789],[103.8521842,1.3090711],[103.8521821,1.3090727],[103.8521749,1.3090634],[103.8521771,1.3090618],[103.8521713,1.3090542],[103.8521651,1.3090557],[103.8521617,1.3090514],[103.8521651,1.3090488],[103.8520396,1.3088843],[103.8520358,1.3088872],[103.8520325,1.3088829],[103.8520363,1.30888],[103.8520306,1.3088726],[103.8520322,1.3088597],[103.8520458,1.3088492],[103.8520332,1.3088328],[103.8520186,1.3088441],[103.8520014,1.3088418],[103.8520011,1.3088445],[103.8519975,1.3088441],[103.852,1.3088246],[103.8519843,1.3088225],[103.851984,1.3088252],[103.8519804,1.3088248],[103.8519837,1.3087994],[103.8519809,1.3087957],[103.8519759,1.3087996],[103.8519671,1.3087881],[103.8519721,1.3087843],[103.8519677,1.3087786],[103.8520026,1.3087515],[103.8520139,1.3087661],[103.8520203,1.3087612],[103.8520282,1.3087715],[103.8520396,1.3087627],[103.8520303,1.3087505],[103.852068,1.3087212],[103.8520779,1.3087341],[103.8520893,1.3087253],[103.8520813,1.3087149],[103.8520856,1.3087116],[103.8520837,1.3087091],[103.8520955,1.3086999],[103.8520965,1.3086917],[103.8521001,1.3086921],[103.8520998,1.3086948],[103.8521123,1.3086964],[103.8521147,1.3086772],[103.8521183,1.3086777],[103.8521179,1.3086804],[103.8521296,1.3086819],[103.8521306,1.3086738],[103.8521342,1.3086743],[103.8521331,1.3086823],[103.8521415,1.3086927],[103.8521572,1.3086806],[103.8521454,1.3086652],[103.8521485,1.308641],[103.8521521,1.3086415],[103.8521518,1.3086441],[103.8521649,1.3086459],[103.8521677,1.3086245],[103.8521712,1.3086249],[103.8521709,1.3086276],[103.8521899,1.3086301]]]}},{"type":"Feature","properties":{"type":"HDB"},"geometry":{"type":"Polygon","coordinates":[[[103.8528698,1.3091625],[103.8528507,1.3091329],[103.8528394,1.3091403],[103.8528217,1.309113],[103.8528282,1.3091088],[103.8528233,1.3091013],[103.852835,1.3090936],[103.8528267,1.3090807],[103.8528085,1.3090926],[103.8527943,1.3090706],[103.8528147,1.3090573],[103.8527652,1.3089808],[103.8527833,1.3089689],[103.852775,1.308956],[103.8527632,1.3089637],[103.8527584,1.3089562],[103.852752,1.3089604],[103.8527343,1.3089331],[103.8527362,1.3089318],[103.8527328,1.3089266],[103.8527422,1.3089204],[103.8527255,1.3088947],[103.8527297,1.3088919],[103.8527262,1.3088866],[103.8527406,1.3088773],[103.852744,1.3088826],[103.8527481,1.3088798],[103.8527427,1.3088715],[103.8527469,1.3088688],[103.8527435,1.3088635],[103.8527577,1.3088544],[103.8527612,1.3088594],[103.8527653,1.3088567],[103.8527854,1.3088877],[103.8528073,1.3088734],[103.8528504,1.3089434],[103.8528881,1.3089187],[103.8529052,1.3089452],[103.8529399,1.3089225],[103.8529377,1.3089191],[103.8529422,1.3089161],[103.8529321,1.3089006],[103.8529488,1.3088897],[103.8529405,1.3088768],[103.8529272,1.3088855],[103.8529223,1.3088779],[103.8529189,1.3088801],[103.8529013,1.3088529],[103.8529032,1.3088517],[103.8528997,1.3088463],[103.8529091,1.3088402],[103.8528939,1.3088167],[103.8529376,1.3087881],[103.8529582,1.3088199],[103.8529537,1.3088229],[103.8529557,1.3088259],[103.8529727,1.3088148],[103.8529766,1.3088208],[103.8529784,1.3088196],[103.8530176,1.3088802],[103.8530293,1.3088726],[103.8529543,1.3087567],[103.8529563,1.3087414],[103.8529608,1.3087384],[103.8529324,1.3086945],[103.8529656,1.3086728],[103.8529573,1.3086599],[103.8529425,1.3086695],[103.8529376,1.308662],[103.8529342,1.3086642],[103.8529293,1.3086566],[103.8529233,1.3086606],[103.8529154,1.3086484],[103.8529215,1.3086445],[103.8529166,1.3086369],[103.8529618,1.3086073],[103.8529522,1.3085924],[103.8529763,1.3085766],[103.8529849,1.30859],[103.853,1.3085802],[103.8530343,1.3086332],[103.8530041,1.3086529],[103.8530127,1.3086645],[103.8530093,1.3086668],[103.8530123,1.3086713],[103.8530157,1.3086691],[103.8530448,1.3087158],[103.853032,1.3087242],[103.8530443,1.3087431],[103.8530541,1.3087367],[103.8530487,1.3087284],[103.8530818,1.3087067],[103.8531122,1.3087536],[103.853082,1.3087734],[103.8530884,1.3087832],[103.8530613,1.3088009],[103.8530591,1.3087975],[103.8530516,1.3088025],[103.8530429,1.3087891],[103.8530301,1.3087975],[103.8530409,1.3088143],[103.8530202,1.3088278],[103.8530335,1.3088483],[103.8530542,1.3088347],[103.853065,1.3088515],[103.8530778,1.3088431],[103.8530692,1.3088297],[103.8530767,1.3088248],[103.8530745,1.3088214],[103.8531017,1.3088036],[103.853108,1.3088135],[103.8531382,1.3087938],[103.8531685,1.3088407],[103.8531354,1.3088624],[103.85313,1.3088541],[103.8531202,1.3088605],[103.8531462,1.3089006],[103.853156,1.3088942],[103.8531506,1.3088859],[103.8531837,1.3088642],[103.8532141,1.3089111],[103.853184,1.3089309],[103.8531903,1.3089407],[103.8531632,1.3089585],[103.853161,1.3089551],[103.8531535,1.30896],[103.8531448,1.3089467],[103.853132,1.3089551],[103.8531429,1.3089718],[103.853121,1.3089861],[103.8530868,1.3089333],[103.853074,1.3089416],[103.8530435,1.3088945],[103.8530401,1.3088967],[103.8530377,1.3088929],[103.8530294,1.3088984],[103.8530749,1.3089688],[103.8530561,1.3089812],[103.853062,1.3089903],[103.8530665,1.3089873],[103.8530871,1.3090191],[103.8530434,1.3090477],[103.8530248,1.3090189],[103.8530142,1.3090258],[103.8529959,1.3089991],[103.8529992,1.3089968],[103.8529943,1.3089893],[103.8530076,1.3089806],[103.8529992,1.3089677],[103.8529826,1.3089786],[103.8529569,1.3089389],[103.8529523,1.3089418],[103.8529502,1.3089384],[103.8529155,1.3089611],[103.8529292,1.3089823],[103.8529458,1.3089715],[103.85296,1.3089934],[103.8529419,1.3090053],[103.8529502,1.3090182],[103.8529619,1.3090105],[103.8529668,1.3090181],[103.8529732,1.3090139],[103.8529909,1.3090411],[103.8529796,1.3090485],[103.8529987,1.3090781],[103.8529778,1.3090917],[103.8529802,1.3090953],[103.8529768,1.3091113],[103.8529791,1.3091137],[103.8529591,1.3091094],[103.8529559,1.3091115],[103.8529393,1.3090857],[103.8529008,1.3091109],[103.8529174,1.3091365],[103.8529141,1.3091524],[103.8529164,1.3091547],[103.8528964,1.3091504],[103.8528934,1.3091524],[103.8528909,1.3091486],[103.8528698,1.3091625]]]}},{"type":"Feature","properties":{"type":"HDB"},"geometry":{"type":"Polygon","coordinates":[[[103.8523077,1.3087455],[103.8524346,1.3086474],[103.8525484,1.3087965],[103.8525409,1.3088023],[103.8527347,1.309056],[103.8526152,1.3091483],[103.8525594,1.3090752],[103.8524425,1.3091655],[103.8522471,1.3089097],[103.852364,1.3088193],[103.8523077,1.3087455]]]}},{"type":"Feature","properties":{"type":"HDB"},"geometry":{"type":"Polygon","coordinates":[[[103.8524155,1.3093766],[103.8522899,1.3092122],[103.8522867,1.3092147],[103.8522834,1.3092103],[103.8522864,1.3092046],[103.8522807,1.3091971],[103.8522785,1.3091987],[103.8522675,1.3091799],[103.8522654,1.3091816],[103.8522517,1.3091636],[103.8522539,1.309162],[103.8522486,1.3091552],[103.8522608,1.3091458],[103.852243,1.309127],[103.8522452,1.3091254],[103.8522411,1.30912],[103.8522853,1.3090858],[103.8522968,1.3091009],[103.8523246,1.3090794],[103.8523437,1.3091045],[103.852328,1.3091167],[103.8523329,1.309123],[103.8523208,1.3091323],[103.8523296,1.3091439],[103.852341,1.3091351],[103.852386,1.3091926],[103.8523727,1.3092018],[103.852382,1.3092139],[103.8523923,1.309206],[103.8523956,1.3092103],[103.8523981,1.3092083],[103.8524632,1.3092936],[103.8524607,1.3092955],[103.852464,1.3092999],[103.8524537,1.3093078],[103.8524624,1.3093193],[103.8524753,1.3093094],[103.8524889,1.3093273],[103.8524988,1.3093197],[103.8525067,1.3093301],[103.8525102,1.3093274],[103.8525127,1.3093306],[103.8525792,1.3092792],[103.8525767,1.309276],[103.8525803,1.3092732],[103.8525694,1.309259],[103.8525641,1.3092631],[103.8525594,1.3092569],[103.8525358,1.3092751],[103.8525074,1.3092379],[103.8525302,1.3092202],[103.8525268,1.3092158],[103.8525286,1.3092025],[103.8524794,1.3091382],[103.8525001,1.3091222],[103.8525058,1.3091296],[103.8525087,1.3091284],[103.8525083,1.3091311],[103.8525246,1.3091186],[103.8525254,1.3091094],[103.8525283,1.3091098],[103.8525274,1.3091164],[103.8525452,1.3091027],[103.8525418,1.3091022],[103.8525423,1.3090987],[103.8525492,1.3090996],[103.8525674,1.3090855],[103.8525931,1.3091192],[103.8525688,1.309138],[103.8525836,1.3091573],[103.8525964,1.3091474],[103.8526107,1.309166],[103.8525814,1.3091886],[103.852605,1.3092194],[103.8526264,1.3092029],[103.8526417,1.3092229],[103.8526502,1.3092163],[103.8526656,1.3092364],[103.8526542,1.3092452],[103.8526629,1.3092567],[103.8526733,1.3092487],[103.8526782,1.3092551],[103.8526928,1.3092438],[103.8527196,1.309279],[103.8526989,1.309295],[103.8526964,1.3093141],[103.8526991,1.3093145],[103.8526986,1.3093181],[103.8526773,1.3093153],[103.8526756,1.3093285],[103.8526782,1.3093288],[103.8526778,1.3093324],[103.8526537,1.3093292],[103.8526387,1.3093096],[103.852623,1.3093217],[103.8526342,1.3093364],[103.8526322,1.3093521],[103.8526348,1.3093524],[103.8526343,1.309356],[103.8526153,1.3093536],[103.8526137,1.3093661],[103.8526163,1.3093664],[103.8526158,1.30937],[103.8526076,1.3093689],[103.8525957,1.3093781],[103.8525938,1.3093756],[103.8525895,1.3093789],[103.8525816,1.3093685],[103.8525702,1.3093773],[103.8525801,1.3093902],[103.8525423,1.3094194],[103.852533,1.3094072],[103.8525216,1.3094161],[103.8525295,1.3094264],[103.8525231,1.3094314],[103.8525343,1.3094461],[103.8524994,1.3094731],[103.852495,1.3094673],[103.85249,1.3094712],[103.8524812,1.3094597],[103.8524862,1.3094559],[103.8524835,1.3094523],[103.8524644,1.3094497],[103.8524641,1.3094524],[103.8524605,1.3094519],[103.8524634,1.3094299],[103.8524502,1.3094282],[103.8524499,1.3094309],[103.8524463,1.3094304],[103.8524494,1.3094068],[103.8524647,1.309395],[103.8524521,1.3093785],[103.8524378,1.3093896],[103.852424,1.3093878],[103.8524188,1.3093809],[103.8524156,1.3093834],[103.8524123,1.3093791],[103.8524155,1.3093766]]]}},{"type":"Feature","properties":{"type":"LANDMARK"},"geometry":{"type":"Polygon","coordinates":[[[103.8542487,1.3104038],[103.8543067,1.3104892],[103.8542725,1.310527],[103.8542046,1.3104406],[103.8542487,1.3104038]]]}},{"type":"Feature","properties":{"type":"LANDMARK"},"geometry":{"type":"Polygon","coordinates":[[[103.8540378,1.310527],[103.8541649,1.3106461],[103.8539911,1.3108383],[103.8538913,1.3106904],[103.854027,1.3105305],[103.8540378,1.310527]]]}},{"type":"Feature","properties":{"type":"HDB"},"geometry":{"type":"Polygon","coordinates":[[[103.8565358,1.3078948],[103.8565449,1.3079073],[103.8565065,1.3079315],[103.8564988,1.3079178],[103.8564578,1.3079452],[103.8564061,1.3078656],[103.8564569,1.3078309],[103.8564305,1.3077903],[103.8563793,1.3078246],[103.8563549,1.3077869],[103.8563676,1.3077784],[103.8563408,1.3077367],[103.8564442,1.3076675],[103.8564421,1.3076641],[103.8564809,1.3076384],[103.8564896,1.3076527],[103.8565308,1.3076256],[103.856628,1.3077746],[103.8566148,1.3077832],[103.8566401,1.3078242],[103.8565358,1.3078948]]]}}]}