{"type":"FeatureCollection","features":[{"type":"Feature","properties":{"type":"LANDMARK"},"geometry":{"type":"Polygon","coordinates":[[[103.8667547,1.4079047],[103.8666925,1.4078247],[103.8667296,1.4077955],[103.8666776,1.4077282],[103.8667306,1.4076864],[103.8667855,1.4077569],[103.8668483,1.4077078],[103.866891,1.407763],[103.8667852,1.4078461],[103.8668019,1.4078676],[103.8667547,1.4079047]]]}},{"type":"Feature","properties":{"type":"LANDMARK"},"geometry":{"type":"Polygon","coordinates":[[[103.8677342,1.4079158],[103.8677254,1.407818],[103.867818,1.4078097],[103.8678266,1.4079075],[103.8677342,1.4079158]]]}},{"type":"Feature","properties":{"type":"LANDMARK"},"geometry":{"type":"Polygon","coordinates":[[[103.8682591,1.4081121],[103.8681728,1.4080305],[103.8683778,1.4078249],[103.8684629,1.4079077],[103.868415,1.4079573],[103.8684428,1.4079876],[103.8683446,1.4080896],[103.8683097,1.4080572],[103.8682591,1.4081121]]]}},{"type":"Feature","properties":{"type":"LANDMARK"},"geometry":{"type":"Polygon","coordinates":[[[103.8677488,1.4080667],[103.8677359,1.4079161],[103.8678068,1.40791],[103.8678197,1.4080606],[103.8677488,1.4080667]]]}},{"type":"Feature","properties":{"type":"LANDMARK"},"geometry":{"type":"Polygon","coordinates":[[[103.8672949,1.4081064],[103.8672448,1.4080687],[103.8673004,1.4079936],[103.8672643,1.4079663],[103.8673125,1.4079014],[103.8674669,1.4080201],[103.8674267,1.4080795],[103.8673531,1.4080282],[103.8672949,1.4081064]]]}},{"type":"Feature","properties":{"type":"LANDMARK"},"geometry":{"type":"Polygon","coordinates":[[[103.8655556,1.4081273],[103.8654815,1.4081308],[103.8654747,1.407987],[103.865439,1.4079887],[103.8654356,1.4079157],[103.8655442,1.4079106],[103.8655473,1.4079799],[103.865578,1.4079786],[103.8655812,1.4080496],[103.8655521,1.4080511],[103.8655556,1.4081273]]]}},{"type":"Feature","properties":{"type":"LANDMARK"},"geometry":{"type":"Polygon","coordinates":[[[103.8659492,1.408065],[103.8659419,1.4079935],[103.865969,1.4079907],[103.8659652,1.4079528],[103.8660365,1.4079453],[103.866042,1.4079974],[103.8660621,1.4079952],[103.8660586,1.4079614],[103.8661108,1.407956],[103.8661212,1.408056],[103.866072,1.4080613],[103.8660689,1.408032],[103.866051,1.4080339],[103.8660613,1.4081327],[103.8659857,1.4081406],[103.8659775,1.4080621],[103.8659492,1.408065]]]}},{"type":"Feature","properties":{"type":"LANDMARK"},"geometry":{"type":"Polygon","coordinates":[[[103.8664594,1.40826],[103.8665364,1.4080083],[103.8666115,1.4080316],[103.8665766,1.4081455],[103.8666011,1.4081533],[103.8665808,1.4082201],[103.8665551,1.4082122],[103.8665335,1.4082829],[103.8664594,1.40826]]]}},{"type":"Feature","properties":{"type":"LANDMARK"},"geometry":{"type":"Polygon","coordinates":[[[103.8670208,1.4081207],[103.8668555,1.4083309],[103.8667909,1.4082795],[103.8668607,1.4081906],[103.866843,1.4081764],[103.8668884,1.4081187],[103.8669103,1.4081361],[103.8669603,1.4080725],[103.8670208,1.4081207]]]}},{"type":"Feature","properties":{"type":"LANDMARK"},"geometry":{"type":"Polygon","coordinates":[[[103.8677072,1.4083945],[103.8677364,1.408246],[103.8678336,1.4082645],[103.8678197,1.4083488],[103.8677927,1.4083435],[103.8677799,1.4084091],[103.8677072,1.4083945]]]}},{"type":"Feature","properties":{"type":"LANDMARK"},"geometry":{"type":"Polygon","coordinates":[[[103.8675076,1.4070503],[103.8676475,1.4070737],[103.867652,1.4070465],[103.8677156,1.4070573],[103.8676961,1.4071751],[103.86765,1.4071676],[103.8676422,1.4072145],[103.8675731,1.407203],[103.867584,1.4071365],[103.8674956,1.4071217],[103.8675076,1.4070503]]]}},{"type":"Feature","properties":{"type":"LANDMARK"},"geometry":{"type":"Polygon","coordinates":[[[103.8668214,1.4070791],[103.8669677,1.4071038],[103.8669522,1.4071967],[103.866873,1.4071834],[103.8668772,1.407158],[103.8668099,1.4071467],[103.8668214,1.4070791]]]}},{"type":"Feature","properties":{"type":"LANDMARK"},"geometry":{"type":"Polygon","coordinates":[[[103.8664498,1.4073096],[103.8664725,1.4071542],[103.8665453,1.4071649],[103.8665436,1.4071769],[103.8666747,1.4071963],[103.8666645,1.4072661],[103.8665179,1.4072445],[103.8665149,1.4072653],[103.8665602,1.407272],[103.8665524,1.4073249],[103.8664498,1.4073096]]]}},{"type":"Feature","properties":{"type":"LANDMARK"},"geometry":{"type":"Polygon","coordinates":[[[103.8678686,1.4075],[103.8679405,1.407407],[103.8679111,1.4073841],[103.8679437,1.4073422],[103.8679691,1.4073621],[103.8680197,1.4072969],[103.868081,1.4073448],[103.8679261,1.4075453],[103.8678686,1.4075]]]}},{"type":"Feature","properties":{"type":"LANDMARK"},"geometry":{"type":"Polygon","coordinates":[[[103.8674448,1.4075104],[103.8673934,1.4074644],[103.8675117,1.4073478],[103.8675725,1.4074021],[103.867532,1.4074484],[103.8675139,1.4074322],[103.8674448,1.4075104]]]}},{"type":"Feature","properties":{"type":"LANDMARK"},"geometry":{"type":"Polygon","coordinates":[[[103.8660132,1.4076287],[103.8659678,1.407571],[103.8660346,1.4075174],[103.8660117,1.4074882],[103.8660626,1.4074476],[103.8660804,1.4074702],[103.8661074,1.4074487],[103.8661551,1.4075093],[103.8661197,1.4075376],[103.8661309,1.4075518],[103.8661593,1.4075293],[103.8661902,1.4075689],[103.8661044,1.4076375],[103.8660771,1.4076029],[103.8661007,1.407584],[103.8660885,1.4075685],[103.8660132,1.4076287]]]}},{"type":"Feature","properties":{"type":"LANDMARK"},"geometry":{"type":"Polygon","coordinates":[[[103.8670519,1.4076573],[103.8670167,1.4075911],[103.8671005,1.4075458],[103.8670612,1.4074722],[103.8671164,1.4074426],[103.8671617,1.4075276],[103.8671983,1.4075078],[103.8672274,1.4075625],[103.8670519,1.4076573]]]}},{"type":"Feature","properties":{"type":"LANDMARK"},"geometry":{"type":"Polygon","coordinates":[[[103.865583,1.4077238],[103.8655112,1.4077264],[103.8655095,1.407679],[103.8654847,1.4076799],[103.8654857,1.4077088],[103.8654378,1.4077106],[103.8654339,1.4076062],[103.8654793,1.4076045],[103.8654805,1.4076397],[103.8655098,1.4076386],[103.865506,1.4075306],[103.8655759,1.4075282],[103.865583,1.4077238]]]}},{"type":"Feature","properties":{"type":"LANDMARK"},"geometry":{"type":"Polygon","coordinates":[[[103.872448,1.4111519],[103.8724062,1.4114693],[103.8722974,1.4114546],[103.8723392,1.4111373],[103.872448,1.4111519]]]}},{"type":"Feature","properties":{"type":"LANDMARK"},"geometry":{"type":"Polygon","coordinates":[[[103.8732311,1.4133922],[103.8735198,1.4131515],[103.8734997,1.4131297],[103.8734819,1.4131413],[103.8734269,1.4130689],[103.8734803,1.4130253],[103.8735376,1.4130946],[103.8735237,1.4131117],[103.8735415,1.4131375],[103.8738364,1.4129053],[103.8738558,1.4129201],[103.8738774,1.4129068],[103.8739138,1.4129551],[103.8738937,1.412977],[103.8739084,1.4129972],[103.873622,1.4132317],[103.8736429,1.4132559],[103.8736599,1.4132481],[103.8737149,1.4133182],[103.8736584,1.4133634],[103.8736026,1.4132925],[103.8736166,1.4132746],[103.8735949,1.4132496],[103.8733062,1.4134834],[103.8732845,1.4134654],[103.8732628,1.4134802],[103.8732257,1.4134319],[103.8732458,1.4134101],[103.8732311,1.4133922]]]}},{"type":"Feature","properties":{"type":"LANDMARK"},"geometry":{"type":"Polygon","coordinates":[[[103.8671567,1.4098586],[103.8670753,1.409699],[103.867092,1.4096906],[103.8670853,1.4096772],[103.8671332,1.4096532],[103.8671377,1.4096623],[103.8671706,1.4096457],[103.8672173,1.4097395],[103.8671937,1.4097515],[103.8672163,1.409797],[103.8671764,1.4098171],[103.8671889,1.4098424],[103.8671567,1.4098586]]]}},{"type":"Feature","properties":{"type":"LANDMARK"},"geometry":{"type":"Polygon","coordinates":[[[103.8677852,1.4100354],[103.8679586,1.4098499],[103.8680469,1.4099336],[103.867934,1.4100545],[103.8679552,1.4100747],[103.8678824,1.4101526],[103.8678596,1.4101313],[103.8677279,1.4102719],[103.8676388,1.4101876],[103.8677414,1.4100778],[103.8677852,1.4100354]]]}},{"type":"Feature","properties":{"type":"LANDMARK"},"geometry":{"type":"Polygon","coordinates":[[[103.8672579,1.4101501],[103.8672359,1.4099893],[103.8673183,1.4099787],[103.8673386,1.4101397],[103.8672579,1.4101501]]]}},{"type":"Feature","properties":{"type":"LANDMARK"},"geometry":{"type":"Polygon","coordinates":[[[103.8669503,1.4102461],[103.8668829,1.4102539],[103.8668834,1.4102582],[103.8668376,1.4102636],[103.8668283,1.4101838],[103.8668431,1.4101821],[103.8668331,1.410097],[103.8669315,1.4100853],[103.8669503,1.4102461]]]}},{"type":"Feature","properties":{"type":"LANDMARK"},"geometry":{"type":"Polygon","coordinates":[[[103.8672146,1.4104258],[103.8672534,1.4103286],[103.8673442,1.4103657],[103.8673071,1.4104578],[103.8672882,1.41045],[103.8672584,1.4105236],[103.8672086,1.4105031],[103.8672363,1.4104346],[103.8672146,1.4104258]]]}},{"type":"Feature","properties":{"type":"LANDMARK"},"geometry":{"type":"Polygon","coordinates":[[[103.8671969,1.4085811],[103.8673319,1.4083547],[103.8673984,1.4083951],[103.8673389,1.408495],[103.8673562,1.4085055],[103.8673207,1.4085649],[103.8673023,1.4085538],[103.8672624,1.4086207],[103.8671969,1.4085811]]]}},{"type":"Feature","properties":{"type":"LANDMARK"},"geometry":{"type":"Polygon","coordinates":[[[103.8659683,1.4085382],[103.8659662,1.4084458],[103.866036,1.408444],[103.8660383,1.4085403],[103.8660647,1.4085397],[103.8660636,1.4084916],[103.8661074,1.4084905],[103.8661104,1.4086184],[103.8660637,1.4086195],[103.8660627,1.4085799],[103.8660457,1.4085803],[103.8660468,1.4086305],[103.8659649,1.4086324],[103.8659641,1.4085991],[103.8659435,1.4085996],[103.8659421,1.4085389],[103.8659683,1.4085382]]]}},{"type":"Feature","properties":{"type":"LANDMARK"},"geometry":{"type":"Polygon","coordinates":[[[103.8663756,1.4084661],[103.8664475,1.4084645],[103.8664503,1.408598],[103.8664686,1.4085977],[103.8664696,1.4086484],[103.8664543,1.4086487],[103.8664561,1.4087341],[103.8663815,1.4087357],[103.8663756,1.4084661]]]}},{"type":"Feature","properties":{"type":"LANDMARK"},"geometry":{"type":"Polygon","coordinates":[[[103.867633,1.4087424],[103.8675623,1.4086885],[103.8676521,1.4085684],[103.8677263,1.4086248],[103.8676845,1.4086809],[103.8676589,1.4086613],[103.867638,1.4086895],[103.8676601,1.4087064],[103.867633,1.4087424]]]}},{"type":"Feature","properties":{"type":"LANDMARK"},"geometry":{"type":"Polygon","coordinates":[[[103.866841,1.408644],[103.866892,1.4085705],[103.8669497,1.4086111],[103.8668991,1.4086842],[103.8669656,1.408731],[103.8669218,1.4087946],[103.8668138,1.4087187],[103.8668023,1.4087352],[103.8667545,1.4087017],[103.8668095,1.408622],[103.866841,1.408644]]]}},{"type":"Feature","properties":{"type":"LANDMARK"},"geometry":{"type":"Polygon","coordinates":[[[103.8673037,1.4088771],[103.8673672,1.4088306],[103.8673857,1.408856],[103.8674535,1.4088063],[103.8674955,1.4088643],[103.8672833,1.4090195],[103.8672415,1.4089617],[103.8673222,1.4089027],[103.8673037,1.4088771]]]}},{"type":"Feature","properties":{"type":"LANDMARK"},"geometry":{"type":"Polygon","coordinates":[[[103.8660942,1.4088404],[103.8661108,1.4089292],[103.8662011,1.4089124],[103.8662117,1.4089707],[103.8661247,1.4089871],[103.8661341,1.4090376],[103.8660342,1.4090562],[103.8660225,1.4089925],[103.8660458,1.4089881],[103.8660203,1.4088553],[103.8660942,1.4088404]]]}},{"type":"Feature","properties":{"type":"LANDMARK"},"geometry":{"type":"Polygon","coordinates":[[[103.8667084,1.4089938],[103.8666924,1.4090161],[103.8667827,1.4090823],[103.8667407,1.4091405],[103.8665037,1.408967],[103.8665494,1.4089035],[103.8666385,1.4089688],[103.8666509,1.4089517],[103.8667084,1.4089938]]]}},{"type":"Feature","properties":{"type":"LANDMARK"},"geometry":{"type":"Polygon","coordinates":[[[103.8668825,1.4090736],[103.8669976,1.4090587],[103.8669951,1.409038],[103.8670618,1.4090295],[103.8670647,1.4090515],[103.8671452,1.4090412],[103.8671586,1.4091495],[103.8671078,1.409156],[103.8671034,1.4091219],[103.8668926,1.4091514],[103.8668825,1.4090736]]]}},{"type":"Feature","properties":{"type":"LANDMARK"},"geometry":{"type":"Polygon","coordinates":[[[103.8679162,1.4093768],[103.8679053,1.4093876],[103.8680891,1.4092141],[103.8681574,1.4092876],[103.8678906,1.4095388],[103.8678225,1.4094657],[103.8679162,1.4093768]]]}}]}