{"type":"FeatureCollection","features":[{"type":"Feature","properties":{"type":"LANDMARK"},"geometry":{"type":"Polygon","coordinates":[[[103.8427245,1.2884526],[103.8425326,1.2885688],[103.8425006,1.2885321],[103.8426977,1.2884242],[103.8427245,1.2884526]]]}},{"type":"Feature","properties":{"type":"LANDMARK"},"geometry":{"type":"Polygon","coordinates":[[[103.8427565,1.2884867],[103.8425655,1.2886064],[103.8425326,1.2885688],[103.8427245,1.2884526],[103.8427565,1.2884867]]]}},{"type":"Feature","properties":{"type":"LANDMARK"},"geometry":{"type":"Polygon","coordinates":[[[103.8427932,1.2885257],[103.8425988,1.2886445],[103.8425655,1.2886064],[103.8427565,1.2884867],[103.8427932,1.2885257]]]}},{"type":"Feature","properties":{"type":"LANDMARK"},"geometry":{"type":"Polygon","coordinates":[[[103.8428287,1.2885634],[103.8426336,1.2886843],[103.8425988,1.2886445],[103.8427932,1.2885257],[103.8428287,1.2885634]]]}},{"type":"Feature","properties":{"type":"LANDMARK"},"geometry":{"type":"Polygon","coordinates":[[[103.8376936,1.2892818],[103.8372872,1.2893476],[103.8372566,1.2891053],[103.8376669,1.2890681],[103.8376721,1.2891533],[103.8376936,1.2892818]]]}},{"type":"Feature","properties":{"type":"LANDMARK"},"geometry":{"type":"Polygon","coordinates":[[[103.8354232,1.2909206],[103.8354626,1.2910561],[103.8354833,1.2910491],[103.8355596,1.2913121],[103.8352406,1.291407],[103.835124,1.2910088],[103.8354232,1.2909206]]]}}]}