{"type":"FeatureCollection","features":[{"type":"Feature","properties":{"type":"LANDMARK"},"geometry":{"type":"Polygon","coordinates":[[[103.8263311,1.2487896],[103.8262772,1.2487081],[103.826412,1.2486178],[103.8263828,1.2485737],[103.8264641,1.2485192],[103.8264943,1.2485649],[103.8266293,1.2484744],[103.8266834,1.2485561],[103.8263311,1.2487896]]]}},{"type":"Feature","properties":{"type":"LANDMARK"},"geometry":{"type":"Polygon","coordinates":[[[103.8240937,1.2496722],[103.8246671,1.2495673],[103.8246609,1.2495329],[103.8247301,1.2495203],[103.8247373,1.2495605],[103.8248196,1.2495454],[103.8248453,1.2496878],[103.8246003,1.2497326],[103.8246063,1.2497658],[103.8245422,1.2497775],[103.8245368,1.2497475],[103.8243082,1.2497893],[103.8243137,1.2498197],[103.8242146,1.2498378],[103.8242079,1.2498007],[103.8240751,1.249825],[103.8240532,1.2497041],[103.824098,1.249696],[103.8240937,1.2496722]]]}},{"type":"Feature","properties":{"type":"LANDMARK"},"geometry":{"type":"Polygon","coordinates":[[[103.8250353,1.2502122],[103.8250646,1.2501461],[103.8251558,1.250187],[103.8251173,1.2502739],[103.8251547,1.2502907],[103.8251286,1.2503496],[103.8250912,1.2503329],[103.825057,1.2504102],[103.8249659,1.2503693],[103.8250157,1.2502567],[103.8249566,1.2502303],[103.8249366,1.2502754],[103.8248892,1.2502541],[103.8249288,1.2501645],[103.8250353,1.2502122]]]}},{"type":"Feature","properties":{"type":"LANDMARK"},"geometry":{"type":"Polygon","coordinates":[[[103.8245219,1.2507509],[103.8245242,1.2507894],[103.824621,1.2507836],[103.8246269,1.250883],[103.8245379,1.2508956],[103.82454,1.2509316],[103.8244694,1.2509358],[103.8244673,1.2508998],[103.8243795,1.250905],[103.824374,1.2508109],[103.8244901,1.2507914],[103.8244865,1.2507292],[103.824438,1.2507335],[103.8244342,1.2506886],[103.8245197,1.2506811],[103.8245236,1.250726],[103.8245219,1.2507509]]]}},{"type":"Feature","properties":{"type":"LANDMARK"},"geometry":{"type":"Polygon","coordinates":[[[103.8219763,1.2509479],[103.822029,1.2509021],[103.8220428,1.2509182],[103.8221816,1.2507976],[103.8222598,1.2508888],[103.8221419,1.2509912],[103.8221532,1.2510042],[103.8220329,1.2511086],[103.8220217,1.2510955],[103.8219123,1.2511905],[103.8218142,1.251076],[103.8218928,1.2510078],[103.8219049,1.2510219],[103.8219617,1.2509726],[103.8218969,1.250897],[103.8218278,1.250957],[103.8217609,1.2508789],[103.8219247,1.2507367],[103.8219917,1.2508148],[103.8219174,1.2508792],[103.8219763,1.2509479]]]}},{"type":"Feature","properties":{"type":"LANDMARK"},"geometry":{"type":"Polygon","coordinates":[[[103.8227103,1.2511848],[103.8227051,1.2509784],[103.822933,1.2509725],[103.8229322,1.2509413],[103.8229749,1.2509401],[103.8229756,1.2509678],[103.823209,1.2509618],[103.8232143,1.2511712],[103.8227103,1.2511848]]]}},{"type":"Feature","properties":{"type":"LANDMARK"},"geometry":{"type":"Polygon","coordinates":[[[103.8233376,1.2510045],[103.8233914,1.250982],[103.8233994,1.2510013],[103.8234149,1.2509948],[103.8234428,1.2510626],[103.8233254,1.2511117],[103.8233351,1.2511352],[103.8232627,1.2511655],[103.8232429,1.2511174],[103.8233236,1.2510837],[103.8233066,1.2510426],[103.8233465,1.251026],[103.8233376,1.2510045]]]}},{"type":"Feature","properties":{"type":"LANDMARK"},"geometry":{"type":"Polygon","coordinates":[[[103.8231236,1.2514748],[103.8230821,1.2513736],[103.8233808,1.2512316],[103.8234038,1.2512805],[103.8234221,1.2512719],[103.8234405,1.2513113],[103.8234208,1.2513214],[103.8234289,1.2513373],[103.8231236,1.2514748]]]}},{"type":"Feature","properties":{"type":"LANDMARK"},"geometry":{"type":"Polygon","coordinates":[[[103.8227326,1.2515286],[103.8230332,1.251395],[103.8230782,1.2514975],[103.8227811,1.2516295],[103.8227771,1.2516213],[103.8227605,1.2516294],[103.8227399,1.2515866],[103.8227565,1.2515785],[103.8227326,1.2515286]]]}},{"type":"Feature","properties":{"type":"LANDMARK"},"geometry":{"type":"Polygon","coordinates":[[[103.8210806,1.2520368],[103.8210002,1.2519407],[103.8211145,1.2518487],[103.8211032,1.2518346],[103.8212254,1.251735],[103.8212356,1.2517476],[103.8213475,1.2516564],[103.8214267,1.2517548],[103.8212853,1.25187],[103.8212957,1.2518823],[103.8212304,1.2519372],[103.8212191,1.2519251],[103.8210806,1.2520368]]]}},{"type":"Feature","properties":{"type":"LANDMARK"},"geometry":{"type":"Polygon","coordinates":[[[103.8205852,1.2522701],[103.820693,1.2521822],[103.8206834,1.2521704],[103.8208117,1.2520658],[103.8208238,1.2520808],[103.8209227,1.252],[103.8210041,1.2520986],[103.8208674,1.25221],[103.8208766,1.2522213],[103.8208115,1.2522744],[103.8208022,1.2522628],[103.8206704,1.2523703],[103.8205852,1.2522701]]]}},{"type":"Feature","properties":{"type":"LANDMARK"},"geometry":{"type":"Polygon","coordinates":[[[103.8234328,1.2524527],[103.8231313,1.2524959],[103.8231151,1.2523777],[103.8233699,1.252341],[103.8233749,1.2523674],[103.8234202,1.2523614],[103.8234328,1.2524527]]]}},{"type":"Feature","properties":{"type":"LANDMARK"},"geometry":{"type":"Polygon","coordinates":[[[103.8226637,1.2525521],[103.8225373,1.2525572],[103.8225351,1.252494],[103.8226132,1.2524904],[103.8226129,1.2524963],[103.8226611,1.2524934],[103.8226637,1.2525521]]]}},{"type":"Feature","properties":{"type":"LANDMARK"},"geometry":{"type":"Polygon","coordinates":[[[103.8209147,1.2527929],[103.8208283,1.252693],[103.8209595,1.2525861],[103.8209519,1.2525766],[103.8210169,1.2525237],[103.8210256,1.2525345],[103.8211639,1.2524217],[103.8212451,1.2525226],[103.8211361,1.2526115],[103.8211551,1.252635],[103.8210338,1.2527339],[103.8210153,1.2527109],[103.8209147,1.2527929]]]}},{"type":"Feature","properties":{"type":"LANDMARK"},"geometry":{"type":"Polygon","coordinates":[[[103.8207506,1.2532074],[103.8208517,1.2533574],[103.8207101,1.2534565],[103.8206045,1.253312],[103.8207506,1.2532074]]]}},{"type":"Feature","properties":{"type":"LANDMARK"},"geometry":{"type":"Polygon","coordinates":[[[103.8205111,1.2531157],[103.8204796,1.2531365],[103.820398,1.2530362],[103.8205026,1.252951],[103.8204967,1.2529438],[103.8206007,1.252859],[103.8206075,1.2528674],[103.8207133,1.2527811],[103.8207933,1.2528875],[103.8207182,1.2529487],[103.8207358,1.2529704],[103.8207065,1.2529943],[103.8207186,1.2530093],[103.8206256,1.2530851],[103.8206129,1.2530693],[103.820585,1.253092],[103.8205676,1.2530704],[103.8205111,1.2531157]]]}},{"type":"Feature","properties":{"type":"LANDMARK"},"geometry":{"type":"Polygon","coordinates":[[[103.8192191,1.2531865],[103.8192934,1.2530394],[103.8196042,1.2531979],[103.819531,1.2533433],[103.8192191,1.2531865]]]}},{"type":"Feature","properties":{"type":"LANDMARK"},"geometry":{"type":"Polygon","coordinates":[[[103.819577,1.2533687],[103.8196513,1.2532199],[103.8199626,1.2533763],[103.8198874,1.2535237],[103.819577,1.2533687]]]}},{"type":"Feature","properties":{"type":"LANDMARK"},"geometry":{"type":"Polygon","coordinates":[[[103.8186452,1.2535241],[103.8186526,1.2533768],[103.8187014,1.2532589],[103.8188161,1.2531852],[103.8190015,1.2532319],[103.8190357,1.2533154],[103.8190064,1.2535413],[103.8188868,1.2536322],[103.8187282,1.2536052],[103.8186452,1.2535241]]]}},{"type":"Feature","properties":{"type":"LANDMARK"},"geometry":{"type":"Polygon","coordinates":[[[103.8199919,1.2535525],[103.8202137,1.2532256],[103.820365,1.253322],[103.8201378,1.2536544],[103.8199919,1.2535525]]]}},{"type":"Feature","properties":{"type":"LANDMARK"},"geometry":{"type":"Polygon","coordinates":[[[103.818318,1.253609],[103.8183872,1.2535724],[103.818422,1.2536389],[103.8184151,1.2536426],[103.8184652,1.2537386],[103.8183587,1.2537949],[103.8182436,1.2535746],[103.8182311,1.2535812],[103.8181689,1.2534621],[103.8182256,1.2534321],[103.818318,1.253609]]]}},{"type":"Feature","properties":{"type":"LANDMARK"},"geometry":{"type":"Polygon","coordinates":[[[103.8174755,1.2541853],[103.8179792,1.2539986],[103.8180292,1.2541349],[103.8180057,1.2541408],[103.8180145,1.2541705],[103.8179556,1.2541912],[103.8179468,1.2541616],[103.8178231,1.254209],[103.8178319,1.2542327],[103.8177759,1.2542594],[103.8177641,1.2542327],[103.8176346,1.2542772],[103.8176463,1.2543039],[103.8175845,1.2543306],[103.8175757,1.2543009],[103.8175256,1.2543187],[103.8174755,1.2541853]]]}},{"type":"Feature","properties":{"type":"LANDMARK"},"geometry":{"type":"Polygon","coordinates":[[[103.816826,1.25554],[103.8167319,1.2555139],[103.8167578,1.255442],[103.8167091,1.2554257],[103.8167448,1.2553341],[103.8167871,1.2553439],[103.8168033,1.2552917],[103.8169072,1.2553276],[103.816826,1.25554]]]}},{"type":"Feature","properties":{"type":"LANDMARK"},"geometry":{"type":"Polygon","coordinates":[[[103.8171962,1.2555596],[103.8174267,1.2554877],[103.8174494,1.2555923],[103.8173845,1.2556152],[103.817391,1.2556446],[103.8173131,1.2556675],[103.8173033,1.2556381],[103.8172287,1.255661],[103.8171962,1.2555596]]]}}]}