{"type":"FeatureCollection","features":[{"type":"Feature","properties":{"type":"LANDMARK"},"geometry":{"type":"Polygon","coordinates":[[[103.8068388,1.3016002],[103.806819,1.3016002],[103.8068098,1.3014622],[103.8070729,1.3014697],[103.8070729,1.3015691],[103.8070018,1.3015677],[103.8070007,1.3016248],[103.8068388,1.3016216],[103.8068388,1.3016002]]]}},{"type":"Feature","properties":{"type":"LANDMARK"},"geometry":{"type":"Polygon","coordinates":[[[103.8059729,1.3017044],[103.8058442,1.3017002],[103.8058457,1.3016333],[103.80589,1.3016347],[103.805892,1.3015838],[103.8058676,1.3015825],[103.8058693,1.3015231],[103.8059734,1.3015258],[103.8059717,1.3015878],[103.8059582,1.3015881],[103.8059581,1.3015988],[103.8060039,1.3016003],[103.806003,1.3016277],[103.8059566,1.3016261],[103.8059562,1.3016375],[103.8059754,1.3016382],[103.8059729,1.3017044]]]}},{"type":"Feature","properties":{"type":"LANDMARK"},"geometry":{"type":"Polygon","coordinates":[[[103.8059059,1.3019772],[103.8059063,1.301974],[103.8058457,1.3019664],[103.8058461,1.3019631],[103.8058373,1.301962],[103.8058411,1.301931],[103.805822,1.3019286],[103.8058306,1.3018597],[103.8058235,1.3018588],[103.8058331,1.3017906],[103.8058892,1.3017977],[103.8058952,1.3017501],[103.8059729,1.30176],[103.8059581,1.3018786],[103.8059418,1.3018765],[103.8059404,1.3018877],[103.8059803,1.3018928],[103.805977,1.3019193],[103.805938,1.3019143],[103.8059298,1.3019802],[103.8059059,1.3019772]]]}},{"type":"Feature","properties":{"type":"LANDMARK"},"geometry":{"type":"Polygon","coordinates":[[[103.8046337,1.3020072],[103.8045421,1.3019729],[103.8045513,1.3019439],[103.8045633,1.3019504],[103.8045861,1.3018772],[103.8045676,1.3018717],[103.8045747,1.3018542],[103.8045904,1.3018591],[103.8046067,1.3018127],[103.8046241,1.3018181],[103.8046305,1.301798],[103.8046931,1.301816],[103.8046855,1.3018378],[103.8047051,1.3018466],[103.8046746,1.3019499],[103.804654,1.3019444],[103.8046513,1.3019576],[103.8046578,1.3019712],[103.8046507,1.3019909],[103.8046337,1.3020072]]]}},{"type":"Feature","properties":{"type":"LANDMARK"},"geometry":{"type":"Polygon","coordinates":[[[103.806811,1.3022977],[103.8068136,1.3022689],[103.8067833,1.3022682],[103.806791,1.3021915],[103.806759,1.3021865],[103.8067655,1.3021276],[103.8067967,1.3021276],[103.8068043,1.3020861],[103.8068305,1.3020861],[103.8068387,1.3020548],[103.8068747,1.3020581],[103.8068698,1.3020894],[103.806896,1.302096],[103.806878,1.3022756],[103.8068526,1.3022741],[103.80685,1.3023029],[103.806811,1.3022977]]]}},{"type":"Feature","properties":{"type":"LANDMARK"},"geometry":{"type":"Polygon","coordinates":[[[103.805774,1.3023233],[103.805757,1.3023558],[103.8056928,1.3023209],[103.8057088,1.3022901],[103.8056591,1.3022638],[103.8056927,1.3021994],[103.8056984,1.3022031],[103.8057291,1.3021464],[103.805756,1.3021606],[103.8057759,1.3021223],[103.8058353,1.3021537],[103.8058438,1.3021376],[103.8058689,1.3021509],[103.8058596,1.3021686],[103.8058622,1.30217],[103.8058303,1.3022312],[103.8058659,1.30225],[103.8058526,1.3022756],[103.8058176,1.3022571],[103.8058134,1.3022652],[103.8058207,1.3022691],[103.8058172,1.3022758],[103.8058194,1.302277],[103.8057906,1.3023321],[103.805774,1.3023233]]]}},{"type":"Feature","properties":{"type":"LANDMARK"},"geometry":{"type":"Polygon","coordinates":[[[103.8040637,1.3026356],[103.804062,1.3025824],[103.8040369,1.3025822],[103.8040353,1.3025354],[103.8040577,1.3025346],[103.8040549,1.3024716],[103.804187,1.302468],[103.8041917,1.3026252],[103.8041737,1.3026263],[103.804174,1.3026318],[103.8040637,1.3026356]]]}},{"type":"Feature","properties":{"type":"LANDMARK"},"geometry":{"type":"Polygon","coordinates":[[[103.8056041,1.3026844],[103.8055172,1.3026424],[103.8055317,1.3026117],[103.8055016,1.3025973],[103.8055314,1.3025342],[103.8055248,1.302531],[103.8055557,1.3024656],[103.8056063,1.3024899],[103.8056211,1.3024586],[103.8056879,1.3024906],[103.805673,1.3025223],[103.8056903,1.3025306],[103.80566,1.3025946],[103.8056485,1.3025891],[103.8056449,1.3025967],[103.8056799,1.3026135],[103.8056663,1.3026424],[103.8056318,1.3026259],[103.8056041,1.3026844]]]}},{"type":"Feature","properties":{"type":"LANDMARK"},"geometry":{"type":"Polygon","coordinates":[[[103.8053813,1.3030525],[103.805272,1.3029386],[103.8053746,1.3028316],[103.8053907,1.3028456],[103.8054139,1.3028212],[103.8054945,1.3029047],[103.8054563,1.3029447],[103.8054727,1.3029598],[103.8053813,1.3030525]]]}},{"type":"Feature","properties":{"type":"LANDMARK"},"geometry":{"type":"Polygon","coordinates":[[[103.8053532,1.3033509],[103.8052216,1.3033261],[103.8052365,1.3032426],[103.8052441,1.3032435],[103.8052536,1.3031922],[103.8052712,1.3031955],[103.8052769,1.303165],[103.8052804,1.3031657],[103.8052811,1.3031611],[103.8053696,1.3031782],[103.8053576,1.3032414],[103.8053974,1.3032489],[103.8053922,1.3032769],[103.8053525,1.3032693],[103.8053505,1.3032801],[103.8053658,1.3032831],[103.8053532,1.3033509]]]}},{"type":"Feature","properties":{"type":"LANDMARK"},"geometry":{"type":"Polygon","coordinates":[[[103.804699,1.3033829],[103.804702,1.303319],[103.8047165,1.3033197],[103.804717,1.3033103],[103.8046747,1.3033063],[103.8046761,1.3032771],[103.8047169,1.303279],[103.80472,1.3032147],[103.8047505,1.3032119],[103.8048202,1.3032153],[103.8048184,1.3032536],[103.8048318,1.3032542],[103.8048287,1.3033191],[103.804837,1.3033195],[103.8048337,1.3033894],[103.804699,1.3033829]]]}},{"type":"Feature","properties":{"type":"LANDMARK"},"geometry":{"type":"Polygon","coordinates":[[[103.8070077,1.3034977],[103.8069841,1.3035061],[103.8069579,1.3034932],[103.8069303,1.3035519],[103.8068484,1.3035116],[103.8068655,1.3034741],[103.806846,1.3034645],[103.806852,1.3034506],[103.8068731,1.3034583],[103.8068954,1.3034079],[103.8068754,1.3033989],[103.8068823,1.3033839],[103.8069033,1.3033938],[103.8069413,1.303312],[103.8069851,1.3033329],[103.8070032,1.3033196],[103.807024,1.3033304],[103.8070259,1.3033462],[103.8069958,1.3034107],[103.8070229,1.3034244],[103.8070304,1.3034494],[103.8070077,1.3034977]]]}},{"type":"Feature","properties":{"type":"LANDMARK"},"geometry":{"type":"Polygon","coordinates":[[[103.8046734,1.3036493],[103.8046584,1.3036483],[103.8046605,1.3036182],[103.8047012,1.3036211],[103.804702,1.3036103],[103.8046855,1.3036092],[103.8046915,1.3035416],[103.8048237,1.3035528],[103.804818,1.3036205],[103.8048105,1.3036202],[103.8048045,1.3036858],[103.8047865,1.3036836],[103.804785,1.303722],[103.8046933,1.303713],[103.8046734,1.3036493]]]}},{"type":"Feature","properties":{"type":"LANDMARK"},"geometry":{"type":"Polygon","coordinates":[[[103.8048492,1.3040457],[103.8047631,1.3040665],[103.8047549,1.3040323],[103.8047398,1.3040361],[103.8047253,1.3039676],[103.8047341,1.3039657],[103.8047322,1.3039555],[103.8046931,1.3039638],[103.8046868,1.3039371],[103.8047284,1.303927],[103.8047139,1.3038616],[103.8048022,1.3038412],[103.8048112,1.3038887],[103.8048464,1.3038804],[103.8048599,1.3039377],[103.8048644,1.3039362],[103.8048794,1.3040033],[103.804841,1.304012],[103.8048492,1.3040457]]]}},{"type":"Feature","properties":{"type":"LANDMARK"},"geometry":{"type":"Polygon","coordinates":[[[103.826049,1.2949227],[103.8259827,1.2948708],[103.8260001,1.2948481],[103.8259912,1.2948412],[103.82598,1.294855],[103.8259482,1.2948291],[103.8260099,1.294745],[103.826077,1.294797],[103.8261085,1.2947558],[103.8261515,1.2947892],[103.826049,1.2949227]]]}},{"type":"Feature","properties":{"type":"LANDMARK"},"geometry":{"type":"Polygon","coordinates":[[[103.8262285,1.2953154],[103.8261123,1.2952175],[103.8261061,1.2952249],[103.8260773,1.2952006],[103.8261027,1.29517],[103.8261003,1.2951679],[103.8261463,1.2951126],[103.8261222,1.2950923],[103.8261569,1.2950507],[103.8262029,1.2950895],[103.8262221,1.2950664],[103.8262747,1.2951108],[103.8262564,1.2951328],[103.8262707,1.2951448],[103.8262531,1.295166],[103.8262701,1.2951803],[103.826277,1.2951717],[103.826303,1.2951706],[103.8263195,1.2951829],[103.8263204,1.2952086],[103.8263083,1.2952242],[103.8262873,1.2952266],[103.8262596,1.2952598],[103.8262685,1.2952673],[103.8262285,1.2953154]]]}},{"type":"Feature","properties":{"type":"LANDMARK"},"geometry":{"type":"Polygon","coordinates":[[[103.822446,1.2956809],[103.822453,1.2956256],[103.8224326,1.2956232],[103.8224106,1.295596],[103.8224156,1.2955588],[103.8224435,1.2955363],[103.8224894,1.2955422],[103.8224961,1.2954956],[103.8225024,1.2954965],[103.8225034,1.2954882],[103.8225805,1.2954986],[103.8225727,1.2955583],[103.822585,1.2955615],[103.8225806,1.2955844],[103.8225493,1.2955803],[103.8225355,1.2956923],[103.822446,1.2956809]]]}},{"type":"Feature","properties":{"type":"LANDMARK"},"geometry":{"type":"Polygon","coordinates":[[[103.8249708,1.2956175],[103.8249046,1.2957112],[103.8247854,1.2956259],[103.8247827,1.295618],[103.8247846,1.2956052],[103.8248086,1.2955731],[103.8248318,1.2955705],[103.8248599,1.2955324],[103.8249708,1.2956175]]]}},{"type":"Feature","properties":{"type":"LANDMARK"},"geometry":{"type":"Polygon","coordinates":[[[103.8203615,1.2986164],[103.8202612,1.2986332],[103.8202627,1.2986405],[103.8202418,1.298644],[103.8202391,1.2986271],[103.820249,1.2986256],[103.8202315,1.2985192],[103.8202235,1.2985204],[103.82022,1.2984993],[103.8202402,1.2984954],[103.8202414,1.2985089],[103.820296,1.2985],[103.8202856,1.2984444],[103.8202776,1.2984463],[103.820273,1.2984232],[103.8202982,1.2984186],[103.8203001,1.2984282],[103.8203317,1.298424],[103.8203302,1.2984144],[103.8203568,1.2984111],[103.82036,1.2984317],[103.8203508,1.2984332],[103.8203569,1.2984743],[103.8203653,1.298472],[103.8203691,1.2984927],[103.8203615,1.2984935],[103.8203817,1.2986196],[103.8203627,1.2986236],[103.8203615,1.2986164]]]}},{"type":"Feature","properties":{"type":"LANDMARK"},"geometry":{"type":"Polygon","coordinates":[[[103.8173335,1.2987376],[103.8172954,1.2987459],[103.8172936,1.298736],[103.8172782,1.298739],[103.8172766,1.2987284],[103.8172688,1.2987296],[103.8172629,1.298703],[103.8172711,1.2987012],[103.8172684,1.2986863],[103.8172545,1.2986893],[103.81725,1.2986605],[103.8172848,1.2986453],[103.8172821,1.2986288],[103.8173823,1.2986085],[103.8173956,1.2986741],[103.8173858,1.2986758],[103.8173924,1.2987142],[103.8173323,1.2987262],[103.8173335,1.2987376]]]}},{"type":"Feature","properties":{"type":"LANDMARK"},"geometry":{"type":"Polygon","coordinates":[[[103.8200227,1.2987884],[103.8199722,1.2988032],[103.8199778,1.2988188],[103.8198936,1.2988442],[103.8198893,1.2988308],[103.8198684,1.2988374],[103.8198521,1.2987827],[103.819876,1.2987743],[103.8198732,1.2987658],[103.8199336,1.298746],[103.8199181,1.2986972],[103.8199925,1.2986739],[103.8200066,1.2987213],[103.820069,1.2987015],[103.8200726,1.2987142],[103.8201034,1.2987043],[103.8201196,1.2987594],[103.820088,1.2987679],[103.8200936,1.298782],[103.8200255,1.2988032],[103.8200227,1.2987884]]]}},{"type":"Feature","properties":{"type":"LANDMARK"},"geometry":{"type":"Polygon","coordinates":[[[103.8174547,1.2991265],[103.8174203,1.2991358],[103.8174172,1.2991262],[103.8174034,1.2991299],[103.8174,1.2991182],[103.8173948,1.2991206],[103.8173853,1.2990934],[103.8173914,1.2990919],[103.8173773,1.2990464],[103.8174097,1.2990337],[103.8174044,1.2990105],[103.8174947,1.2989789],[103.8175178,1.2990544],[103.8175064,1.2990588],[103.8175172,1.299096],[103.8174529,1.2991141],[103.8174547,1.2991265]]]}},{"type":"Feature","properties":{"type":"LANDMARK"},"geometry":{"type":"Polygon","coordinates":[[[103.821532,1.2958802],[103.8215742,1.2956918],[103.8216629,1.2957107],[103.8216582,1.2957358],[103.8216792,1.2957401],[103.8216753,1.2957593],[103.8217064,1.2957655],[103.8217166,1.2957875],[103.8217084,1.2958223],[103.8217126,1.2958431],[103.8216613,1.2958321],[103.8216441,1.2959041],[103.8216278,1.2959135],[103.8216161,1.2958979],[103.821532,1.2958802]]]}},{"type":"Feature","properties":{"type":"LANDMARK"},"geometry":{"type":"Polygon","coordinates":[[[103.8239256,1.2960975],[103.8238338,1.2959933],[103.8239152,1.2959214],[103.8239289,1.295937],[103.8239525,1.2959162],[103.8239769,1.2959442],[103.8239843,1.2959376],[103.8240147,1.2959724],[103.8240068,1.2959788],[103.824025,1.2960014],[103.8240227,1.2960033],[103.8240289,1.2960102],[103.8239256,1.2960975]]]}},{"type":"Feature","properties":{"type":"LANDMARK"},"geometry":{"type":"Polygon","coordinates":[[[103.825293,1.2961911],[103.8252131,1.2960547],[103.8253475,1.2959733],[103.8254087,1.2960738],[103.8254534,1.2960851],[103.8254392,1.2961422],[103.8253952,1.296131],[103.825293,1.2961911]]]}},{"type":"Feature","properties":{"type":"LANDMARK"},"geometry":{"type":"Polygon","coordinates":[[[103.8241825,1.2962342],[103.824099,1.2963047],[103.8240075,1.2961935],[103.8241155,1.296103],[103.8241376,1.29613],[103.8241463,1.2961253],[103.8241778,1.2961631],[103.8241711,1.2961698],[103.8241939,1.2961982],[103.8241725,1.2962178],[103.8241825,1.2962342]]]}},{"type":"Feature","properties":{"type":"LANDMARK"},"geometry":{"type":"Polygon","coordinates":[[[103.8235377,1.2964631],[103.8234195,1.2963306],[103.823499,1.2962576],[103.8235334,1.2962955],[103.8235761,1.2962563],[103.8236272,1.2963125],[103.8235839,1.2963523],[103.8236177,1.2963895],[103.8235377,1.2964631]]]}},{"type":"Feature","properties":{"type":"LANDMARK"},"geometry":{"type":"Polygon","coordinates":[[[103.8236451,1.2968476],[103.8235423,1.2968216],[103.8235437,1.2968162],[103.8235139,1.2968087],[103.8235214,1.2967787],[103.8235092,1.2967756],[103.8235202,1.2967316],[103.8235325,1.2967347],[103.8235413,1.2966991],[103.8235712,1.2967066],[103.8235755,1.296689],[103.8236781,1.2967149],[103.8236451,1.2968476]]]}},{"type":"Feature","properties":{"type":"LANDMARK"},"geometry":{"type":"Polygon","coordinates":[[[103.8234563,1.2974974],[103.8234829,1.2974571],[103.8234419,1.2974283],[103.8234922,1.2973543],[103.8235571,1.2974018],[103.8235517,1.2974063],[103.8235719,1.2974212],[103.8235755,1.2974135],[103.8235908,1.2974239],[103.8235841,1.2974294],[103.823625,1.2974565],[103.8236196,1.2974633],[103.8236493,1.2974848],[103.8235972,1.2975602],[103.8235423,1.297519],[103.8235284,1.2975421],[103.8234978,1.2975444],[103.8234672,1.2975227],[103.8234563,1.2974974]]]}},{"type":"Feature","properties":{"type":"LANDMARK"},"geometry":{"type":"Polygon","coordinates":[[[103.8234563,1.2974974],[103.8234829,1.2974571],[103.8234419,1.2974283],[103.8234922,1.2973543],[103.8235571,1.2974018],[103.8235517,1.2974063],[103.8235719,1.2974212],[103.8235755,1.2974135],[103.8235908,1.2974239],[103.8235841,1.2974294],[103.823625,1.2974565],[103.8236196,1.2974633],[103.8236493,1.2974848],[103.8235972,1.2975602],[103.8235423,1.297519],[103.8235284,1.2975421],[103.8234978,1.2975444],[103.8234672,1.2975227],[103.8234563,1.2974974]]]}},{"type":"Feature","properties":{"type":"LANDMARK"},"geometry":{"type":"Polygon","coordinates":[[[103.8274402,1.2976768],[103.8273177,1.2976714],[103.8273201,1.2976174],[103.8272431,1.2976141],[103.8272519,1.2974119],[103.8273526,1.2974164],[103.8273555,1.2973477],[103.8274299,1.2973509],[103.8274268,1.2974213],[103.8275273,1.2974257],[103.8275186,1.2976271],[103.8274425,1.2976238],[103.8274402,1.2976768]]]}},{"type":"Feature","properties":{"type":"LANDMARK"},"geometry":{"type":"Polygon","coordinates":[[[103.8226091,1.297591],[103.8224684,1.297568],[103.822467,1.2975739],[103.8224559,1.2975718],[103.822458,1.2975611],[103.8224649,1.2975618],[103.8224735,1.2975029],[103.8224652,1.2975022],[103.8224677,1.2974897],[103.8224815,1.2974915],[103.8224801,1.2974988],[103.8225298,1.2975055],[103.8225361,1.297466],[103.822532,1.2974654],[103.8225334,1.2974539],[103.8225506,1.2974577],[103.8225489,1.2974657],[103.822571,1.2974699],[103.8225724,1.2974605],[103.8225897,1.2974633],[103.8225883,1.2974727],[103.8225793,1.2974716],[103.8225732,1.2975136],[103.8226239,1.2975217],[103.8226246,1.2975169],[103.822634,1.2975183],[103.8226319,1.2975304],[103.8226243,1.2975287],[103.822615,1.2975868],[103.822625,1.2975879],[103.8226229,1.297599],[103.822608,1.2975969],[103.8226091,1.297591]]]}},{"type":"Feature","properties":{"type":"LANDMARK"},"geometry":{"type":"Polygon","coordinates":[[[103.8195787,1.2991692],[103.8195425,1.2991766],[103.8195453,1.2991912],[103.8194587,1.2992099],[103.8194504,1.2991784],[103.8194382,1.2991816],[103.8194127,1.2990842],[103.8194587,1.299072],[103.8194564,1.2990632],[103.8194747,1.2990584],[103.8194655,1.2990234],[103.8195083,1.299012],[103.8194894,1.2989396],[103.8195779,1.2989186],[103.8196064,1.2990272],[103.8196697,1.2990142],[103.8196719,1.2990254],[103.8197294,1.2990136],[103.8197484,1.2991077],[103.8196976,1.2991181],[103.8197014,1.2991367],[103.8196261,1.2991521],[103.8196302,1.2991728],[103.8195811,1.2991834],[103.8195787,1.2991692]]]}},{"type":"Feature","properties":{"type":"LANDMARK"},"geometry":{"type":"Polygon","coordinates":[[[103.8203953,1.2993717],[103.8202634,1.2993853],[103.8202625,1.2993769],[103.8201946,1.2993847],[103.820185,1.299299],[103.8202523,1.2992921],[103.8202515,1.2992845],[103.8202653,1.2992831],[103.8202616,1.2992297],[103.8203474,1.2992192],[103.8203525,1.2992721],[103.8203834,1.2992686],[103.8203953,1.2993717]]]}},{"type":"Feature","properties":{"type":"LANDMARK"},"geometry":{"type":"Polygon","coordinates":[[[103.8187201,1.299596],[103.8186812,1.29962],[103.8186757,1.2996101],[103.8186645,1.2996162],[103.8186689,1.2996242],[103.8186508,1.2996352],[103.8186439,1.2996211],[103.8186333,1.2996278],[103.8186166,1.2995939],[103.8186242,1.2995881],[103.8185916,1.2995258],[103.8186225,1.2995084],[103.8186182,1.299498],[103.8186858,1.2994611],[103.8187286,1.2995418],[103.8186992,1.2995576],[103.8187201,1.299596]]]}},{"type":"Feature","properties":{"type":"LANDMARK"},"geometry":{"type":"Polygon","coordinates":[[[103.8182084,1.2998594],[103.8181966,1.2998639],[103.8182013,1.2998754],[103.8181861,1.2998833],[103.8181814,1.2998744],[103.8181658,1.2998812],[103.818159,1.2998649],[103.8181486,1.2998707],[103.8181319,1.2998361],[103.8181418,1.2998313],[103.8181122,1.2997716],[103.8181543,1.2997495],[103.8181475,1.299738],[103.8182033,1.2997139],[103.8182471,1.299804],[103.8182216,1.2998156],[103.8182404,1.2998544],[103.8182133,1.2998686],[103.8182084,1.2998594]]]}},{"type":"Feature","properties":{"type":"LANDMARK"},"geometry":{"type":"Polygon","coordinates":[[[103.8177788,1.3000731],[103.817768,1.3000776],[103.8177492,1.3000372],[103.8177607,1.3000304],[103.8177301,1.2999723],[103.8177654,1.2999558],[103.8177612,1.299948],[103.8178243,1.299917],[103.8178687,1.3000085],[103.8178687,1.3000523],[103.8178322,1.3000733],[103.8178275,1.3000644],[103.8178186,1.3000697],[103.8178212,1.300076],[103.8177972,1.3000881],[103.8177941,1.3000833],[103.8177858,1.300087],[103.8177788,1.3000731]]]}},{"type":"Feature","properties":{"type":"LANDMARK"},"geometry":{"type":"Polygon","coordinates":[[[103.8186136,1.3004379],[103.818532,1.300325],[103.8185958,1.3002783],[103.8185726,1.3002461],[103.8186407,1.3001962],[103.818663,1.300227],[103.8187103,1.3001923],[103.8187924,1.300307],[103.8186136,1.3004379]]]}},{"type":"Feature","properties":{"type":"LANDMARK"},"geometry":{"type":"Polygon","coordinates":[[[103.8182074,1.3005995],[103.8181584,1.3005419],[103.8181249,1.3005701],[103.8180771,1.3005107],[103.8181127,1.3004827],[103.8180697,1.3004292],[103.8181452,1.3003686],[103.8181888,1.3004246],[103.8182156,1.3004061],[103.8182582,1.3004626],[103.818233,1.3004827],[103.8182808,1.3005392],[103.8182074,1.3005995]]]}},{"type":"Feature","properties":{"type":"LANDMARK"},"geometry":{"type":"Polygon","coordinates":[[[103.8205905,1.3008605],[103.8204458,1.3008514],[103.8204442,1.3008175],[103.8204271,1.3008304],[103.8203886,1.3008304],[103.8203736,1.3008078],[103.8203768,1.3007787],[103.8203961,1.3007572],[103.8204303,1.3007572],[103.820441,1.3007776],[103.8204527,1.3007787],[103.8204527,1.3007497],[103.8204666,1.3007486],[103.8204655,1.30074],[103.8204955,1.30074],[103.8204976,1.3007507],[103.8205137,1.3007529],[103.820515,1.3007065],[103.8205981,1.3007098],[103.820596,1.3007561],[103.8206174,1.3007561],[103.8206174,1.3007497],[103.8206366,1.3007486],[103.8206398,1.3007594],[103.8206569,1.3007583],[103.8206505,1.3008648],[103.8206291,1.3008616],[103.820627,1.3008993],[103.8205864,1.3008961],[103.8205905,1.3008605]]]}},{"type":"Feature","properties":{"type":"LANDMARK"},"geometry":{"type":"Polygon","coordinates":[[[103.8164076,1.307357],[103.816394,1.30734],[103.8163908,1.3073178],[103.8163965,1.3072974],[103.8164093,1.3072832],[103.8164256,1.3072707],[103.8164483,1.3072657],[103.8164689,1.3072685],[103.8164859,1.3072799],[103.8164955,1.3072971],[103.8164998,1.3073189],[103.8164966,1.3073407],[103.816483,1.3073579],[103.8164657,1.3073696],[103.8164455,1.3073725],[103.8164249,1.3073685],[103.8164076,1.307357]]]}},{"type":"Feature","properties":{"type":"LANDMARK"},"geometry":{"type":"Polygon","coordinates":[[[103.8178421,1.3088424],[103.8179832,1.3085628],[103.8180579,1.3085991],[103.8179238,1.3088813],[103.8178421,1.3088424]]]}},{"type":"Feature","properties":{"type":"LANDMARK"},"geometry":{"type":"Polygon","coordinates":[[[103.8206264,1.2991746],[103.8204978,1.2989926],[103.8205835,1.2989312],[103.8206153,1.2989762],[103.8206671,1.2989391],[103.8207292,1.299027],[103.8206789,1.299063],[103.8207137,1.2991121],[103.8206264,1.2991746]]]}},{"type":"Feature","properties":{"type":"LANDMARK"},"geometry":{"type":"Polygon","coordinates":[[[103.8210707,1.3008229],[103.8209584,1.3006969],[103.8210396,1.3006184],[103.8210432,1.300552],[103.8211243,1.3005562],[103.8211177,1.300627],[103.8211412,1.3006464],[103.8211572,1.3006453],[103.8211743,1.3006636],[103.8211743,1.3006894],[103.8211936,1.300711],[103.8210707,1.3008229]]]}},{"type":"Feature","properties":{"type":"LANDMARK"},"geometry":{"type":"Polygon","coordinates":[[[103.8215024,1.3030244],[103.8215216,1.3029948],[103.8214986,1.3029792],[103.8215495,1.3028987],[103.8216404,1.3029621],[103.8215885,1.3030443],[103.8215644,1.303026],[103.8215446,1.3030513],[103.8215024,1.3030244]]]}},{"type":"Feature","properties":{"type":"LANDMARK"},"geometry":{"type":"Polygon","coordinates":[[[103.8223927,1.310105],[103.8222958,1.3099209],[103.8224636,1.3098312],[103.8224916,1.3098859],[103.8225324,1.3098654],[103.8225581,1.3098736],[103.8225768,1.3099094],[103.8225698,1.3099376],[103.8225313,1.3099588],[103.8225593,1.3100152],[103.8223927,1.310105]]]}},{"type":"Feature","properties":{"type":"LANDMARK"},"geometry":{"type":"Polygon","coordinates":[[[103.8229784,1.3102942],[103.822906,1.3101847],[103.8229209,1.3101751],[103.8229224,1.3101658],[103.8229317,1.3101674],[103.8229842,1.3101331],[103.8230547,1.3102458],[103.8229784,1.3102942]]]}},{"type":"Feature","properties":{"type":"LANDMARK"},"geometry":{"type":"Polygon","coordinates":[[[103.8215901,1.3105227],[103.8215931,1.3103226],[103.8216691,1.3103227],[103.8216691,1.3102613],[103.8216728,1.3102519],[103.8216834,1.3102418],[103.8216996,1.3102324],[103.821717,1.3102306],[103.8217357,1.310235],[103.8217506,1.3102494],[103.8217556,1.3102638],[103.8217525,1.3103252],[103.8218371,1.3103321],[103.821826,1.3105263],[103.8215901,1.3105227]]]}},{"type":"Feature","properties":{"type":"LANDMARK"},"geometry":{"type":"Polygon","coordinates":[[[103.8225517,1.3105468],[103.8224425,1.3103948],[103.822543,1.3103229],[103.8226051,1.3104094],[103.8226017,1.3104135],[103.8226499,1.310479],[103.8225517,1.3105468]]]}},{"type":"Feature","properties":{"type":"LANDMARK"},"geometry":{"type":"Polygon","coordinates":[[[103.8207461,1.3113319],[103.820729,1.3113177],[103.8207229,1.3113286],[103.8206747,1.3112979],[103.8206829,1.3112863],[103.8206666,1.311274],[103.8206869,1.3112474],[103.8206836,1.311233],[103.8206951,1.3112132],[103.8207107,1.3112139],[103.8207256,1.311192],[103.820681,1.3111663],[103.8207116,1.3111152],[103.8207718,1.3111518],[103.8207799,1.3111408],[103.8208474,1.3111825],[103.8208321,1.3112084],[103.8208342,1.3112207],[103.8208213,1.3112399],[103.8208097,1.3112392],[103.8207894,1.3112692],[103.8207887,1.3112877],[103.8207772,1.3113054],[103.8207461,1.3113319]]]}},{"type":"Feature","properties":{"type":"LANDMARK"},"geometry":{"type":"Polygon","coordinates":[[[103.822314,1.3136007],[103.8225616,1.3134213],[103.8226326,1.3135133],[103.8225643,1.313563],[103.8225899,1.3135987],[103.8224871,1.3136733],[103.82247,1.3136493],[103.8223904,1.3137071],[103.822314,1.3136007]]]}},{"type":"Feature","properties":{"type":"LANDMARK"},"geometry":{"type":"Polygon","coordinates":[[[103.8220244,1.3151398],[103.822061,1.3150647],[103.8221115,1.3150896],[103.8221201,1.3150718],[103.8221489,1.3150859],[103.8221581,1.3150814],[103.8221852,1.3150811],[103.8222078,1.3150938],[103.8222201,1.315112],[103.8222224,1.3151222],[103.822317,1.3151688],[103.8222153,1.3153777],[103.8220885,1.3153152],[103.8221449,1.3151992],[103.8220244,1.3151398]]]}},{"type":"Feature","properties":{"type":"LANDMARK"},"geometry":{"type":"Polygon","coordinates":[[[103.8175309,1.3087833],[103.8175876,1.3086458],[103.8176919,1.308686],[103.8176365,1.3088222],[103.8175309,1.3087833]]]}},{"type":"Feature","properties":{"type":"LANDMARK"},"geometry":{"type":"Polygon","coordinates":[[[103.8162596,1.3104094],[103.8162479,1.3103947],[103.8162447,1.3103725],[103.8162504,1.3103521],[103.8162631,1.3103379],[103.8162795,1.3103254],[103.8163022,1.3103204],[103.8163228,1.3103232],[103.8163398,1.3103346],[103.8163494,1.3103518],[103.8163536,1.3103736],[103.8163504,1.3103954],[103.8163368,1.3104126],[103.8163196,1.3104243],[103.8162993,1.3104272],[103.8162788,1.3104232],[103.8162596,1.3104094]]]}},{"type":"Feature","properties":{"type":"LANDMARK"},"geometry":{"type":"Polygon","coordinates":[[[103.819004,1.3106521],[103.8190115,1.3106142],[103.8189482,1.3106],[103.8189306,1.3106676],[103.8188682,1.310654],[103.8189064,1.3104789],[103.8190203,1.3105025],[103.8190049,1.3105621],[103.8190792,1.3105768],[103.819077,1.3105888],[103.8191194,1.3105959],[103.8191066,1.3106515],[103.8190672,1.310644],[103.8190619,1.3106649],[103.819004,1.3106521]]]}},{"type":"Feature","properties":{"type":"LANDMARK"},"geometry":{"type":"Polygon","coordinates":[[[103.8190346,1.3115871],[103.8190072,1.3115746],[103.8190022,1.3115538],[103.8189766,1.3115429],[103.8189569,1.3115895],[103.8188958,1.3115627],[103.8189224,1.3115012],[103.8188876,1.3114872],[103.818928,1.3113926],[103.819155,1.3114903],[103.8191176,1.3115825],[103.8190644,1.3115587],[103.8190575,1.3115766],[103.8190346,1.3115871]]]}},{"type":"Feature","properties":{"type":"LANDMARK"},"geometry":{"type":"Polygon","coordinates":[[[103.8202234,1.3122425],[103.8202583,1.3121864],[103.8201626,1.312114],[103.8201916,1.3120731],[103.8202266,1.3120994],[103.8202389,1.3120835],[103.8202848,1.3121145],[103.8202786,1.3121234],[103.8202954,1.3121349],[103.8203324,1.3120835],[103.820469,1.3121811],[103.8203597,1.3123399],[103.8202234,1.3122425]]]}},{"type":"Feature","properties":{"type":"LANDMARK"},"geometry":{"type":"Polygon","coordinates":[[[103.8135988,1.3124727],[103.8135771,1.3123861],[103.8135479,1.312292],[103.8137764,1.312234],[103.813822,1.312416],[103.8135988,1.3124727]]]}},{"type":"Feature","properties":{"type":"LANDMARK"},"geometry":{"type":"Polygon","coordinates":[[[103.8154012,1.3151145],[103.8153246,1.315037],[103.8153855,1.3149761],[103.8154046,1.3149954],[103.815431,1.3149734],[103.8154671,1.3150105],[103.8154429,1.3150342],[103.8154621,1.3150536],[103.8154012,1.3151145]]]}},{"type":"Feature","properties":{"type":"LANDMARK"},"geometry":{"type":"Polygon","coordinates":[[[103.8203372,1.3163563],[103.820341,1.3163638],[103.8203351,1.3163674],[103.8203304,1.3163593],[103.8202704,1.3163453],[103.8202667,1.316359],[103.8202737,1.3163714],[103.8202709,1.3163863],[103.8202568,1.3163934],[103.8202535,1.3164077],[103.8202596,1.3164173],[103.8202536,1.3164207],[103.8202475,1.3164099],[103.8201877,1.3163946],[103.8201774,1.3164004],[103.8201741,1.3163952],[103.8201843,1.3163899],[103.82024,1.3161863],[103.8202349,1.3161781],[103.820241,1.3161745],[103.8202459,1.3161839],[103.8203073,1.3162003],[103.820317,1.3161947],[103.8203203,1.3162006],[103.8203107,1.3162059],[103.8202898,1.3162795],[103.8203488,1.3162942],[103.8203571,1.3162897],[103.8203607,1.316296],[103.8203528,1.3162997],[103.8203372,1.3163563]]]}},{"type":"Feature","properties":{"type":"LANDMARK"},"geometry":{"type":"Polygon","coordinates":[[[103.8173331,1.316508],[103.8172874,1.316576],[103.8171518,1.316486],[103.8171968,1.316419],[103.8172471,1.3164532],[103.8172733,1.3164142],[103.817312,1.3164405],[103.8172875,1.3164769],[103.8173331,1.316508]]]}},{"type":"Feature","properties":{"type":"LANDMARK"},"geometry":{"type":"Polygon","coordinates":[[[103.8196866,1.3167494],[103.8196864,1.3166922],[103.8196405,1.3166923],[103.8196403,1.3166186],[103.8196862,1.3166184],[103.8196862,1.3166051],[103.8197058,1.316605],[103.8197059,1.3166184],[103.8197338,1.3166183],[103.8197338,1.3166049],[103.8197787,1.3166048],[103.8197792,1.3167491],[103.8196866,1.3167494]]]}},{"type":"Feature","properties":{"type":"LANDMARK"},"geometry":{"type":"Polygon","coordinates":[[[103.8179201,1.3168457],[103.8179797,1.3168243],[103.8179738,1.3168117],[103.8179916,1.3168035],[103.8178471,1.3165354],[103.8178068,1.3165575],[103.8177924,1.3165496],[103.8177964,1.3165277],[103.8178318,1.3165075],[103.8177599,1.3163756],[103.8177275,1.3163935],[103.8177139,1.3163682],[103.8177472,1.3163498],[103.8176521,1.3161749],[103.8176989,1.3161491],[103.8177424,1.3162186],[103.817774,1.3161985],[103.8177347,1.3161356],[103.8177851,1.3161036],[103.8178462,1.3162113],[103.8178233,1.3162248],[103.8178691,1.3163036],[103.8179092,1.3162796],[103.8179461,1.3163455],[103.8179293,1.316355],[103.8180925,1.3166516],[103.8180805,1.3166588],[103.8181056,1.3167021],[103.8182954,1.3165892],[103.8183291,1.3166348],[103.8183466,1.3166879],[103.8180662,1.3168565],[103.8181951,1.3172224],[103.8181371,1.3172607],[103.8180705,1.3172694],[103.8179201,1.3168457]]]}},{"type":"Feature","properties":{"type":"LANDMARK"},"geometry":{"type":"Polygon","coordinates":[[[103.8167679,1.3176154],[103.8167476,1.3175397],[103.8168515,1.317512],[103.8168454,1.3174892],[103.8168608,1.3174602],[103.8168886,1.3174752],[103.8168931,1.3175029],[103.8169965,1.3174778],[103.8170125,1.3175511],[103.81691,1.3175789],[103.8169221,1.3176242],[103.816882,1.3176351],[103.8168694,1.3175879],[103.8167679,1.3176154]]]}},{"type":"Feature","properties":{"type":"LANDMARK"},"geometry":{"type":"Polygon","coordinates":[[[103.8161679,1.3179779],[103.8160912,1.3179145],[103.8161672,1.3178271],[103.8161582,1.3178191],[103.8161563,1.3177886],[103.8161733,1.317769],[103.8162037,1.3177669],[103.8162142,1.317774],[103.8163109,1.317663],[103.8163817,1.3177244],[103.8162965,1.3178252],[103.816333,1.3178566],[103.8162865,1.3179115],[103.8162503,1.3178805],[103.8161679,1.3179779]]]}},{"type":"Feature","properties":{"type":"HIGHER EDUCATIONAL INSTITUTION"},"geometry":{"type":"Polygon","coordinates":[[[103.8193003,1.3177339],[103.8196463,1.3185455],[103.8194436,1.318633],[103.8190975,1.3178213],[103.8193003,1.3177339]]]}},{"type":"Feature","properties":{"type":"HIGHER EDUCATIONAL INSTITUTION"},"geometry":{"type":"Polygon","coordinates":[[[103.8165565,1.3185317],[103.8167249,1.3183335],[103.8166963,1.3183091],[103.8166978,1.3182948],[103.8167491,1.318233],[103.8167677,1.3182316],[103.8167933,1.3182488],[103.8169916,1.3180206],[103.8171086,1.3181196],[103.8166721,1.3186307],[103.8165565,1.3185317]]]}},{"type":"Feature","properties":{"type":"HIGHER EDUCATIONAL INSTITUTION"},"geometry":{"type":"Polygon","coordinates":[[[103.8176692,1.3186724],[103.8171314,1.3182172],[103.8172327,1.3180967],[103.8174581,1.3182948],[103.8174766,1.3182718],[103.8174966,1.3182704],[103.8175536,1.3183206],[103.8175536,1.3183335],[103.8175337,1.3183623],[103.8177662,1.3185575],[103.8176692,1.3186724]]]}},{"type":"Feature","properties":{"type":"LANDMARK"},"geometry":{"type":"Polygon","coordinates":[[[103.8160156,1.3186159],[103.8160267,1.3185073],[103.8160026,1.3185035],[103.8159854,1.3184828],[103.816006,1.3184654],[103.8160293,1.3184678],[103.8160389,1.3183628],[103.81611,1.3183688],[103.8161014,1.3184743],[103.8161531,1.3184786],[103.81615,1.3185163],[103.8160986,1.318512],[103.8160893,1.3186252],[103.8160156,1.3186159]]]}},{"type":"Feature","properties":{"type":"HIGHER EDUCATIONAL INSTITUTION"},"geometry":{"type":"Polygon","coordinates":[[[103.8194986,1.3188466],[103.8189958,1.3190613],[103.818631,1.318196],[103.8191338,1.3179813],[103.8194986,1.3188466]]]}},{"type":"Feature","properties":{"type":"HIGHER EDUCATIONAL INSTITUTION"},"geometry":{"type":"Polygon","coordinates":[[[103.8166635,1.3186426],[103.817068,1.3181671],[103.8171314,1.3182162],[103.8176692,1.3186724],[103.8177376,1.3187335],[103.8173196,1.319225],[103.8166635,1.3186426]]]}},{"type":"Feature","properties":{"type":"HIGHER EDUCATIONAL INSTITUTION"},"geometry":{"type":"Polygon","coordinates":[[[103.8183672,1.3188677],[103.8182575,1.3190041],[103.8181411,1.3189079],[103.8181619,1.318887],[103.8178793,1.3186427],[103.8179716,1.3185256],[103.8183672,1.3188677]]]}},{"type":"Feature","properties":{"type":"LANDMARK"},"geometry":{"type":"Polygon","coordinates":[[[103.8042486,1.3047223],[103.8041921,1.3047283],[103.8041768,1.3046276],[103.8042357,1.3046186],[103.8042293,1.3045683],[103.8042678,1.3045631],[103.8042614,1.304487],[103.8043178,1.3044806],[103.8043101,1.3044444],[103.8042562,1.3044522],[103.8042447,1.3043941],[103.8043626,1.3043773],[103.8043798,1.3045132],[103.8043293,1.3045193],[103.8043575,1.304705],[103.8044165,1.304696],[103.8044229,1.3047631],[103.8042604,1.3047881],[103.8042486,1.3047223]]]}},{"type":"Feature","properties":{"type":"LANDMARK"},"geometry":{"type":"Polygon","coordinates":[[[103.8043386,1.3063845],[103.8042205,1.3063969],[103.8042141,1.3063245],[103.8043356,1.3063129],[103.8043364,1.306331],[103.8043536,1.3063295],[103.8043581,1.3063634],[103.8043401,1.3063649],[103.8043386,1.3063845]]]}},{"type":"Feature","properties":{"type":"LANDMARK"},"geometry":{"type":"Polygon","coordinates":[[[103.8054911,1.3064982],[103.8055015,1.3065032],[103.805523,1.3064586],[103.8054673,1.3064254],[103.8053766,1.3064467],[103.8053808,1.3064616],[103.8053433,1.3064726],[103.8053416,1.3064599],[103.8053082,1.3064692],[103.805304,1.3064522],[103.8052863,1.3064573],[103.8052736,1.3064199],[103.8054943,1.3063571],[103.80555,1.306393],[103.8056542,1.306363],[103.8056508,1.3063541],[103.8056665,1.3063495],[103.8056707,1.306366],[103.8056593,1.3063698],[103.8056816,1.3064476],[103.805693,1.3064442],[103.8056973,1.3064633],[103.8056808,1.3064679],[103.8056795,1.306459],[103.8055821,1.3064887],[103.8055593,1.3065312],[103.8055665,1.3065359],[103.8055589,1.3065499],[103.8055428,1.3065414],[103.8055462,1.3065363],[103.8054994,1.3065113],[103.805496,1.3065185],[103.8054833,1.3065121],[103.8054911,1.3064982]]]}},{"type":"Feature","properties":{"type":"LANDMARK"},"geometry":{"type":"Polygon","coordinates":[[[103.8049882,1.3070897],[103.8049468,1.3070141],[103.8049678,1.307001],[103.8049143,1.3069202],[103.8049898,1.3068695],[103.8050244,1.3069266],[103.805048,1.3069075],[103.8050908,1.3069763],[103.8050606,1.3069962],[103.8050842,1.3070279],[103.8049882,1.3070897]]]}},{"type":"Feature","properties":{"type":"LANDMARK"},"geometry":{"type":"Polygon","coordinates":[[[103.8068266,1.3075564],[103.8067661,1.3075475],[103.8067731,1.3074903],[103.8067168,1.3074805],[103.8067263,1.3074155],[103.806782,1.3074236],[103.8067903,1.3073673],[103.8068516,1.307375],[103.8068494,1.3073915],[103.8068635,1.3073932],[103.806861,1.3074158],[103.8068485,1.3074141],[103.8068438,1.3074426],[103.8068557,1.3074437],[103.806853,1.3074635],[103.8068391,1.3074615],[103.806838,1.3074719],[103.8068474,1.3074733],[103.8068455,1.3074964],[103.8068336,1.307495],[103.8068325,1.3075098],[103.8068447,1.3075101],[103.8068424,1.3075277],[103.8068308,1.3075266],[103.8068266,1.3075564]]]}},{"type":"Feature","properties":{"type":"LANDMARK"},"geometry":{"type":"Polygon","coordinates":[[[103.8072978,1.3075724],[103.8072679,1.3075365],[103.8072432,1.3075587],[103.8072503,1.307567],[103.8072017,1.3076103],[103.8071492,1.3075515],[103.8071608,1.3075413],[103.8071556,1.3075338],[103.8071908,1.3075021],[103.8071956,1.3075082],[103.8072305,1.3074784],[103.8072069,1.3074502],[103.8072537,1.3074097],[103.8072766,1.307435],[103.8073193,1.3073977],[103.8073125,1.3073894],[103.8073489,1.3073574],[103.8073537,1.3073634],[103.8073657,1.3073551],[103.8074177,1.3074153],[103.8073691,1.307458],[103.8073609,1.3074494],[103.8073271,1.3074795],[103.8073612,1.3075161],[103.8072978,1.3075724]]]}},{"type":"Feature","properties":{"type":"LANDMARK"},"geometry":{"type":"Polygon","coordinates":[[[103.8080023,1.307538],[103.8079988,1.3075455],[103.8079644,1.3075312],[103.8080143,1.3073868],[103.8080923,1.3074152],[103.80811,1.3073651],[103.808184,1.3073896],[103.8081686,1.3074402],[103.808247,1.3074692],[103.8082028,1.3076044],[103.8080023,1.307538]]]}},{"type":"Feature","properties":{"type":"LANDMARK"},"geometry":{"type":"Polygon","coordinates":[[[103.8059873,1.3078282],[103.8059603,1.3078506],[103.8059233,1.3078056],[103.8059188,1.3078093],[103.8058909,1.3077754],[103.8059179,1.3077529],[103.8059049,1.3077372],[103.8059312,1.3077153],[103.8059336,1.3077183],[103.8059805,1.3076793],[103.8059873,1.3076875],[103.8059967,1.3076797],[103.8060042,1.3076888],[103.8060153,1.3076796],[103.8060105,1.3076739],[103.8060449,1.3076453],[103.8060733,1.3076798],[103.8060675,1.3076847],[103.806105,1.3077302],[103.8060788,1.307752],[103.806109,1.3077887],[103.8060175,1.3078649],[103.8059873,1.3078282]]]}},{"type":"Feature","properties":{"type":"LANDMARK"},"geometry":{"type":"Polygon","coordinates":[[[103.8055128,1.3080361],[103.8054811,1.3080603],[103.8054013,1.3079516],[103.8054981,1.3078802],[103.8055808,1.3079853],[103.805548,1.3080095],[103.8055673,1.3080349],[103.8055315,1.3080614],[103.8055128,1.3080361]]]}},{"type":"Feature","properties":{"type":"LANDMARK"},"geometry":{"type":"Polygon","coordinates":[[[103.8053175,1.3084511],[103.8052365,1.3084125],[103.8052706,1.3083399],[103.8052778,1.3083434],[103.8052963,1.3083041],[103.8053807,1.3083443],[103.8053628,1.3083823],[103.8053788,1.30839],[103.805362,1.3084258],[103.8053353,1.3084131],[103.8053175,1.3084511]]]}},{"type":"Feature","properties":{"type":"LANDMARK"},"geometry":{"type":"Polygon","coordinates":[[[103.8036564,1.3075453],[103.8035618,1.3075414],[103.8035642,1.3074778],[103.803518,1.3074764],[103.8035233,1.3074145],[103.8035703,1.307416],[103.8035698,1.3073775],[103.8036679,1.3073812],[103.8036664,1.3074207],[103.8037271,1.3074238],[103.8037256,1.3074841],[103.803661,1.307481],[103.8036564,1.3075453]]]}},{"type":"Feature","properties":{"type":"LANDMARK"},"geometry":{"type":"Polygon","coordinates":[[[103.8061295,1.3090275],[103.8061522,1.3089959],[103.8061387,1.308986],[103.8061779,1.3089322],[103.8061713,1.3089275],[103.8061953,1.3088941],[103.8062325,1.3089216],[103.8062268,1.3089295],[103.8062416,1.3089403],[103.8062475,1.3089321],[103.8063107,1.3089782],[103.8063042,1.3089871],[103.8063152,1.3089951],[103.8063216,1.3089862],[103.8063578,1.3090126],[103.8063338,1.309046],[103.8063274,1.3090413],[103.8062928,1.3090894],[103.8062659,1.3090698],[103.8062389,1.3091073],[103.8061295,1.3090275]]]}},{"type":"Feature","properties":{"type":"LANDMARK"},"geometry":{"type":"Polygon","coordinates":[[[103.8047277,1.3096411],[103.8047063,1.3095899],[103.8046716,1.3096069],[103.8046802,1.3096248],[103.8046258,1.3096516],[103.8045789,1.3095602],[103.8045324,1.3095831],[103.8045046,1.3095259],[103.8046131,1.3094725],[103.8046151,1.3094766],[103.8046447,1.309462],[103.8046554,1.309484],[103.804677,1.3094734],[103.8046667,1.3094521],[103.8046962,1.3094376],[103.8046948,1.3094347],[103.8048022,1.3093818],[103.8048301,1.3094391],[103.8047819,1.3094628],[103.8048102,1.3095209],[103.8048075,1.3095222],[103.8048237,1.3095554],[103.804769,1.3095823],[103.8047598,1.3095635],[103.8047266,1.3095799],[103.804752,1.3096293],[103.8047277,1.3096411]]]}},{"type":"Feature","properties":{"type":"LANDMARK"},"geometry":{"type":"Polygon","coordinates":[[[103.8105531,1.3135527],[103.8106982,1.3135379],[103.8107035,1.3135912],[103.8107182,1.3136022],[103.8107212,1.3136324],[103.8107107,1.3136453],[103.8107153,1.3136886],[103.8107547,1.3136775],[103.8107532,1.3136727],[103.8108036,1.313657],[103.8108211,1.3137089],[103.8107685,1.313727],[103.810765,1.3137175],[103.8107142,1.3137363],[103.8107469,1.3137721],[103.8106894,1.3138262],[103.8106787,1.3138147],[103.8105587,1.3139275],[103.8105078,1.3138739],[103.8105997,1.3137853],[103.810587,1.3137706],[103.8105788,1.3137456],[103.8105657,1.3137304],[103.8105577,1.3137269],[103.8105687,1.313701],[103.8105821,1.3137069],[103.8105931,1.3137187],[103.8106213,1.3136921],[103.8106143,1.3136347],[103.8105627,1.313641],[103.8105531,1.3135527]]]}},{"type":"Feature","properties":{"type":"LANDMARK"},"geometry":{"type":"Polygon","coordinates":[[[103.8098345,1.3145178],[103.8099857,1.314374],[103.8100344,1.3144257],[103.8100425,1.314418],[103.8100961,1.3144748],[103.8100868,1.3144837],[103.8101339,1.3145337],[103.8100861,1.3145793],[103.8100889,1.3145822],[103.8100886,1.3146133],[103.810063,1.3146378],[103.8100307,1.314633],[103.8099825,1.3146791],[103.8099574,1.3146524],[103.8099192,1.3146889],[103.8098647,1.3146312],[103.8099051,1.3145926],[103.8098345,1.3145178]]]}},{"type":"Feature","properties":{"type":"HDB"},"geometry":{"type":"Polygon","coordinates":[[[103.8072009,1.316424],[103.8072727,1.3164446],[103.8072768,1.31643],[103.8072836,1.316432],[103.8072927,1.3164299],[103.8072981,1.3164361],[103.8073047,1.316438],[103.8073082,1.3164261],[103.8073411,1.3164355],[103.8073377,1.3164475],[103.8073444,1.3164494],[103.8073549,1.3164474],[103.8073587,1.3164535],[103.8073655,1.3164555],[103.8073614,1.3164701],[103.8074329,1.3164906],[103.8074089,1.3165759],[103.80735,1.316559],[103.8073393,1.3165966],[103.8073982,1.3166136],[103.8073742,1.3166988],[103.8073024,1.316678],[103.8072982,1.3166928],[103.8072914,1.3166909],[103.8072833,1.3166929],[103.8072769,1.3166866],[103.8072704,1.3166848],[103.8072671,1.3166965],[103.8072341,1.3166871],[103.8072374,1.3166753],[103.8072311,1.3166735],[103.8072274,1.316676],[103.8072206,1.3166754],[103.8072161,1.3166692],[103.8072095,1.3166672],[103.8072137,1.3166526],[103.8071416,1.316632],[103.8071659,1.3165469],[103.8072248,1.3165638],[103.8072355,1.3165261],[103.8071766,1.3165092],[103.8072009,1.316424]]]}},{"type":"Feature","properties":{"type":"HDB"},"geometry":{"type":"Polygon","coordinates":[[[103.8073723,1.3168091],[103.807376,1.3167949],[103.807386,1.3167843],[103.8074047,1.3167797],[103.8074223,1.3167877],[103.8074613,1.3167461],[103.8074802,1.3167642],[103.8074955,1.3167479],[103.807529,1.316724],[103.8075689,1.3167147],[103.8076094,1.3167216],[103.8076441,1.3167436],[103.8076679,1.3167772],[103.8076771,1.3168175],[103.8076702,1.3168582],[103.8076484,1.3168932],[103.8076271,1.3169158],[103.8076624,1.3169494],[103.8076485,1.3169642],[103.8076978,1.317011],[103.8076787,1.3170314],[103.807851,1.3171955],[103.8078576,1.3172141],[103.8078511,1.3172328],[103.8078393,1.3172418],[103.8078246,1.3172439],[103.8078107,1.3172386],[103.8078004,1.3172291],[103.8077674,1.3172643],[103.8073485,1.3168663],[103.8073815,1.3168311],[103.8073756,1.3168233],[103.8073723,1.3168091]]]}},{"type":"Feature","properties":{"type":"HDB"},"geometry":{"type":"Polygon","coordinates":[[[103.8077646,1.3169167],[103.8078918,1.3170583],[103.8078669,1.3170809],[103.8078828,1.3170987],[103.8079078,1.3170761],[103.8082887,1.3175],[103.8082638,1.3175228],[103.8082798,1.3175405],[103.8083047,1.3175178],[103.8084319,1.3176594],[103.808368,1.3177176],[103.808359,1.3177075],[103.8083613,1.3177054],[103.8083336,1.3176746],[103.8083196,1.3176874],[103.8083025,1.3176683],[103.8082877,1.3176581],[103.8082826,1.3176462],[103.808262,1.3176232],[103.808263,1.3176043],[103.8082671,1.3176006],[103.8082522,1.317584],[103.8082499,1.3175861],[103.8082157,1.317548],[103.808218,1.317546],[103.8082029,1.3175291],[103.8081988,1.3175329],[103.80818,1.317532],[103.8081598,1.3175095],[103.8081468,1.3175018],[103.8081391,1.3174865],[103.8081219,1.3174673],[103.8080966,1.3174903],[103.8080586,1.3174481],[103.8080839,1.3174251],[103.8080341,1.3173695],[103.8080201,1.317361],[103.808013,1.3173461],[103.8079065,1.3172275],[103.807892,1.317218],[103.8078856,1.3172042],[103.8077631,1.317068],[103.8077483,1.3170583],[103.8077428,1.3170453],[103.8077171,1.3170167],[103.807731,1.317004],[103.807712,1.3169827],[103.8077097,1.3169848],[103.8077007,1.3169748],[103.8077646,1.3169167]]]}},{"type":"Feature","properties":{"type":"LANDMARK"},"geometry":{"type":"Polygon","coordinates":[[[103.816303,1.3188767],[103.8162807,1.3188275],[103.8162994,1.3187335],[103.8163863,1.3187031],[103.8164359,1.3187161],[103.8164582,1.3187639],[103.8164436,1.3188543],[103.8163497,1.3188882],[103.816303,1.3188767]]]}},{"type":"Feature","properties":{"type":"LANDMARK"},"geometry":{"type":"Polygon","coordinates":[[[103.8156722,1.3189896],[103.8155519,1.3190209],[103.8154897,1.3187684],[103.8156087,1.3187385],[103.8156722,1.3189896]]]}},{"type":"Feature","properties":{"type":"LANDMARK"},"geometry":{"type":"Polygon","coordinates":[[[103.816186,1.3191082],[103.8161359,1.3190109],[103.8161178,1.3190193],[103.8160882,1.3190117],[103.816096,1.318981],[103.8161152,1.3189711],[103.8160665,1.3188747],[103.8161361,1.318839],[103.816185,1.3189358],[103.8162262,1.3189147],[103.8162461,1.3189539],[103.8162031,1.3189759],[103.8162526,1.3190737],[103.816186,1.3191082]]]}},{"type":"Feature","properties":{"type":"LANDMARK"},"geometry":{"type":"Polygon","coordinates":[[[103.8165193,1.318537],[103.8172795,1.3192],[103.8173999,1.3193109],[103.8171969,1.3195584],[103.817072,1.3194582],[103.8170817,1.319446],[103.8170475,1.3194186],[103.817106,1.3193448],[103.8171457,1.3193766],[103.817183,1.3193313],[103.816416,1.3186539],[103.8164354,1.3186312],[103.816408,1.3186073],[103.8164815,1.3185217],[103.8165106,1.3185471],[103.8165193,1.318537]]]}},{"type":"Feature","properties":{"type":"HIGHER EDUCATIONAL INSTITUTION"},"geometry":{"type":"Polygon","coordinates":[[[103.8193593,1.3191941],[103.8193072,1.3192002],[103.8192908,1.3191647],[103.8191087,1.3192428],[103.8190975,1.3192168],[103.8190879,1.3192209],[103.8190838,1.3192113],[103.8190698,1.3192108],[103.8190533,1.3192052],[103.8190368,1.3191921],[103.8190275,1.3191772],[103.8190231,1.3191602],[103.819025,1.3191392],[103.8190304,1.3191262],[103.8190414,1.3191124],[103.8190383,1.3191054],[103.8190484,1.319101],[103.8190387,1.3190785],[103.8192244,1.3189978],[103.8192278,1.3190058],[103.8194928,1.3188906],[103.8195572,1.3190407],[103.8193708,1.3191229],[103.8193869,1.3191625],[103.8193593,1.3191941]]]}},{"type":"Feature","properties":{"type":"HIGHER EDUCATIONAL INSTITUTION"},"geometry":{"type":"Polygon","coordinates":[[[103.8180477,1.3190098],[103.8178208,1.3188188],[103.8177875,1.3188589],[103.8177925,1.3188631],[103.8174867,1.3192211],[103.8174809,1.3192161],[103.8174426,1.3192642],[103.8176695,1.3194641],[103.8176471,1.3194892],[103.8174152,1.3192919],[103.8174085,1.3193011],[103.8173196,1.319225],[103.8177651,1.3187028],[103.817859,1.318779],[103.8178474,1.3187915],[103.8180718,1.3189822],[103.8180477,1.3190098]]]}},{"type":"Feature","properties":{"type":"HIGHER EDUCATIONAL INSTITUTION"},"geometry":{"type":"Polygon","coordinates":[[[103.8176695,1.3194641],[103.8174426,1.3192642],[103.8174809,1.3192161],[103.8174867,1.3192211],[103.8177925,1.3188631],[103.8177875,1.3188589],[103.8178208,1.3188188],[103.8180488,1.3190085],[103.8179702,1.3191029],[103.818032,1.3191555],[103.8178109,1.3194187],[103.8177479,1.3193661],[103.8176695,1.3194641]]]}},{"type":"Feature","properties":{"type":"HIGHER EDUCATIONAL INSTITUTION"},"geometry":{"type":"Polygon","coordinates":[[[103.8183198,1.3190967],[103.8181586,1.3192899],[103.8181444,1.3192814],[103.8179483,1.3195125],[103.8179574,1.3195209],[103.8177887,1.3197191],[103.8177197,1.3196823],[103.8176699,1.3196095],[103.8178028,1.3194518],[103.817792,1.3194435],[103.8180331,1.3191556],[103.8180513,1.3191706],[103.8181901,1.3189966],[103.8182699,1.31902],[103.8183198,1.3190967]]]}},{"type":"Feature","properties":{"type":"LANDMARK"},"geometry":{"type":"Polygon","coordinates":[[[103.8166259,1.3195286],[103.8166183,1.3195382],[103.8165966,1.3195207],[103.8166042,1.3195112],[103.8165832,1.3194938],[103.8165672,1.3195134],[103.8165338,1.3195199],[103.8165338,1.3194858],[103.8165492,1.3194664],[103.8165262,1.3194479],[103.8165155,1.3194613],[103.8164981,1.3194473],[103.8165088,1.3194339],[103.8164598,1.3193945],[103.8165105,1.3193337],[103.8165983,1.3194043],[103.8166259,1.3193695],[103.8166619,1.3193984],[103.8166342,1.3194332],[103.8167217,1.3195035],[103.8166723,1.3195659],[103.8166259,1.3195286]]]}},{"type":"Feature","properties":{"type":"HIGHER EDUCATIONAL INSTITUTION"},"geometry":{"type":"Polygon","coordinates":[[[103.8172571,1.3195189],[103.8173544,1.3194052],[103.8175887,1.3196059],[103.817671,1.3196837],[103.8175763,1.3197941],[103.8172571,1.3195189]]]}},{"type":"Feature","properties":{"type":"LANDMARK"},"geometry":{"type":"Polygon","coordinates":[[[103.8303387,1.2944837],[103.8303468,1.2944837],[103.8303468,1.294471],[103.8303558,1.2944701],[103.8303558,1.2944584],[103.8303621,1.2944566],[103.830364,1.294443],[103.830372,1.2944439],[103.830373,1.2944312],[103.8303793,1.2944312],[103.8303883,1.2944204],[103.830479,1.2944586],[103.8304618,1.2945392],[103.8304753,1.2945392],[103.8304579,1.2946669],[103.8304218,1.2947429],[103.8303451,1.2948361],[103.8303335,1.2948334],[103.8302865,1.2948976],[103.8302003,1.2948595],[103.8302012,1.2948422],[103.830194,1.2948377],[103.8302057,1.2948269],[103.8301986,1.2948223],[103.8302103,1.2948106],[103.8302031,1.2948069],[103.8302148,1.2947961],[103.8302076,1.2947915],[103.8302175,1.2947798],[103.8302086,1.2947752],[103.8302212,1.2947653],[103.8302122,1.2947589],[103.830223,1.2947481],[103.8302176,1.2947444],[103.8302275,1.2947336],[103.8302194,1.294729],[103.8302303,1.2947173],[103.830224,1.2947118],[103.8302348,1.2947001],[103.8302177,1.294691],[103.8302331,1.2946602],[103.8302133,1.2946511],[103.8302233,1.2946131],[103.8302485,1.2945733],[103.8302656,1.2945796],[103.830281,1.294547],[103.8302981,1.2945534],[103.830299,1.294538],[103.8303089,1.294538],[103.8303071,1.2945235],[103.8303179,1.2945208],[103.8303188,1.294509],[103.8303278,1.2945091],[103.8303279,1.2944946],[103.8303369,1.2944946],[103.8303387,1.2944837]]]}},{"type":"Feature","properties":{"type":"LANDMARK"},"geometry":{"type":"Polygon","coordinates":[[[103.8208846,1.316033],[103.8207799,1.3160778],[103.8207516,1.3160174],[103.8207047,1.3160379],[103.8206775,1.3159765],[103.820722,1.3159554],[103.8207054,1.3159174],[103.8207265,1.3159089],[103.8207168,1.3158881],[103.8207812,1.3158604],[103.8207865,1.315871],[103.8208084,1.3158612],[103.8208339,1.3159183],[103.8208598,1.3159061],[103.8208829,1.3159159],[103.8208906,1.3159346],[103.8208825,1.315962],[103.8208578,1.3159717],[103.8208846,1.316033]]]}},{"type":"Feature","properties":{"type":"LANDMARK"},"geometry":{"type":"Polygon","coordinates":[[[103.8215296,1.3183873],[103.8214357,1.3183714],[103.8214394,1.3183482],[103.8214199,1.3183451],[103.8214305,1.3182797],[103.82145,1.3182822],[103.8214588,1.318226],[103.8214395,1.3182222],[103.8214532,1.3181333],[103.8214762,1.3181362],[103.8214768,1.3181314],[103.8215682,1.3181462],[103.8215582,1.3182083],[103.8215992,1.3182151],[103.8215802,1.3183305],[103.8215402,1.3183235],[103.8215296,1.3183873]]]}},{"type":"Feature","properties":{"type":"HIGHER EDUCATIONAL INSTITUTION"},"geometry":{"type":"Polygon","coordinates":[[[103.8201278,1.3199228],[103.8204685,1.3207129],[103.8204554,1.3207186],[103.8201152,1.3199283],[103.8201278,1.3199228]]]}},{"type":"Feature","properties":{"type":"HIGHER EDUCATIONAL INSTITUTION"},"geometry":{"type":"Polygon","coordinates":[[[103.8197105,1.3210549],[103.8193623,1.3202233],[103.8193504,1.3201766],[103.8193445,1.3201289],[103.8193446,1.3200808],[103.8193507,1.320033],[103.8193709,1.3199639],[103.8194036,1.3198998],[103.8194319,1.319861],[103.8194648,1.3198261],[103.8195217,1.3197823],[103.8195858,1.31975],[103.8196547,1.3197304],[103.8197261,1.3197243],[103.8197973,1.3197318],[103.8198659,1.3197527],[103.8199293,1.3197862],[103.8199854,1.3198311],[103.8200176,1.3198666],[103.820045,1.3199057],[103.8204169,1.3207807],[103.8204268,1.320828],[103.8204308,1.3208758],[103.8204288,1.3209238],[103.8204208,1.3209711],[103.820398,1.3210393],[103.8203629,1.3211021],[103.8203168,1.321157],[103.8202807,1.3211884],[103.8202409,1.321215],[103.8201759,1.321245],[103.8201065,1.3212623],[103.8200351,1.3212661],[103.8199642,1.3212564],[103.8199185,1.3212426],[103.8198541,1.3212114],[103.8197966,1.3211686],[103.8197481,1.3211157],[103.8197105,1.3210549]],[[103.8194352,1.3202229],[103.8197809,1.3210383],[103.8198013,1.3210717],[103.8198396,1.3211166],[103.8198856,1.3211534],[103.8199376,1.3211809],[103.8199939,1.321198],[103.8200523,1.3212041],[103.8201109,1.3211991],[103.8201674,1.321183],[103.82022,1.3211565],[103.8202666,1.3211205],[103.8203057,1.3210764],[103.8203358,1.3210256],[103.8203559,1.32097],[103.8203633,1.3209312],[103.8203652,1.3208721],[103.8203604,1.320833],[103.8203505,1.3207946],[103.8200001,1.3199625],[103.8199648,1.3199149],[103.8199365,1.3198872],[103.8199049,1.3198633],[103.8198706,1.3198436],[103.8198341,1.3198285],[103.819796,1.319818],[103.8197569,1.3198125],[103.8197174,1.319812],[103.8196588,1.3198205],[103.8196029,1.3198401],[103.8195516,1.3198699],[103.8195068,1.3199089],[103.8194702,1.3199556],[103.8194429,1.3200085],[103.819426,1.3200656],[103.8194209,1.320105],[103.8194207,1.3201448],[103.8194254,1.3201842],[103.8194352,1.3202229]]]}},{"type":"Feature","properties":{"type":"HIGHER EDUCATIONAL INSTITUTION"},"geometry":{"type":"Polygon","coordinates":[[[103.8195005,1.3209808],[103.8192778,1.320448],[103.8193417,1.3204209],[103.8193354,1.3204058],[103.8193806,1.3203867],[103.8196165,1.3209511],[103.8195719,1.32097],[103.819565,1.3209535],[103.8195005,1.3209808]]]}}]}