{"type":"FeatureCollection","features":[{"type":"Feature","properties":{"type":"LANDMARK"},"geometry":{"type":"Polygon","coordinates":[[[103.6351962,1.346191],[103.6358244,1.3459489],[103.6358624,1.3460167],[103.6358881,1.3460902],[103.6358976,1.3461385],[103.6352684,1.3463787],[103.6352258,1.3462937],[103.6351962,1.346191]]]}},{"type":"Feature","properties":{"type":"LANDMARK"},"geometry":{"type":"Polygon","coordinates":[[[103.6359452,1.3487904],[103.6366934,1.3485034],[103.63669,1.3484945],[103.6366529,1.348509],[103.636636,1.3484653],[103.6366717,1.3484514],[103.6366611,1.348424],[103.6367026,1.3484078],[103.6367091,1.3484247],[103.6367279,1.3484174],[103.6367307,1.3484246],[103.6367659,1.3484109],[103.6367855,1.3484618],[103.6367482,1.3484763],[103.6367501,1.3484812],[103.6369123,1.3484192],[103.6370722,1.3488416],[103.6369106,1.3489035],[103.636913,1.3489097],[103.6369491,1.3488959],[103.6369692,1.348949],[103.6369313,1.3489636],[103.6369322,1.348966],[103.637099,1.3489053],[103.6372569,1.3493259],[103.6370934,1.3493881],[103.6370957,1.3493943],[103.6371339,1.3493798],[103.6371529,1.3494306],[103.6371154,1.3494449],[103.6371187,1.3494534],[103.6372822,1.3493913],[103.637438,1.3498064],[103.6372763,1.3498679],[103.6372804,1.3498786],[103.6373181,1.3498644],[103.6373367,1.3499142],[103.6373005,1.3499279],[103.6373024,1.3499329],[103.6372831,1.3499402],[103.6372897,1.349958],[103.6372494,1.3499732],[103.6372391,1.3499457],[103.6372021,1.3499597],[103.6371856,1.3499156],[103.6372248,1.3499008],[103.6372204,1.3498891],[103.6366288,1.3501141],[103.636692,1.3502817],[103.6371703,1.3500988],[103.6372169,1.350201],[103.6372402,1.350284],[103.6367621,1.3504667],[103.6368062,1.3505837],[103.6375167,1.3503122],[103.6376766,1.350736],[103.6364807,1.3511931],[103.6363216,1.3507713],[103.6364126,1.3507365],[103.6364146,1.3507193],[103.6364222,1.3507039],[103.6364346,1.350692],[103.6364487,1.3506855],[103.6364416,1.3506667],[103.6367366,1.3505539],[103.636711,1.3504861],[103.6366675,1.3503942],[103.6366416,1.3503021],[103.636578,1.3501335],[103.6364695,1.3501747],[103.6364724,1.350182],[103.6365088,1.3501674],[103.6365283,1.3502169],[103.6364937,1.3502307],[103.6364972,1.3502395],[103.636475,1.3502483],[103.636481,1.3502635],[103.6364416,1.3502792],[103.6364302,1.3502501],[103.6363952,1.350264],[103.6363777,1.3502195],[103.6364149,1.3502046],[103.6364118,1.3501966],[103.6356589,1.3504829],[103.6356621,1.3504909],[103.6356998,1.3504761],[103.635717,1.3505204],[103.6356803,1.3505348],[103.6356902,1.3505605],[103.635649,1.3505767],[103.6356416,1.3505577],[103.635624,1.3505646],[103.6356211,1.350557],[103.6355849,1.3505712],[103.6355661,1.3505226],[103.6356033,1.350508],[103.6356019,1.3505046],[103.6354401,1.3505661],[103.6353268,1.3502985],[103.6352817,1.3501443],[103.6354429,1.350083],[103.6354403,1.3500761],[103.6354053,1.3500894],[103.6353863,1.3500389],[103.6354232,1.3500249],[103.6354205,1.3500177],[103.6352554,1.3500805],[103.6350997,1.3496656],[103.6352624,1.3496064],[103.6352568,1.3495917],[103.6352225,1.3496049],[103.6352041,1.3495563],[103.6352401,1.3495425],[103.6352368,1.3495338],[103.6350738,1.3495964],[103.6349177,1.3491841],[103.6350762,1.3491225],[103.6350726,1.3491121],[103.6350366,1.3491248],[103.6350186,1.3490733],[103.6350538,1.3490608],[103.6350516,1.3490546],[103.6350692,1.3490484],[103.6350631,1.3490309],[103.6351055,1.3490158],[103.6351144,1.3490412],[103.6351522,1.3490278],[103.6351676,1.3490718],[103.6351305,1.349085],[103.6351362,1.3491012],[103.6353961,1.3490006],[103.6353143,1.3487837],[103.6352844,1.3487954],[103.6352707,1.348759],[103.6351802,1.3487955],[103.6351682,1.3487639],[103.6351554,1.3487709],[103.6351574,1.3487863],[103.635168,1.3488017],[103.6351848,1.3488097],[103.6352033,1.3488081],[103.6352613,1.3487845],[103.6352806,1.348836],[103.6352231,1.3488572],[103.6352032,1.3488601],[103.6351635,1.3488553],[103.6351448,1.3488478],[103.6351223,1.3488327],[103.6350941,1.3488442],[103.6351031,1.3488712],[103.6349981,1.3489117],[103.6349901,1.3488905],[103.6349289,1.348914],[103.6349229,1.3488995],[103.6348967,1.3489078],[103.6348694,1.3489114],[103.634842,1.3489102],[103.6348151,1.3489042],[103.6347897,1.3488936],[103.6347666,1.3488787],[103.6347463,1.34886],[103.6347296,1.3488381],[103.6347169,1.3488136],[103.6347086,1.3487872],[103.634705,1.3487597],[103.6347062,1.3487321],[103.6347122,1.3487051],[103.6347227,1.3486796],[103.6347375,1.3486562],[103.634756,1.3486358],[103.6347779,1.348619],[103.634811,1.3486029],[103.6348073,1.3485923],[103.6348654,1.3485687],[103.634858,1.348546],[103.6349655,1.3485085],[103.6349749,1.3485334],[103.6350051,1.3485228],[103.6350127,1.3484891],[103.6350207,1.3484738],[103.635044,1.3484485],[103.6350586,1.3484392],[103.6351197,1.348415],[103.6351405,1.3484686],[103.6350859,1.3484875],[103.6350703,1.3484987],[103.6350639,1.34851],[103.6350618,1.3485228],[103.6350641,1.3485355],[103.6350706,1.3485467],[103.6350851,1.3485428],[103.6350756,1.3485152],[103.6351655,1.3484798],[103.6351521,1.3484441],[103.6360891,1.3480866],[103.6360086,1.3478729],[103.6355457,1.3480496],[103.6355493,1.348059],[103.6355867,1.3480447],[103.6356035,1.3480893],[103.6355659,1.3481036],[103.6355766,1.3481319],[103.6355371,1.348147],[103.6355302,1.3481287],[103.6355112,1.3481359],[103.6355088,1.3481296],[103.6354737,1.348143],[103.6354539,1.3480906],[103.6354899,1.3480769],[103.6354871,1.3480694],[103.6353244,1.3481315],[103.6351675,1.3477152],[103.6353278,1.3476526],[103.6353255,1.3476464],[103.6352895,1.34766],[103.6352697,1.3476068],[103.6353051,1.3475933],[103.6353029,1.3475873],[103.6351416,1.3476489],[103.6349848,1.347233],[103.6351439,1.347171],[103.6351405,1.3471619],[103.635106,1.347175],[103.6350872,1.3471248],[103.6351218,1.3471116],[103.6351193,1.3471048],[103.6349565,1.3471666],[103.6348003,1.3467496],[103.6349596,1.3466891],[103.6349566,1.3466811],[103.6349223,1.3466942],[103.6349027,1.3466417],[103.6349362,1.3466289],[103.6349339,1.3466227],[103.6349554,1.3466146],[103.6349487,1.3465966],[103.6349882,1.3465817],[103.6349986,1.3466096],[103.635034,1.3465962],[103.6350502,1.3466393],[103.6350138,1.3466531],[103.6350183,1.3466652],[103.6357704,1.3463798],[103.6357659,1.3463677],[103.63573,1.3463814],[103.6357132,1.3463366],[103.6357499,1.3463226],[103.6357395,1.3462949],[103.6357781,1.3462802],[103.6357846,1.3462977],[103.6358062,1.3462895],[103.6358089,1.3462967],[103.6358416,1.3462843],[103.6358568,1.3463249],[103.6358776,1.346317],[103.6358845,1.3463356],[103.6359931,1.3462944],[103.6361502,1.3467136],[103.6359893,1.3467747],[103.6359921,1.3467821],[103.6360274,1.3467687],[103.6360468,1.3468203],[103.6360121,1.3468334],[103.6360149,1.3468408],[103.6361776,1.3467774],[103.6363344,1.3471933],[103.6361725,1.3472552],[103.636176,1.3472646],[103.6362127,1.3472508],[103.636232,1.3473025],[103.6361972,1.3473156],[103.6361998,1.3473226],[103.6363608,1.3472597],[103.6365187,1.3476786],[103.6363573,1.3477402],[103.6363598,1.347747],[103.6363937,1.347734],[103.6364134,1.3477863],[103.6363783,1.3477997],[103.6363806,1.3478057],[103.6363614,1.347813],[103.6363682,1.3478312],[103.6363276,1.3478467],[103.6363166,1.3478174],[103.6362809,1.347831],[103.6362652,1.3477893],[103.636302,1.3477752],[103.6362973,1.3477628],[103.6360371,1.3478621],[103.6361176,1.3480757],[103.6361488,1.3480638],[103.6361619,1.3481],[103.6362555,1.3480639],[103.6362636,1.3480851],[103.6365447,1.3479767],[103.6365647,1.3480292],[103.6365792,1.3480236],[103.6366305,1.3481581],[103.6366164,1.3481636],[103.6366365,1.3482164],[103.6363535,1.3483256],[103.636361,1.3483451],[103.6362688,1.3483807],[103.6362811,1.3484151],[103.6353435,1.3487728],[103.6354252,1.3489895],[103.6358875,1.3488119],[103.6358835,1.348801],[103.635846,1.3488149],[103.6358302,1.3487719],[103.6358665,1.3487584],[103.6358559,1.3487296],[103.635897,1.3487143],[103.6359036,1.3487321],[103.6359216,1.3487254],[103.6359237,1.3487311],[103.6359606,1.3487173],[103.6359801,1.3487703],[103.6359429,1.3487842],[103.6359452,1.3487904]]]}},{"type":"Feature","properties":{"type":"LANDMARK"},"geometry":{"type":"Polygon","coordinates":[[[103.6369406,1.3510893],[103.6375685,1.3508496],[103.6376087,1.3509279],[103.6376397,1.3510384],[103.6370118,1.3512781],[103.6369671,1.3511838],[103.6369406,1.3510893]]]}}]}